[{"uf":"ac","city":"Acrel\u00e2ndia","parameter_uf":"ac","parameter_city":"acrelandia","area_code":68},{"uf":"ac","city":"Assis brasil","parameter_uf":"ac","parameter_city":"assis-brasil","area_code":68},{"uf":"ac","city":"Brasil\u00e9ia","parameter_uf":"ac","parameter_city":"brasileia","area_code":68},{"uf":"ac","city":"Bujari","parameter_uf":"ac","parameter_city":"bujari","area_code":68},{"uf":"ac","city":"Capixaba","parameter_uf":"ac","parameter_city":"capixaba","area_code":68},{"uf":"ac","city":"Cruzeiro do sul","parameter_uf":"ac","parameter_city":"cruzeiro-do-sul","area_code":68},{"uf":"ac","city":"Epitaciol\u00e2ndia","parameter_uf":"ac","parameter_city":"epitaciolandia","area_code":68},{"uf":"ac","city":"Feij\u00f3","parameter_uf":"ac","parameter_city":"feijo","area_code":68},{"uf":"ac","city":"Jord\u00e3o","parameter_uf":"ac","parameter_city":"jordao","area_code":68},{"uf":"ac","city":"M\u00e2ncio lima","parameter_uf":"ac","parameter_city":"mancio-lima","area_code":68},{"uf":"ac","city":"Manoel urbano","parameter_uf":"ac","parameter_city":"manoel-urbano","area_code":68},{"uf":"ac","city":"Pl\u00e1cido de castro","parameter_uf":"ac","parameter_city":"placido-de-castro","area_code":68},{"uf":"ac","city":"Porto acre","parameter_uf":"ac","parameter_city":"porto-acre","area_code":68},{"uf":"ac","city":"Porto walter","parameter_uf":"ac","parameter_city":"porto-walter","area_code":68},{"uf":"ac","city":"Rio branco","parameter_uf":"ac","parameter_city":"rio-branco","area_code":68},{"uf":"ac","city":"Rodrigues alves","parameter_uf":"ac","parameter_city":"rodrigues-alves","area_code":68},{"uf":"ac","city":"Santa rosa do purus","parameter_uf":"ac","parameter_city":"santa-rosa-do-purus","area_code":68},{"uf":"ac","city":"Sena madureira","parameter_uf":"ac","parameter_city":"sena-madureira","area_code":68},{"uf":"ac","city":"Senador guiomard","parameter_uf":"ac","parameter_city":"senador-guiomard","area_code":68},{"uf":"ac","city":"Tarauac\u00e1","parameter_uf":"ac","parameter_city":"tarauaca","area_code":68},{"uf":"ac","city":"Xapuri","parameter_uf":"ac","parameter_city":"xapuri","area_code":68}]