[{"uf":"al","city":"\u00c1gua branca","parameter_uf":"al","parameter_city":"agua-branca","area_code":82},{"uf":"al","city":"Anadia","parameter_uf":"al","parameter_city":"anadia","area_code":82},{"uf":"al","city":"Arapiraca","parameter_uf":"al","parameter_city":"arapiraca","area_code":82},{"uf":"al","city":"Atalaia","parameter_uf":"al","parameter_city":"atalaia","area_code":82},{"uf":"al","city":"Barra de santo ant\u00f4nio","parameter_uf":"al","parameter_city":"barra-de-santo-antonio","area_code":82},{"uf":"al","city":"Barra de s\u00e3o miguel","parameter_uf":"al","parameter_city":"barra-de-sao-miguel","area_code":82},{"uf":"al","city":"Batalha","parameter_uf":"al","parameter_city":"batalha","area_code":82},{"uf":"al","city":"Bel\u00e9m","parameter_uf":"al","parameter_city":"belem","area_code":82},{"uf":"al","city":"Belo monte","parameter_uf":"al","parameter_city":"belo-monte","area_code":82},{"uf":"al","city":"Boca da mata","parameter_uf":"al","parameter_city":"boca-da-mata","area_code":82},{"uf":"al","city":"Branquinha","parameter_uf":"al","parameter_city":"branquinha","area_code":82},{"uf":"al","city":"Cacimbinhas","parameter_uf":"al","parameter_city":"cacimbinhas","area_code":82},{"uf":"al","city":"Cajueiro","parameter_uf":"al","parameter_city":"cajueiro","area_code":82},{"uf":"al","city":"Campestre","parameter_uf":"al","parameter_city":"campestre","area_code":82},{"uf":"al","city":"Campo alegre","parameter_uf":"al","parameter_city":"campo-alegre","area_code":82},{"uf":"al","city":"Campo grande","parameter_uf":"al","parameter_city":"campo-grande","area_code":82},{"uf":"al","city":"Canapi","parameter_uf":"al","parameter_city":"canapi","area_code":82},{"uf":"al","city":"Capela","parameter_uf":"al","parameter_city":"capela","area_code":82},{"uf":"al","city":"Carneiros","parameter_uf":"al","parameter_city":"carneiros","area_code":82},{"uf":"al","city":"Ch\u00e3 preta","parameter_uf":"al","parameter_city":"cha-preta","area_code":82},{"uf":"al","city":"Coit\u00e9 do n\u00f3ia","parameter_uf":"al","parameter_city":"coite-do-noia","area_code":82},{"uf":"al","city":"Col\u00f4nia leopoldina","parameter_uf":"al","parameter_city":"colonia-leopoldina","area_code":82},{"uf":"al","city":"Coqueiro seco","parameter_uf":"al","parameter_city":"coqueiro-seco","area_code":82},{"uf":"al","city":"Coruripe","parameter_uf":"al","parameter_city":"coruripe","area_code":82},{"uf":"al","city":"Cra\u00edbas","parameter_uf":"al","parameter_city":"craibas","area_code":82},{"uf":"al","city":"Delmiro gouveia","parameter_uf":"al","parameter_city":"delmiro-gouveia","area_code":82},{"uf":"al","city":"Dois riachos","parameter_uf":"al","parameter_city":"dois-riachos","area_code":82},{"uf":"al","city":"Estrela de alagoas","parameter_uf":"al","parameter_city":"estrela-de-alagoas","area_code":82},{"uf":"al","city":"Feira grande","parameter_uf":"al","parameter_city":"feira-grande","area_code":82},{"uf":"al","city":"Feliz deserto","parameter_uf":"al","parameter_city":"feliz-deserto","area_code":82},{"uf":"al","city":"Flexeiras","parameter_uf":"al","parameter_city":"flexeiras","area_code":82},{"uf":"al","city":"Girau do ponciano","parameter_uf":"al","parameter_city":"girau-do-ponciano","area_code":82},{"uf":"al","city":"Ibateguara","parameter_uf":"al","parameter_city":"ibateguara","area_code":82},{"uf":"al","city":"Igaci","parameter_uf":"al","parameter_city":"igaci","area_code":82},{"uf":"al","city":"Igreja nova","parameter_uf":"al","parameter_city":"igreja-nova","area_code":82},{"uf":"al","city":"Inhapi","parameter_uf":"al","parameter_city":"inhapi","area_code":82},{"uf":"al","city":"Jacar\u00e9 dos homens","parameter_uf":"al","parameter_city":"jacare-dos-homens","area_code":82},{"uf":"al","city":"Jacu\u00edpe","parameter_uf":"al","parameter_city":"jacuipe","area_code":82},{"uf":"al","city":"Japaratinga","parameter_uf":"al","parameter_city":"japaratinga","area_code":82},{"uf":"al","city":"Jaramataia","parameter_uf":"al","parameter_city":"jaramataia","area_code":82},{"uf":"al","city":"Jequia da praia","parameter_uf":"al","parameter_city":"jequia-da-praia","area_code":82},{"uf":"al","city":"Joaquim gomes","parameter_uf":"al","parameter_city":"joaquim-gomes","area_code":82},{"uf":"al","city":"Jundi\u00e1","parameter_uf":"al","parameter_city":"jundia","area_code":82},{"uf":"al","city":"Junqueiro","parameter_uf":"al","parameter_city":"junqueiro","area_code":82},{"uf":"al","city":"Lagoa da canoa","parameter_uf":"al","parameter_city":"lagoa-da-canoa","area_code":82},{"uf":"al","city":"Limoeiro de anadia","parameter_uf":"al","parameter_city":"limoeiro-de-anadia","area_code":82},{"uf":"al","city":"Macei\u00f3","parameter_uf":"al","parameter_city":"maceio","area_code":82},{"uf":"al","city":"Major isidoro","parameter_uf":"al","parameter_city":"major-isidoro","area_code":82},{"uf":"al","city":"Mar vermelho","parameter_uf":"al","parameter_city":"mar-vermelho","area_code":82},{"uf":"al","city":"Maragogi","parameter_uf":"al","parameter_city":"maragogi","area_code":82},{"uf":"al","city":"Maravilha","parameter_uf":"al","parameter_city":"maravilha","area_code":82},{"uf":"al","city":"Marechal deodoro","parameter_uf":"al","parameter_city":"marechal-deodoro","area_code":82},{"uf":"al","city":"Maribondo","parameter_uf":"al","parameter_city":"maribondo","area_code":82},{"uf":"al","city":"Mata grande","parameter_uf":"al","parameter_city":"mata-grande","area_code":82},{"uf":"al","city":"Matriz de camaragibe","parameter_uf":"al","parameter_city":"matriz-de-camaragibe","area_code":82},{"uf":"al","city":"Messias","parameter_uf":"al","parameter_city":"messias","area_code":82},{"uf":"al","city":"Minador do negr\u00e3o","parameter_uf":"al","parameter_city":"minador-do-negrao","area_code":82},{"uf":"al","city":"Monteir\u00f3polis","parameter_uf":"al","parameter_city":"monteiropolis","area_code":82},{"uf":"al","city":"Murici","parameter_uf":"al","parameter_city":"murici","area_code":82},{"uf":"al","city":"Novo lino","parameter_uf":"al","parameter_city":"novo-lino","area_code":82},{"uf":"al","city":"Olho d'\u00e1gua das flores","parameter_uf":"al","parameter_city":"olho-d-agua-das-flores","area_code":82},{"uf":"al","city":"Olho d'\u00e1gua do casado","parameter_uf":"al","parameter_city":"olho-d-agua-do-casado","area_code":82},{"uf":"al","city":"Olho d'\u00e1gua grande","parameter_uf":"al","parameter_city":"olho-d-agua-grande","area_code":82},{"uf":"al","city":"Oliven\u00e7a","parameter_uf":"al","parameter_city":"olivenca","area_code":82},{"uf":"al","city":"Ouro branco","parameter_uf":"al","parameter_city":"ouro-branco","area_code":82},{"uf":"al","city":"Palestina","parameter_uf":"al","parameter_city":"palestina","area_code":82},{"uf":"al","city":"Palmeira dos \u00edndios","parameter_uf":"al","parameter_city":"palmeira-dos-indios","area_code":82},{"uf":"al","city":"P\u00e3o de a\u00e7\u00facar","parameter_uf":"al","parameter_city":"pao-de-acucar","area_code":82},{"uf":"al","city":"Pariconha","parameter_uf":"al","parameter_city":"pariconha","area_code":82},{"uf":"al","city":"Paripueira","parameter_uf":"al","parameter_city":"paripueira","area_code":82},{"uf":"al","city":"Passo de camaragibe","parameter_uf":"al","parameter_city":"passo-de-camaragibe","area_code":82},{"uf":"al","city":"Paulo jacinto","parameter_uf":"al","parameter_city":"paulo-jacinto","area_code":82},{"uf":"al","city":"Penedo","parameter_uf":"al","parameter_city":"penedo","area_code":82},{"uf":"al","city":"Pia\u00e7abu\u00e7u","parameter_uf":"al","parameter_city":"piacabucu","area_code":82},{"uf":"al","city":"Pilar","parameter_uf":"al","parameter_city":"pilar","area_code":82},{"uf":"al","city":"Pindoba","parameter_uf":"al","parameter_city":"pindoba","area_code":82},{"uf":"al","city":"Piranhas","parameter_uf":"al","parameter_city":"piranhas","area_code":82},{"uf":"al","city":"Po\u00e7o das trincheiras","parameter_uf":"al","parameter_city":"poco-das-trincheiras","area_code":82},{"uf":"al","city":"Porto calvo","parameter_uf":"al","parameter_city":"porto-calvo","area_code":82},{"uf":"al","city":"Porto de pedras","parameter_uf":"al","parameter_city":"porto-de-pedras","area_code":82},{"uf":"al","city":"Porto real do col\u00e9gio","parameter_uf":"al","parameter_city":"porto-real-do-colegio","area_code":82},{"uf":"al","city":"Quebrangulo","parameter_uf":"al","parameter_city":"quebrangulo","area_code":82},{"uf":"al","city":"Rio largo","parameter_uf":"al","parameter_city":"rio-largo","area_code":82},{"uf":"al","city":"Roteiro","parameter_uf":"al","parameter_city":"roteiro","area_code":82},{"uf":"al","city":"Santa luzia do norte","parameter_uf":"al","parameter_city":"santa-luzia-do-norte","area_code":82},{"uf":"al","city":"Santana do ipanema","parameter_uf":"al","parameter_city":"santana-do-ipanema","area_code":82},{"uf":"al","city":"Santana do munda\u00fa","parameter_uf":"al","parameter_city":"santana-do-mundau","area_code":82},{"uf":"al","city":"S\u00e3o br\u00e1s","parameter_uf":"al","parameter_city":"sao-bras","area_code":82},{"uf":"al","city":"S\u00e3o jos\u00e9 da laje","parameter_uf":"al","parameter_city":"sao-jose-da-laje","area_code":82},{"uf":"al","city":"S\u00e3o jos\u00e9 da tapera","parameter_uf":"al","parameter_city":"sao-jose-da-tapera","area_code":82},{"uf":"al","city":"S\u00e3o lu\u00eds do quitunde","parameter_uf":"al","parameter_city":"sao-luis-do-quitunde","area_code":82},{"uf":"al","city":"S\u00e3o miguel dos campos","parameter_uf":"al","parameter_city":"sao-miguel-dos-campos","area_code":82},{"uf":"al","city":"S\u00e3o sebasti\u00e3o","parameter_uf":"al","parameter_city":"sao-sebastiao","area_code":82},{"uf":"al","city":"Satuba","parameter_uf":"al","parameter_city":"satuba","area_code":82},{"uf":"al","city":"Senador rui palmeira","parameter_uf":"al","parameter_city":"senador-rui-palmeira","area_code":82},{"uf":"al","city":"Tanque d'arca","parameter_uf":"al","parameter_city":"tanque-d-arca","area_code":82},{"uf":"al","city":"Taquarana","parameter_uf":"al","parameter_city":"taquarana","area_code":82},{"uf":"al","city":"Teot\u00f4nio vilela","parameter_uf":"al","parameter_city":"teotonio-vilela","area_code":82},{"uf":"al","city":"Traipu","parameter_uf":"al","parameter_city":"traipu","area_code":82},{"uf":"al","city":"Uni\u00e3o dos palmares","parameter_uf":"al","parameter_city":"uniao-dos-palmares","area_code":82},{"uf":"al","city":"Vi\u00e7osa","parameter_uf":"al","parameter_city":"vicosa","area_code":82}]