[{"uf":"ap","city":"Amap\u00e1","parameter_uf":"ap","parameter_city":"amapa","area_code":96},{"uf":"ap","city":"Cal\u00e7oene","parameter_uf":"ap","parameter_city":"calcoene","area_code":96},{"uf":"ap","city":"Cutias","parameter_uf":"ap","parameter_city":"cutias","area_code":96},{"uf":"ap","city":"Ferreira gomes","parameter_uf":"ap","parameter_city":"ferreira-gomes","area_code":96},{"uf":"ap","city":"Itaubal","parameter_uf":"ap","parameter_city":"itaubal","area_code":96},{"uf":"ap","city":"Laranjal do jari","parameter_uf":"ap","parameter_city":"laranjal-do-jari","area_code":96},{"uf":"ap","city":"Macap\u00e1","parameter_uf":"ap","parameter_city":"macapa","area_code":96},{"uf":"ap","city":"Mazag\u00e3o","parameter_uf":"ap","parameter_city":"mazagao","area_code":96},{"uf":"ap","city":"Oiapoque","parameter_uf":"ap","parameter_city":"oiapoque","area_code":96},{"uf":"ap","city":"Pedra branc      a do","parameter_uf":"ap","parameter_city":"pedra-branc-a-do","area_code":96},{"uf":"ap","city":"Porto grande","parameter_uf":"ap","parameter_city":"porto-grande","area_code":96},{"uf":"ap","city":"Pracu\u00faba","parameter_uf":"ap","parameter_city":"pracuuba","area_code":96},{"uf":"ap","city":"Santana","parameter_uf":"ap","parameter_city":"santana","area_code":96},{"uf":"ap","city":"Serra do navio","parameter_uf":"ap","parameter_city":"serra-do-navio","area_code":96},{"uf":"ap","city":"Tartarugalzinho","parameter_uf":"ap","parameter_city":"tartarugalzinho","area_code":96},{"uf":"ap","city":"Vit\u00f3ria do jari","parameter_uf":"ap","parameter_city":"vitoria-do-jari","area_code":96}]