[{"uf":"ba","city":"Aba\u00edra","parameter_uf":"ba","parameter_city":"abaira","area_code":77},{"uf":"ba","city":"Abar\u00e9","parameter_uf":"ba","parameter_city":"abare","area_code":75},{"uf":"ba","city":"Acajutiba","parameter_uf":"ba","parameter_city":"acajutiba","area_code":75},{"uf":"ba","city":"Adustina","parameter_uf":"ba","parameter_city":"adustina","area_code":75},{"uf":"ba","city":"\u00c1gua fria","parameter_uf":"ba","parameter_city":"agua-fria","area_code":75},{"uf":"ba","city":"Aiquara","parameter_uf":"ba","parameter_city":"aiquara","area_code":73},{"uf":"ba","city":"Alagoinhas","parameter_uf":"ba","parameter_city":"alagoinhas","area_code":75},{"uf":"ba","city":"Alcoba\u00e7a","parameter_uf":"ba","parameter_city":"alcobaca","area_code":73},{"uf":"ba","city":"Almadina","parameter_uf":"ba","parameter_city":"almadina","area_code":73},{"uf":"ba","city":"Amargosa","parameter_uf":"ba","parameter_city":"amargosa","area_code":75},{"uf":"ba","city":"Am\u00e9lia rodrigues","parameter_uf":"ba","parameter_city":"amelia-rodrigues","area_code":75},{"uf":"ba","city":"Am\u00e9rica dourada","parameter_uf":"ba","parameter_city":"america-dourada","area_code":74},{"uf":"ba","city":"Anag\u00e9","parameter_uf":"ba","parameter_city":"anage","area_code":77},{"uf":"ba","city":"Andara\u00ed","parameter_uf":"ba","parameter_city":"andarai","area_code":75},{"uf":"ba","city":"Andorinha","parameter_uf":"ba","parameter_city":"andorinha","area_code":74},{"uf":"ba","city":"Angical","parameter_uf":"ba","parameter_city":"angical","area_code":77},{"uf":"ba","city":"Anguera","parameter_uf":"ba","parameter_city":"anguera","area_code":75},{"uf":"ba","city":"Antas","parameter_uf":"ba","parameter_city":"antas","area_code":75},{"uf":"ba","city":"Ant\u00f4nio cardoso","parameter_uf":"ba","parameter_city":"antonio-cardoso","area_code":75},{"uf":"ba","city":"Ant\u00f4nio gon\u00e7alves","parameter_uf":"ba","parameter_city":"antonio-goncalves","area_code":74},{"uf":"ba","city":"Apor\u00e1","parameter_uf":"ba","parameter_city":"apora","area_code":75},{"uf":"ba","city":"Apuarema","parameter_uf":"ba","parameter_city":"apuarema","area_code":73},{"uf":"ba","city":"Ara\u00e7as","parameter_uf":"ba","parameter_city":"aracas","area_code":75},{"uf":"ba","city":"Aracatu","parameter_uf":"ba","parameter_city":"aracatu","area_code":77},{"uf":"ba","city":"Araci","parameter_uf":"ba","parameter_city":"araci","area_code":75},{"uf":"ba","city":"Aramari","parameter_uf":"ba","parameter_city":"aramari","area_code":75},{"uf":"ba","city":"Arataca","parameter_uf":"ba","parameter_city":"arataca","area_code":73},{"uf":"ba","city":"Aratu\u00edpe","parameter_uf":"ba","parameter_city":"aratuipe","area_code":75},{"uf":"ba","city":"Aurelino leal","parameter_uf":"ba","parameter_city":"aurelino-leal","area_code":73},{"uf":"ba","city":"Baian\u00f3polis","parameter_uf":"ba","parameter_city":"baianopolis","area_code":77},{"uf":"ba","city":"Baixa grande","parameter_uf":"ba","parameter_city":"baixa-grande","area_code":74},{"uf":"ba","city":"Banza\u00ea","parameter_uf":"ba","parameter_city":"banzae","area_code":75},{"uf":"ba","city":"Barra","parameter_uf":"ba","parameter_city":"barra","area_code":74},{"uf":"ba","city":"Barra da estiva","parameter_uf":"ba","parameter_city":"barra-da-estiva","area_code":77},{"uf":"ba","city":"Barra do cho\u00e7a","parameter_uf":"ba","parameter_city":"barra-do-choca","area_code":77},{"uf":"ba","city":"Barra do mendes","parameter_uf":"ba","parameter_city":"barra-do-mendes","area_code":74},{"uf":"ba","city":"Barra do rocha","parameter_uf":"ba","parameter_city":"barra-do-rocha","area_code":73},{"uf":"ba","city":"Barreiras","parameter_uf":"ba","parameter_city":"barreiras","area_code":77},{"uf":"ba","city":"Barro alto","parameter_uf":"ba","parameter_city":"barro-alto","area_code":74},{"uf":"ba","city":"Barro preto","parameter_uf":"ba","parameter_city":"barro-preto","area_code":73},{"uf":"ba","city":"Barrocas","parameter_uf":"ba","parameter_city":"barrocas","area_code":75},{"uf":"ba","city":"Belmonte","parameter_uf":"ba","parameter_city":"belmonte","area_code":73},{"uf":"ba","city":"Belo campo","parameter_uf":"ba","parameter_city":"belo-campo","area_code":77},{"uf":"ba","city":"Biritinga","parameter_uf":"ba","parameter_city":"biritinga","area_code":75},{"uf":"ba","city":"Boa nova","parameter_uf":"ba","parameter_city":"boa-nova","area_code":77},{"uf":"ba","city":"Boa vista do tupim","parameter_uf":"ba","parameter_city":"boa-vista-do-tupim","area_code":75},{"uf":"ba","city":"Bom jesus da lapa","parameter_uf":"ba","parameter_city":"bom-jesus-da-lapa","area_code":77},{"uf":"ba","city":"Bom jesus da serra","parameter_uf":"ba","parameter_city":"bom-jesus-da-serra","area_code":77},{"uf":"ba","city":"Boninal","parameter_uf":"ba","parameter_city":"boninal","area_code":75},{"uf":"ba","city":"Bonito","parameter_uf":"ba","parameter_city":"bonito","area_code":75},{"uf":"ba","city":"Boquira","parameter_uf":"ba","parameter_city":"boquira","area_code":77},{"uf":"ba","city":"Botupor\u00e3","parameter_uf":"ba","parameter_city":"botupora","area_code":77},{"uf":"ba","city":"Brej\u00f5es","parameter_uf":"ba","parameter_city":"brejoes","area_code":75},{"uf":"ba","city":"Brejol\u00e2ndia","parameter_uf":"ba","parameter_city":"brejolandia","area_code":77},{"uf":"ba","city":"Brotas de maca\u00fabas","parameter_uf":"ba","parameter_city":"brotas-de-macaubas","area_code":77},{"uf":"ba","city":"Brumado","parameter_uf":"ba","parameter_city":"brumado","area_code":77},{"uf":"ba","city":"Buerarema","parameter_uf":"ba","parameter_city":"buerarema","area_code":73},{"uf":"ba","city":"Buritirama","parameter_uf":"ba","parameter_city":"buritirama","area_code":77},{"uf":"ba","city":"Caatiba","parameter_uf":"ba","parameter_city":"caatiba","area_code":77},{"uf":"ba","city":"Cachoeira","parameter_uf":"ba","parameter_city":"cachoeira","area_code":75},{"uf":"ba","city":"Cacul\u00e9","parameter_uf":"ba","parameter_city":"cacule","area_code":77},{"uf":"ba","city":"Ca\u00e9m","parameter_uf":"ba","parameter_city":"caem","area_code":74},{"uf":"ba","city":"Caetanos","parameter_uf":"ba","parameter_city":"caetanos","area_code":77},{"uf":"ba","city":"Caetit\u00e9","parameter_uf":"ba","parameter_city":"caetite","area_code":77},{"uf":"ba","city":"Cafarnaum","parameter_uf":"ba","parameter_city":"cafarnaum","area_code":74},{"uf":"ba","city":"Cairu","parameter_uf":"ba","parameter_city":"cairu","area_code":75},{"uf":"ba","city":"Caldeir\u00e3o grande","parameter_uf":"ba","parameter_city":"caldeirao-grande","area_code":74},{"uf":"ba","city":"Camacan","parameter_uf":"ba","parameter_city":"camacan","area_code":73},{"uf":"ba","city":"Cama\u00e7ari","parameter_uf":"ba","parameter_city":"camacari","area_code":71},{"uf":"ba","city":"Camamu","parameter_uf":"ba","parameter_city":"camamu","area_code":73},{"uf":"ba","city":"Campo formoso","parameter_uf":"ba","parameter_city":"campo-formoso","area_code":74},{"uf":"ba","city":"Can\u00e1polis","parameter_uf":"ba","parameter_city":"canapolis","area_code":77},{"uf":"ba","city":"Canarana","parameter_uf":"ba","parameter_city":"canarana","area_code":74},{"uf":"ba","city":"Canavieiras","parameter_uf":"ba","parameter_city":"canavieiras","area_code":73},{"uf":"ba","city":"Candeal","parameter_uf":"ba","parameter_city":"candeal","area_code":75},{"uf":"ba","city":"Candeias","parameter_uf":"ba","parameter_city":"candeias","area_code":71},{"uf":"ba","city":"Candiba","parameter_uf":"ba","parameter_city":"candiba","area_code":77},{"uf":"ba","city":"C\u00e2ndido sales","parameter_uf":"ba","parameter_city":"candido-sales","area_code":77},{"uf":"ba","city":"Cansan\u00e7\u00e3o","parameter_uf":"ba","parameter_city":"cansancao","area_code":75},{"uf":"ba","city":"Canudos","parameter_uf":"ba","parameter_city":"canudos","area_code":75},{"uf":"ba","city":"Capela do alto alegre","parameter_uf":"ba","parameter_city":"capela-do-alto-alegre","area_code":75},{"uf":"ba","city":"Capim grosso","parameter_uf":"ba","parameter_city":"capim-grosso","area_code":74},{"uf":"ba","city":"Cara\u00edbas","parameter_uf":"ba","parameter_city":"caraibas","area_code":77},{"uf":"ba","city":"Caravelas","parameter_uf":"ba","parameter_city":"caravelas","area_code":73},{"uf":"ba","city":"Cardeal da silva","parameter_uf":"ba","parameter_city":"cardeal-da-silva","area_code":75},{"uf":"ba","city":"Carinhanha","parameter_uf":"ba","parameter_city":"carinhanha","area_code":77},{"uf":"ba","city":"Casa nova","parameter_uf":"ba","parameter_city":"casa-nova","area_code":74},{"uf":"ba","city":"Castro alves","parameter_uf":"ba","parameter_city":"castro-alves","area_code":75},{"uf":"ba","city":"Catol\u00e2ndia","parameter_uf":"ba","parameter_city":"catolandia","area_code":77},{"uf":"ba","city":"Catu","parameter_uf":"ba","parameter_city":"catu","area_code":71},{"uf":"ba","city":"Caturama","parameter_uf":"ba","parameter_city":"caturama","area_code":77},{"uf":"ba","city":"Central","parameter_uf":"ba","parameter_city":"central","area_code":74},{"uf":"ba","city":"Chorroch\u00f3","parameter_uf":"ba","parameter_city":"chorrocho","area_code":75},{"uf":"ba","city":"C\u00edcero dantas","parameter_uf":"ba","parameter_city":"cicero-dantas","area_code":75},{"uf":"ba","city":"Cip\u00f3","parameter_uf":"ba","parameter_city":"cipo","area_code":75},{"uf":"ba","city":"Coaraci","parameter_uf":"ba","parameter_city":"coaraci","area_code":73},{"uf":"ba","city":"Cocos","parameter_uf":"ba","parameter_city":"cocos","area_code":77},{"uf":"ba","city":"Concei\u00e7\u00e3o da feira","parameter_uf":"ba","parameter_city":"conceicao-da-feira","area_code":75},{"uf":"ba","city":"Concei\u00e7\u00e3o do almeida","parameter_uf":"ba","parameter_city":"conceicao-do-almeida","area_code":75},{"uf":"ba","city":"Concei\u00e7\u00e3o do coit\u00e9","parameter_uf":"ba","parameter_city":"conceicao-do-coite","area_code":75},{"uf":"ba","city":"Concei\u00e7\u00e3o do jacu\u00edpe","parameter_uf":"ba","parameter_city":"conceicao-do-jacuipe","area_code":75},{"uf":"ba","city":"Conde","parameter_uf":"ba","parameter_city":"conde","area_code":75},{"uf":"ba","city":"Conde\u00faba","parameter_uf":"ba","parameter_city":"condeuba","area_code":77},{"uf":"ba","city":"Contendas do sincor\u00e1","parameter_uf":"ba","parameter_city":"contendas-do-sincora","area_code":77},{"uf":"ba","city":"Cora\u00e7\u00e3o de maria","parameter_uf":"ba","parameter_city":"coracao-de-maria","area_code":75},{"uf":"ba","city":"Cordeiros","parameter_uf":"ba","parameter_city":"cordeiros","area_code":77},{"uf":"ba","city":"Coribe","parameter_uf":"ba","parameter_city":"coribe","area_code":77},{"uf":"ba","city":"Coronel jo\u00e3o s\u00e1","parameter_uf":"ba","parameter_city":"coronel-joao-sa","area_code":75},{"uf":"ba","city":"Correntina","parameter_uf":"ba","parameter_city":"correntina","area_code":77},{"uf":"ba","city":"Cotegipe","parameter_uf":"ba","parameter_city":"cotegipe","area_code":77},{"uf":"ba","city":"Cravol\u00e2ndia","parameter_uf":"ba","parameter_city":"cravolandia","area_code":73},{"uf":"ba","city":"Cris\u00f3polis","parameter_uf":"ba","parameter_city":"crisopolis","area_code":75},{"uf":"ba","city":"Crist\u00f3polis","parameter_uf":"ba","parameter_city":"cristopolis","area_code":77},{"uf":"ba","city":"Cruz das almas","parameter_uf":"ba","parameter_city":"cruz-das-almas","area_code":75},{"uf":"ba","city":"Cura\u00e7\u00e1","parameter_uf":"ba","parameter_city":"curaca","area_code":74},{"uf":"ba","city":"D\u00e1rio meira","parameter_uf":"ba","parameter_city":"dario-meira","area_code":73},{"uf":"ba","city":"Dias d'\u00e1vila","parameter_uf":"ba","parameter_city":"dias-d-avila","area_code":71},{"uf":"ba","city":"Dom bas\u00edlio","parameter_uf":"ba","parameter_city":"dom-basilio","area_code":77},{"uf":"ba","city":"Dom macedo costa","parameter_uf":"ba","parameter_city":"dom-macedo-costa","area_code":75},{"uf":"ba","city":"El\u00edsio medrado","parameter_uf":"ba","parameter_city":"elisio-medrado","area_code":75},{"uf":"ba","city":"Encruzilhada","parameter_uf":"ba","parameter_city":"encruzilhada","area_code":77},{"uf":"ba","city":"Entre rios","parameter_uf":"ba","parameter_city":"entre-rios","area_code":75},{"uf":"ba","city":"\u00c9rico cardoso","parameter_uf":"ba","parameter_city":"erico-cardoso","area_code":77},{"uf":"ba","city":"Esplanada","parameter_uf":"ba","parameter_city":"esplanada","area_code":75},{"uf":"ba","city":"Euclides da cunha","parameter_uf":"ba","parameter_city":"euclides-da-cunha","area_code":75},{"uf":"ba","city":"Eun\u00e1polis","parameter_uf":"ba","parameter_city":"eunapolis","area_code":73},{"uf":"ba","city":"F\u00e1tima","parameter_uf":"ba","parameter_city":"fatima","area_code":75},{"uf":"ba","city":"Feira da mata","parameter_uf":"ba","parameter_city":"feira-da-mata","area_code":77},{"uf":"ba","city":"Feira de santana","parameter_uf":"ba","parameter_city":"feira-de-santana","area_code":75},{"uf":"ba","city":"Filad\u00e9lfia","parameter_uf":"ba","parameter_city":"filadelfia","area_code":74},{"uf":"ba","city":"Firmino alves","parameter_uf":"ba","parameter_city":"firmino-alves","area_code":73},{"uf":"ba","city":"Floresta azul","parameter_uf":"ba","parameter_city":"floresta-azul","area_code":73},{"uf":"ba","city":"Formosa do rio preto","parameter_uf":"ba","parameter_city":"formosa-do-rio-preto","area_code":77},{"uf":"ba","city":"Gandu","parameter_uf":"ba","parameter_city":"gandu","area_code":73},{"uf":"ba","city":"Gavi\u00e3o","parameter_uf":"ba","parameter_city":"gaviao","area_code":75},{"uf":"ba","city":"Gentio do ouro","parameter_uf":"ba","parameter_city":"gentio-do-ouro","area_code":74},{"uf":"ba","city":"Gl\u00f3ria","parameter_uf":"ba","parameter_city":"gloria","area_code":75},{"uf":"ba","city":"Gongogi","parameter_uf":"ba","parameter_city":"gongogi","area_code":73},{"uf":"ba","city":"Guajeru","parameter_uf":"ba","parameter_city":"guajeru","area_code":77},{"uf":"ba","city":"Guanambi","parameter_uf":"ba","parameter_city":"guanambi","area_code":77},{"uf":"ba","city":"Guaratinga","parameter_uf":"ba","parameter_city":"guaratinga","area_code":73},{"uf":"ba","city":"Heli\u00f3polis","parameter_uf":"ba","parameter_city":"heliopolis","area_code":75},{"uf":"ba","city":"Ia\u00e7u","parameter_uf":"ba","parameter_city":"iacu","area_code":75},{"uf":"ba","city":"Ibiassuc\u00ea","parameter_uf":"ba","parameter_city":"ibiassuce","area_code":77},{"uf":"ba","city":"Ibicara\u00ed","parameter_uf":"ba","parameter_city":"ibicarai","area_code":73},{"uf":"ba","city":"Ibicoara","parameter_uf":"ba","parameter_city":"ibicoara","area_code":77},{"uf":"ba","city":"Ibicu\u00ed","parameter_uf":"ba","parameter_city":"ibicui","area_code":73},{"uf":"ba","city":"Ibipeba","parameter_uf":"ba","parameter_city":"ibipeba","area_code":74},{"uf":"ba","city":"Ibipitanga","parameter_uf":"ba","parameter_city":"ibipitanga","area_code":77},{"uf":"ba","city":"Ibiquera","parameter_uf":"ba","parameter_city":"ibiquera","area_code":75},{"uf":"ba","city":"Ibirapitanga","parameter_uf":"ba","parameter_city":"ibirapitanga","area_code":73},{"uf":"ba","city":"Ibirapu\u00e3","parameter_uf":"ba","parameter_city":"ibirapua","area_code":73},{"uf":"ba","city":"Ibirataia","parameter_uf":"ba","parameter_city":"ibirataia","area_code":73},{"uf":"ba","city":"Ibitiara","parameter_uf":"ba","parameter_city":"ibitiara","area_code":77},{"uf":"ba","city":"Ibitit\u00e1","parameter_uf":"ba","parameter_city":"ibitita","area_code":74},{"uf":"ba","city":"Ibotirama","parameter_uf":"ba","parameter_city":"ibotirama","area_code":77},{"uf":"ba","city":"Ichu","parameter_uf":"ba","parameter_city":"ichu","area_code":75},{"uf":"ba","city":"Igapor\u00e3","parameter_uf":"ba","parameter_city":"igapora","area_code":77},{"uf":"ba","city":"Igrapi\u00fana","parameter_uf":"ba","parameter_city":"igrapiuna","area_code":73},{"uf":"ba","city":"Igua\u00ed","parameter_uf":"ba","parameter_city":"iguai","area_code":73},{"uf":"ba","city":"Ilh\u00e9us","parameter_uf":"ba","parameter_city":"ilheus","area_code":73},{"uf":"ba","city":"Inhambupe","parameter_uf":"ba","parameter_city":"inhambupe","area_code":75},{"uf":"ba","city":"Ipecaet\u00e1","parameter_uf":"ba","parameter_city":"ipecaeta","area_code":75},{"uf":"ba","city":"Ipia\u00fa","parameter_uf":"ba","parameter_city":"ipiau","area_code":73},{"uf":"ba","city":"Ipir\u00e1","parameter_uf":"ba","parameter_city":"ipira","area_code":75},{"uf":"ba","city":"Ipupiara","parameter_uf":"ba","parameter_city":"ipupiara","area_code":77},{"uf":"ba","city":"Irajuba","parameter_uf":"ba","parameter_city":"irajuba","area_code":73},{"uf":"ba","city":"Iramaia","parameter_uf":"ba","parameter_city":"iramaia","area_code":77},{"uf":"ba","city":"Iraquara","parameter_uf":"ba","parameter_city":"iraquara","area_code":75},{"uf":"ba","city":"Irar\u00e1","parameter_uf":"ba","parameter_city":"irara","area_code":75},{"uf":"ba","city":"Irec\u00ea","parameter_uf":"ba","parameter_city":"irece","area_code":74},{"uf":"ba","city":"Itabela","parameter_uf":"ba","parameter_city":"itabela","area_code":73},{"uf":"ba","city":"Itaberaba","parameter_uf":"ba","parameter_city":"itaberaba","area_code":75},{"uf":"ba","city":"Itabuna","parameter_uf":"ba","parameter_city":"itabuna","area_code":73},{"uf":"ba","city":"Itacar\u00e9","parameter_uf":"ba","parameter_city":"itacare","area_code":73},{"uf":"ba","city":"Itaet\u00e9","parameter_uf":"ba","parameter_city":"itaete","area_code":75},{"uf":"ba","city":"Itagi","parameter_uf":"ba","parameter_city":"itagi","area_code":73},{"uf":"ba","city":"Itagib\u00e1","parameter_uf":"ba","parameter_city":"itagiba","area_code":73},{"uf":"ba","city":"Itagimirim","parameter_uf":"ba","parameter_city":"itagimirim","area_code":73},{"uf":"ba","city":"Itagua\u00e7u da bahia","parameter_uf":"ba","parameter_city":"itaguacu-da-bahia","area_code":74},{"uf":"ba","city":"Itaju do col\u00f4nia","parameter_uf":"ba","parameter_city":"itaju-do-colonia","area_code":73},{"uf":"ba","city":"Itaju\u00edpe","parameter_uf":"ba","parameter_city":"itajuipe","area_code":73},{"uf":"ba","city":"Itamaraju","parameter_uf":"ba","parameter_city":"itamaraju","area_code":73},{"uf":"ba","city":"Itamari","parameter_uf":"ba","parameter_city":"itamari","area_code":73},{"uf":"ba","city":"Itamb\u00e9","parameter_uf":"ba","parameter_city":"itambe","area_code":77},{"uf":"ba","city":"Itanagra","parameter_uf":"ba","parameter_city":"itanagra","area_code":75},{"uf":"ba","city":"Itanh\u00e9m","parameter_uf":"ba","parameter_city":"itanhem","area_code":73},{"uf":"ba","city":"Itaparica","parameter_uf":"ba","parameter_city":"itaparica","area_code":71},{"uf":"ba","city":"Itap\u00e9","parameter_uf":"ba","parameter_city":"itape","area_code":73},{"uf":"ba","city":"Itapebi","parameter_uf":"ba","parameter_city":"itapebi","area_code":73},{"uf":"ba","city":"Itapetinga","parameter_uf":"ba","parameter_city":"itapetinga","area_code":77},{"uf":"ba","city":"Itapicuru","parameter_uf":"ba","parameter_city":"itapicuru","area_code":75},{"uf":"ba","city":"Itapitanga","parameter_uf":"ba","parameter_city":"itapitanga","area_code":73},{"uf":"ba","city":"Itaquara","parameter_uf":"ba","parameter_city":"itaquara","area_code":73},{"uf":"ba","city":"Itarantim","parameter_uf":"ba","parameter_city":"itarantim","area_code":73},{"uf":"ba","city":"Itatim","parameter_uf":"ba","parameter_city":"itatim","area_code":75},{"uf":"ba","city":"Itiru\u00e7u","parameter_uf":"ba","parameter_city":"itirucu","area_code":73},{"uf":"ba","city":"Iti\u00faba","parameter_uf":"ba","parameter_city":"itiuba","area_code":74},{"uf":"ba","city":"Itoror\u00f3","parameter_uf":"ba","parameter_city":"itororo","area_code":73},{"uf":"ba","city":"Itua\u00e7u","parameter_uf":"ba","parameter_city":"ituacu","area_code":77},{"uf":"ba","city":"Ituber\u00e1","parameter_uf":"ba","parameter_city":"itubera","area_code":73},{"uf":"ba","city":"Iui\u00fa","parameter_uf":"ba","parameter_city":"iuiu","area_code":77},{"uf":"ba","city":"Jaborandi","parameter_uf":"ba","parameter_city":"jaborandi","area_code":77},{"uf":"ba","city":"Jacaraci","parameter_uf":"ba","parameter_city":"jacaraci","area_code":77},{"uf":"ba","city":"Jacobina","parameter_uf":"ba","parameter_city":"jacobina","area_code":74},{"uf":"ba","city":"Jaguaquara","parameter_uf":"ba","parameter_city":"jaguaquara","area_code":73},{"uf":"ba","city":"Jaguarari","parameter_uf":"ba","parameter_city":"jaguarari","area_code":74},{"uf":"ba","city":"Jaguaripe","parameter_uf":"ba","parameter_city":"jaguaripe","area_code":75},{"uf":"ba","city":"Janda\u00edra","parameter_uf":"ba","parameter_city":"jandaira","area_code":75},{"uf":"ba","city":"Jequi\u00e9","parameter_uf":"ba","parameter_city":"jequie","area_code":73},{"uf":"ba","city":"Jeremoabo","parameter_uf":"ba","parameter_city":"jeremoabo","area_code":75},{"uf":"ba","city":"Jiquiri\u00e7\u00e1","parameter_uf":"ba","parameter_city":"jiquirica","area_code":75},{"uf":"ba","city":"Jita\u00fana","parameter_uf":"ba","parameter_city":"jitauna","area_code":73},{"uf":"ba","city":"Jo\u00e3o dourado","parameter_uf":"ba","parameter_city":"joao-dourado","area_code":74},{"uf":"ba","city":"Juazeiro","parameter_uf":"ba","parameter_city":"juazeiro","area_code":74},{"uf":"ba","city":"Jucuru\u00e7u","parameter_uf":"ba","parameter_city":"jucurucu","area_code":73},{"uf":"ba","city":"Jussara","parameter_uf":"ba","parameter_city":"jussara","area_code":74},{"uf":"ba","city":"Jussari","parameter_uf":"ba","parameter_city":"jussari","area_code":73},{"uf":"ba","city":"Jussiape","parameter_uf":"ba","parameter_city":"jussiape","area_code":77},{"uf":"ba","city":"Lafaiete coutinho","parameter_uf":"ba","parameter_city":"lafaiete-coutinho","area_code":73},{"uf":"ba","city":"Lagoa real","parameter_uf":"ba","parameter_city":"lagoa-real","area_code":77},{"uf":"ba","city":"Laje","parameter_uf":"ba","parameter_city":"laje","area_code":75},{"uf":"ba","city":"Lajed\u00e3o","parameter_uf":"ba","parameter_city":"lajedao","area_code":73},{"uf":"ba","city":"Lajedinho","parameter_uf":"ba","parameter_city":"lajedinho","area_code":75},{"uf":"ba","city":"Lajedo do tabocal","parameter_uf":"ba","parameter_city":"lajedo-do-tabocal","area_code":73},{"uf":"ba","city":"Lamar\u00e3o","parameter_uf":"ba","parameter_city":"lamarao","area_code":75},{"uf":"ba","city":"Lap\u00e3o","parameter_uf":"ba","parameter_city":"lapao","area_code":74},{"uf":"ba","city":"Lauro de freitas","parameter_uf":"ba","parameter_city":"lauro-de-freitas","area_code":71},{"uf":"ba","city":"Len\u00e7\u00f3is","parameter_uf":"ba","parameter_city":"lencois","area_code":75},{"uf":"ba","city":"Lic\u00ednio de almeida","parameter_uf":"ba","parameter_city":"licinio-de-almeida","area_code":77},{"uf":"ba","city":"Macajuba","parameter_uf":"ba","parameter_city":"macajuba","area_code":74},{"uf":"ba","city":"Macarani","parameter_uf":"ba","parameter_city":"macarani","area_code":77},{"uf":"ba","city":"Maca\u00fabas","parameter_uf":"ba","parameter_city":"macaubas","area_code":77},{"uf":"ba","city":"Macurur\u00e9","parameter_uf":"ba","parameter_city":"macurure","area_code":75},{"uf":"ba","city":"Madre de deus","parameter_uf":"ba","parameter_city":"madre-de-deus","area_code":71},{"uf":"ba","city":"Maetinga","parameter_uf":"ba","parameter_city":"maetinga","area_code":77},{"uf":"ba","city":"Maiquinique","parameter_uf":"ba","parameter_city":"maiquinique","area_code":77},{"uf":"ba","city":"Mairi","parameter_uf":"ba","parameter_city":"mairi","area_code":74},{"uf":"ba","city":"Malhada","parameter_uf":"ba","parameter_city":"malhada","area_code":77},{"uf":"ba","city":"Malhada de pedras","parameter_uf":"ba","parameter_city":"malhada-de-pedras","area_code":77},{"uf":"ba","city":"Manoel vitorino","parameter_uf":"ba","parameter_city":"manoel-vitorino","area_code":73},{"uf":"ba","city":"Mansid\u00e3o","parameter_uf":"ba","parameter_city":"mansidao","area_code":77},{"uf":"ba","city":"Marac\u00e1s","parameter_uf":"ba","parameter_city":"maracas","area_code":73},{"uf":"ba","city":"Maragogipe","parameter_uf":"ba","parameter_city":"maragogipe","area_code":75},{"uf":"ba","city":"Mara\u00fa","parameter_uf":"ba","parameter_city":"marau","area_code":73},{"uf":"ba","city":"Marcion\u00edlio souza","parameter_uf":"ba","parameter_city":"marcionilio-souza","area_code":75},{"uf":"ba","city":"Mascote","parameter_uf":"ba","parameter_city":"mascote","area_code":73},{"uf":"ba","city":"Mata de s\u00e3o jo\u00e3o","parameter_uf":"ba","parameter_city":"mata-de-sao-joao","area_code":71},{"uf":"ba","city":"Matina","parameter_uf":"ba","parameter_city":"matina","area_code":77},{"uf":"ba","city":"Medeiros neto","parameter_uf":"ba","parameter_city":"medeiros-neto","area_code":73},{"uf":"ba","city":"Miguel calmon","parameter_uf":"ba","parameter_city":"miguel-calmon","area_code":74},{"uf":"ba","city":"Milagres","parameter_uf":"ba","parameter_city":"milagres","area_code":75},{"uf":"ba","city":"Mirangaba","parameter_uf":"ba","parameter_city":"mirangaba","area_code":74},{"uf":"ba","city":"Mirante","parameter_uf":"ba","parameter_city":"mirante","area_code":77},{"uf":"ba","city":"Monte santo","parameter_uf":"ba","parameter_city":"monte-santo","area_code":75},{"uf":"ba","city":"Morpar\u00e1","parameter_uf":"ba","parameter_city":"morpara","area_code":77},{"uf":"ba","city":"Morro do chap\u00e9u","parameter_uf":"ba","parameter_city":"morro-do-chapeu","area_code":74},{"uf":"ba","city":"Mortugaba","parameter_uf":"ba","parameter_city":"mortugaba","area_code":77},{"uf":"ba","city":"Mucug\u00ea","parameter_uf":"ba","parameter_city":"mucuge","area_code":75},{"uf":"ba","city":"Mucuri","parameter_uf":"ba","parameter_city":"mucuri","area_code":73},{"uf":"ba","city":"Mulungu do morro","parameter_uf":"ba","parameter_city":"mulungu-do-morro","area_code":74},{"uf":"ba","city":"Mundo novo","parameter_uf":"ba","parameter_city":"mundo-novo","area_code":74},{"uf":"ba","city":"Muniz ferreira","parameter_uf":"ba","parameter_city":"muniz-ferreira","area_code":75},{"uf":"ba","city":"Muritiba","parameter_uf":"ba","parameter_city":"muritiba","area_code":75},{"uf":"ba","city":"Mutu\u00edpe","parameter_uf":"ba","parameter_city":"mutuipe","area_code":75},{"uf":"ba","city":"Nazar\u00e9","parameter_uf":"ba","parameter_city":"nazare","area_code":75},{"uf":"ba","city":"Nilo pe\u00e7anha","parameter_uf":"ba","parameter_city":"nilo-pecanha","area_code":73},{"uf":"ba","city":"Nordestina","parameter_uf":"ba","parameter_city":"nordestina","area_code":75},{"uf":"ba","city":"Nova cana\u00e3","parameter_uf":"ba","parameter_city":"nova-canaa","area_code":73},{"uf":"ba","city":"Nova f\u00e1tima","parameter_uf":"ba","parameter_city":"nova-fatima","area_code":75},{"uf":"ba","city":"Nova ibi\u00e1","parameter_uf":"ba","parameter_city":"nova-ibia","area_code":73},{"uf":"ba","city":"Nova itarana","parameter_uf":"ba","parameter_city":"nova-itarana","area_code":73},{"uf":"ba","city":"Nova reden\u00e7\u00e3o","parameter_uf":"ba","parameter_city":"nova-redencao","area_code":75},{"uf":"ba","city":"Nova soure","parameter_uf":"ba","parameter_city":"nova-soure","area_code":75},{"uf":"ba","city":"Nova vi\u00e7osa","parameter_uf":"ba","parameter_city":"nova-vicosa","area_code":73},{"uf":"ba","city":"Novo horizonte","parameter_uf":"ba","parameter_city":"novo-horizonte","area_code":77},{"uf":"ba","city":"Novo triunfo","parameter_uf":"ba","parameter_city":"novo-triunfo","area_code":75},{"uf":"ba","city":"Olindina","parameter_uf":"ba","parameter_city":"olindina","area_code":75},{"uf":"ba","city":"Oliveira dos brejinhos","parameter_uf":"ba","parameter_city":"oliveira-dos-brejinhos","area_code":77},{"uf":"ba","city":"Ouri\u00e7angas","parameter_uf":"ba","parameter_city":"ouricangas","area_code":75},{"uf":"ba","city":"Ourol\u00e2ndia","parameter_uf":"ba","parameter_city":"ourolandia","area_code":74},{"uf":"ba","city":"Palmas de monte alto","parameter_uf":"ba","parameter_city":"palmas-de-monte-alto","area_code":77},{"uf":"ba","city":"Palmeiras","parameter_uf":"ba","parameter_city":"palmeiras","area_code":75},{"uf":"ba","city":"Paramirim","parameter_uf":"ba","parameter_city":"paramirim","area_code":77},{"uf":"ba","city":"Paratinga","parameter_uf":"ba","parameter_city":"paratinga","area_code":77},{"uf":"ba","city":"Paripiranga","parameter_uf":"ba","parameter_city":"paripiranga","area_code":75},{"uf":"ba","city":"Pau brasil","parameter_uf":"ba","parameter_city":"pau-brasil","area_code":73},{"uf":"ba","city":"Paulo afonso","parameter_uf":"ba","parameter_city":"paulo-afonso","area_code":75},{"uf":"ba","city":"P\u00e9 de serra","parameter_uf":"ba","parameter_city":"pe-de-serra","area_code":75},{"uf":"ba","city":"Pedr\u00e3o","parameter_uf":"ba","parameter_city":"pedrao","area_code":75},{"uf":"ba","city":"Pedro alexandre","parameter_uf":"ba","parameter_city":"pedro-alexandre","area_code":75},{"uf":"ba","city":"Piat\u00e3","parameter_uf":"ba","parameter_city":"piata","area_code":77},{"uf":"ba","city":"Pil\u00e3o arcado","parameter_uf":"ba","parameter_city":"pilao-arcado","area_code":74},{"uf":"ba","city":"Pinda\u00ed","parameter_uf":"ba","parameter_city":"pindai","area_code":77},{"uf":"ba","city":"Pindoba\u00e7u","parameter_uf":"ba","parameter_city":"pindobacu","area_code":74},{"uf":"ba","city":"Pintadas","parameter_uf":"ba","parameter_city":"pintadas","area_code":75},{"uf":"ba","city":"Pira\u00ed do norte","parameter_uf":"ba","parameter_city":"pirai-do-norte","area_code":73},{"uf":"ba","city":"Pirip\u00e1","parameter_uf":"ba","parameter_city":"piripa","area_code":77},{"uf":"ba","city":"Piritiba","parameter_uf":"ba","parameter_city":"piritiba","area_code":74},{"uf":"ba","city":"Planaltino","parameter_uf":"ba","parameter_city":"planaltino","area_code":73},{"uf":"ba","city":"Planalto","parameter_uf":"ba","parameter_city":"planalto","area_code":77},{"uf":"ba","city":"Po\u00e7\u00f5es","parameter_uf":"ba","parameter_city":"pocoes","area_code":77},{"uf":"ba","city":"Pojuca","parameter_uf":"ba","parameter_city":"pojuca","area_code":71},{"uf":"ba","city":"Ponto novo","parameter_uf":"ba","parameter_city":"ponto-novo","area_code":74},{"uf":"ba","city":"Porto seguro","parameter_uf":"ba","parameter_city":"porto-seguro","area_code":73},{"uf":"ba","city":"Potiragu\u00e1","parameter_uf":"ba","parameter_city":"potiragua","area_code":73},{"uf":"ba","city":"Prado","parameter_uf":"ba","parameter_city":"prado","area_code":73},{"uf":"ba","city":"Presidente dutra","parameter_uf":"ba","parameter_city":"presidente-dutra","area_code":74},{"uf":"ba","city":"Queimadas","parameter_uf":"ba","parameter_city":"queimadas","area_code":75},{"uf":"ba","city":"Quijingue","parameter_uf":"ba","parameter_city":"quijingue","area_code":75},{"uf":"ba","city":"Quixabeira","parameter_uf":"ba","parameter_city":"quixabeira","area_code":74},{"uf":"ba","city":"Rafael jambeiro","parameter_uf":"ba","parameter_city":"rafael-jambeiro","area_code":75},{"uf":"ba","city":"Remanso","parameter_uf":"ba","parameter_city":"remanso","area_code":74},{"uf":"ba","city":"Retirol\u00e2ndia","parameter_uf":"ba","parameter_city":"retirolandia","area_code":75},{"uf":"ba","city":"Riach\u00e3o das neves","parameter_uf":"ba","parameter_city":"riachao-das-neves","area_code":77},{"uf":"ba","city":"Riach\u00e3o do jacu\u00edpe","parameter_uf":"ba","parameter_city":"riachao-do-jacuipe","area_code":75},{"uf":"ba","city":"Riacho de santana","parameter_uf":"ba","parameter_city":"riacho-de-santana","area_code":77},{"uf":"ba","city":"Ribeira do amparo","parameter_uf":"ba","parameter_city":"ribeira-do-amparo","area_code":75},{"uf":"ba","city":"Ribeira do pombal","parameter_uf":"ba","parameter_city":"ribeira-do-pombal","area_code":75},{"uf":"ba","city":"Ribeir\u00e3o do largo","parameter_uf":"ba","parameter_city":"ribeirao-do-largo","area_code":77},{"uf":"ba","city":"Rio de contas","parameter_uf":"ba","parameter_city":"rio-de-contas","area_code":77},{"uf":"ba","city":"Rio do ant\u00f4nio","parameter_uf":"ba","parameter_city":"rio-do-antonio","area_code":77},{"uf":"ba","city":"Rio do pires","parameter_uf":"ba","parameter_city":"rio-do-pires","area_code":77},{"uf":"ba","city":"Rio real","parameter_uf":"ba","parameter_city":"rio-real","area_code":75},{"uf":"ba","city":"Rodelas","parameter_uf":"ba","parameter_city":"rodelas","area_code":75},{"uf":"ba","city":"Ruy barbosa","parameter_uf":"ba","parameter_city":"ruy-barbosa","area_code":75},{"uf":"ba","city":"Salinas da margarida","parameter_uf":"ba","parameter_city":"salinas-da-margarida","area_code":75},{"uf":"ba","city":"Salvador","parameter_uf":"ba","parameter_city":"salvador","area_code":71},{"uf":"ba","city":"Santa b\u00e1rbara","parameter_uf":"ba","parameter_city":"santa-barbara","area_code":75},{"uf":"ba","city":"Santa br\u00edgida","parameter_uf":"ba","parameter_city":"santa-brigida","area_code":75},{"uf":"ba","city":"Santa cruz cabr\u00e1lia","parameter_uf":"ba","parameter_city":"santa-cruz-cabralia","area_code":73},{"uf":"ba","city":"Santa cruz da vit\u00f3ria","parameter_uf":"ba","parameter_city":"santa-cruz-da-vitoria","area_code":73},{"uf":"ba","city":"Santa in\u00eas","parameter_uf":"ba","parameter_city":"santa-ines","area_code":73},{"uf":"ba","city":"Santa luzia","parameter_uf":"ba","parameter_city":"santa-luzia","area_code":73},{"uf":"ba","city":"Santa maria da vit\u00f3ria","parameter_uf":"ba","parameter_city":"santa-maria-da-vitoria","area_code":77},{"uf":"ba","city":"Santa rita de c\u00e1ssia","parameter_uf":"ba","parameter_city":"santa-rita-de-cassia","area_code":77},{"uf":"ba","city":"Santa teresinha","parameter_uf":"ba","parameter_city":"santa-teresinha","area_code":75},{"uf":"ba","city":"Santaluz","parameter_uf":"ba","parameter_city":"santaluz","area_code":75},{"uf":"ba","city":"Santana","parameter_uf":"ba","parameter_city":"santana","area_code":77},{"uf":"ba","city":"Santan\u00f3polis","parameter_uf":"ba","parameter_city":"santanopolis","area_code":75},{"uf":"ba","city":"Santo amaro","parameter_uf":"ba","parameter_city":"santo-amaro","area_code":75},{"uf":"ba","city":"Santo ant\u00f4nio de jesus","parameter_uf":"ba","parameter_city":"santo-antonio-de-jesus","area_code":75},{"uf":"ba","city":"Santo est\u00eav\u00e3o","parameter_uf":"ba","parameter_city":"santo-estevao","area_code":75},{"uf":"ba","city":"S\u00e3o desid\u00e9rio","parameter_uf":"ba","parameter_city":"sao-desiderio","area_code":77},{"uf":"ba","city":"S\u00e3o domingos","parameter_uf":"ba","parameter_city":"sao-domingos","area_code":75},{"uf":"ba","city":"S\u00e3o felipe","parameter_uf":"ba","parameter_city":"sao-felipe","area_code":75},{"uf":"ba","city":"S\u00e3o f\u00e9lix","parameter_uf":"ba","parameter_city":"sao-felix","area_code":75},{"uf":"ba","city":"S\u00e3o f\u00e9lix do coribe","parameter_uf":"ba","parameter_city":"sao-felix-do-coribe","area_code":77},{"uf":"ba","city":"S\u00e3o gabriel","parameter_uf":"ba","parameter_city":"sao-gabriel","area_code":74},{"uf":"ba","city":"S\u00e3o jos\u00e9 da vit\u00f3ria","parameter_uf":"ba","parameter_city":"sao-jose-da-vitoria","area_code":73},{"uf":"ba","city":"S\u00e3o jos\u00e9 do jacu\u00edpe","parameter_uf":"ba","parameter_city":"sao-jose-do-jacuipe","area_code":74},{"uf":"ba","city":"S\u00e3o miguel das matas","parameter_uf":"ba","parameter_city":"sao-miguel-das-matas","area_code":75},{"uf":"ba","city":"S\u00e3o sebasti\u00e3o do pass\u00e9","parameter_uf":"ba","parameter_city":"sao-sebastiao-do-passe","area_code":71},{"uf":"ba","city":"Sapea\u00e7u","parameter_uf":"ba","parameter_city":"sapeacu","area_code":75},{"uf":"ba","city":"S\u00e1tiro dias","parameter_uf":"ba","parameter_city":"satiro-dias","area_code":75},{"uf":"ba","city":"Saubara","parameter_uf":"ba","parameter_city":"saubara","area_code":75},{"uf":"ba","city":"Sa\u00fade","parameter_uf":"ba","parameter_city":"saude","area_code":74},{"uf":"ba","city":"Seabra","parameter_uf":"ba","parameter_city":"seabra","area_code":75},{"uf":"ba","city":"Sebasti\u00e3o laranjeiras","parameter_uf":"ba","parameter_city":"sebastiao-laranjeiras","area_code":77},{"uf":"ba","city":"Senhor do bonfim","parameter_uf":"ba","parameter_city":"senhor-do-bonfim","area_code":74},{"uf":"ba","city":"Sento s\u00e9","parameter_uf":"ba","parameter_city":"sento-se","area_code":74},{"uf":"ba","city":"Serra do ramalho","parameter_uf":"ba","parameter_city":"serra-do-ramalho","area_code":77},{"uf":"ba","city":"Serra dourada","parameter_uf":"ba","parameter_city":"serra-dourada","area_code":77},{"uf":"ba","city":"Serra preta","parameter_uf":"ba","parameter_city":"serra-preta","area_code":75},{"uf":"ba","city":"Serrinha","parameter_uf":"ba","parameter_city":"serrinha","area_code":75},{"uf":"ba","city":"Serrol\u00e2ndia","parameter_uf":"ba","parameter_city":"serrolandia","area_code":74},{"uf":"ba","city":"Sim\u00f5es filho","parameter_uf":"ba","parameter_city":"simoes-filho","area_code":71},{"uf":"ba","city":"S\u00edtio do mato","parameter_uf":"ba","parameter_city":"sitio-do-mato","area_code":77},{"uf":"ba","city":"S\u00edtio do quinto","parameter_uf":"ba","parameter_city":"sitio-do-quinto","area_code":75},{"uf":"ba","city":"Sobradinho","parameter_uf":"ba","parameter_city":"sobradinho","area_code":74},{"uf":"ba","city":"Souto soares","parameter_uf":"ba","parameter_city":"souto-soares","area_code":75},{"uf":"ba","city":"Tanha\u00e7u","parameter_uf":"ba","parameter_city":"tanhacu","area_code":77},{"uf":"ba","city":"Tanque novo","parameter_uf":"ba","parameter_city":"tanque-novo","area_code":77},{"uf":"ba","city":"Tanquinho","parameter_uf":"ba","parameter_city":"tanquinho","area_code":75},{"uf":"ba","city":"Tapero\u00e1","parameter_uf":"ba","parameter_city":"taperoa","area_code":75},{"uf":"ba","city":"Tapiramut\u00e1","parameter_uf":"ba","parameter_city":"tapiramuta","area_code":74},{"uf":"ba","city":"Teixeira de freitas","parameter_uf":"ba","parameter_city":"teixeira-de-freitas","area_code":73},{"uf":"ba","city":"Teodoro sampaio","parameter_uf":"ba","parameter_city":"teodoro-sampaio","area_code":75},{"uf":"ba","city":"Teofil\u00e2ndia","parameter_uf":"ba","parameter_city":"teofilandia","area_code":75},{"uf":"ba","city":"Teol\u00e2ndia","parameter_uf":"ba","parameter_city":"teolandia","area_code":73},{"uf":"ba","city":"Terra nova","parameter_uf":"ba","parameter_city":"terra-nova","area_code":75},{"uf":"ba","city":"Tremedal","parameter_uf":"ba","parameter_city":"tremedal","area_code":77},{"uf":"ba","city":"Tucano","parameter_uf":"ba","parameter_city":"tucano","area_code":75},{"uf":"ba","city":"Uau\u00e1","parameter_uf":"ba","parameter_city":"uaua","area_code":74},{"uf":"ba","city":"Uba\u00edra","parameter_uf":"ba","parameter_city":"ubaira","area_code":75},{"uf":"ba","city":"Ubaitaba","parameter_uf":"ba","parameter_city":"ubaitaba","area_code":73},{"uf":"ba","city":"Ubat\u00e3","parameter_uf":"ba","parameter_city":"ubata","area_code":73},{"uf":"ba","city":"Uiba\u00ed","parameter_uf":"ba","parameter_city":"uibai","area_code":74},{"uf":"ba","city":"Umburanas","parameter_uf":"ba","parameter_city":"umburanas","area_code":74},{"uf":"ba","city":"Una","parameter_uf":"ba","parameter_city":"una","area_code":73},{"uf":"ba","city":"Urandi","parameter_uf":"ba","parameter_city":"urandi","area_code":77},{"uf":"ba","city":"Uru\u00e7uca","parameter_uf":"ba","parameter_city":"urucuca","area_code":73},{"uf":"ba","city":"Utinga","parameter_uf":"ba","parameter_city":"utinga","area_code":75},{"uf":"ba","city":"Valen\u00e7a","parameter_uf":"ba","parameter_city":"valenca","area_code":75},{"uf":"ba","city":"Valente","parameter_uf":"ba","parameter_city":"valente","area_code":75},{"uf":"ba","city":"V\u00e1rzea da ro\u00e7a","parameter_uf":"ba","parameter_city":"varzea-da-roca","area_code":74},{"uf":"ba","city":"V\u00e1rzea do po\u00e7o","parameter_uf":"ba","parameter_city":"varzea-do-poco","area_code":74},{"uf":"ba","city":"V\u00e1rzea nova","parameter_uf":"ba","parameter_city":"varzea-nova","area_code":74},{"uf":"ba","city":"Varzedo","parameter_uf":"ba","parameter_city":"varzedo","area_code":75},{"uf":"ba","city":"Vera cruz","parameter_uf":"ba","parameter_city":"vera-cruz","area_code":71},{"uf":"ba","city":"Vereda","parameter_uf":"ba","parameter_city":"vereda","area_code":73},{"uf":"ba","city":"Vit\u00f3ria da conquista","parameter_uf":"ba","parameter_city":"vitoria-da-conquista","area_code":77},{"uf":"ba","city":"Wagner","parameter_uf":"ba","parameter_city":"wagner","area_code":75},{"uf":"ba","city":"Wanderley","parameter_uf":"ba","parameter_city":"wanderley","area_code":77},{"uf":"ba","city":"Wenceslau guimar\u00e3es","parameter_uf":"ba","parameter_city":"wenceslau-guimaraes","area_code":73},{"uf":"ba","city":"Xique-xique","parameter_uf":"ba","parameter_city":"xique-xique","area_code":74}]