[{"uf":"ce","city":"Abaiara","parameter_uf":"ce","parameter_city":"abaiara","area_code":88},{"uf":"ce","city":"Acarap\u00e9","parameter_uf":"ce","parameter_city":"acarape","area_code":85},{"uf":"ce","city":"Acara\u00fa","parameter_uf":"ce","parameter_city":"acarau","area_code":88},{"uf":"ce","city":"Acopiara","parameter_uf":"ce","parameter_city":"acopiara","area_code":88},{"uf":"ce","city":"Aiuaba","parameter_uf":"ce","parameter_city":"aiuaba","area_code":88},{"uf":"ce","city":"Alc\u00e2ntaras","parameter_uf":"ce","parameter_city":"alcantaras","area_code":88},{"uf":"ce","city":"Altaneira","parameter_uf":"ce","parameter_city":"altaneira","area_code":88},{"uf":"ce","city":"Alto santo","parameter_uf":"ce","parameter_city":"alto-santo","area_code":88},{"uf":"ce","city":"Amontada","parameter_uf":"ce","parameter_city":"amontada","area_code":88},{"uf":"ce","city":"Antonina do norte","parameter_uf":"ce","parameter_city":"antonina-do-norte","area_code":88},{"uf":"ce","city":"Apuiar\u00e9s","parameter_uf":"ce","parameter_city":"apuiares","area_code":85},{"uf":"ce","city":"Aquiraz","parameter_uf":"ce","parameter_city":"aquiraz","area_code":85},{"uf":"ce","city":"Aracati","parameter_uf":"ce","parameter_city":"aracati","area_code":88},{"uf":"ce","city":"Aracoiaba","parameter_uf":"ce","parameter_city":"aracoiaba","area_code":85},{"uf":"ce","city":"Ararend\u00e1","parameter_uf":"ce","parameter_city":"ararenda","area_code":88},{"uf":"ce","city":"Araripe","parameter_uf":"ce","parameter_city":"araripe","area_code":88},{"uf":"ce","city":"Aratuba","parameter_uf":"ce","parameter_city":"aratuba","area_code":85},{"uf":"ce","city":"Arneiroz","parameter_uf":"ce","parameter_city":"arneiroz","area_code":88},{"uf":"ce","city":"Assar\u00e9","parameter_uf":"ce","parameter_city":"assare","area_code":88},{"uf":"ce","city":"Aurora","parameter_uf":"ce","parameter_city":"aurora","area_code":88},{"uf":"ce","city":"Baixio","parameter_uf":"ce","parameter_city":"baixio","area_code":88},{"uf":"ce","city":"Banabui\u00fa","parameter_uf":"ce","parameter_city":"banabuiu","area_code":88},{"uf":"ce","city":"Barbalha","parameter_uf":"ce","parameter_city":"barbalha","area_code":88},{"uf":"ce","city":"Barreira","parameter_uf":"ce","parameter_city":"barreira","area_code":85},{"uf":"ce","city":"Barro","parameter_uf":"ce","parameter_city":"barro","area_code":88},{"uf":"ce","city":"Barroquinha","parameter_uf":"ce","parameter_city":"barroquinha","area_code":88},{"uf":"ce","city":"Baturit\u00e9","parameter_uf":"ce","parameter_city":"baturite","area_code":85},{"uf":"ce","city":"Beberibe","parameter_uf":"ce","parameter_city":"beberibe","area_code":85},{"uf":"ce","city":"Bela cruz","parameter_uf":"ce","parameter_city":"bela-cruz","area_code":88},{"uf":"ce","city":"Boa viagem","parameter_uf":"ce","parameter_city":"boa-viagem","area_code":88},{"uf":"ce","city":"Brejo santo","parameter_uf":"ce","parameter_city":"brejo-santo","area_code":88},{"uf":"ce","city":"Camocim","parameter_uf":"ce","parameter_city":"camocim","area_code":88},{"uf":"ce","city":"Campos sales","parameter_uf":"ce","parameter_city":"campos-sales","area_code":88},{"uf":"ce","city":"Canind\u00e9","parameter_uf":"ce","parameter_city":"caninde","area_code":85},{"uf":"ce","city":"Capistrano","parameter_uf":"ce","parameter_city":"capistrano","area_code":85},{"uf":"ce","city":"Caridade","parameter_uf":"ce","parameter_city":"caridade","area_code":85},{"uf":"ce","city":"Carir\u00e9","parameter_uf":"ce","parameter_city":"carire","area_code":88},{"uf":"ce","city":"Cariria\u00e7u","parameter_uf":"ce","parameter_city":"caririacu","area_code":88},{"uf":"ce","city":"Cari\u00fas","parameter_uf":"ce","parameter_city":"carius","area_code":88},{"uf":"ce","city":"Carnaubal","parameter_uf":"ce","parameter_city":"carnaubal","area_code":88},{"uf":"ce","city":"Cascavel","parameter_uf":"ce","parameter_city":"cascavel","area_code":85},{"uf":"ce","city":"Catarina","parameter_uf":"ce","parameter_city":"catarina","area_code":88},{"uf":"ce","city":"Catunda","parameter_uf":"ce","parameter_city":"catunda","area_code":88},{"uf":"ce","city":"Caucaia","parameter_uf":"ce","parameter_city":"caucaia","area_code":85},{"uf":"ce","city":"Cedro","parameter_uf":"ce","parameter_city":"cedro","area_code":88},{"uf":"ce","city":"Chaval","parameter_uf":"ce","parameter_city":"chaval","area_code":88},{"uf":"ce","city":"Chor\u00f3","parameter_uf":"ce","parameter_city":"choro","area_code":88},{"uf":"ce","city":"Chorozinho","parameter_uf":"ce","parameter_city":"chorozinho","area_code":85},{"uf":"ce","city":"Corea\u00fa","parameter_uf":"ce","parameter_city":"coreau","area_code":88},{"uf":"ce","city":"Crate\u00fas","parameter_uf":"ce","parameter_city":"crateus","area_code":88},{"uf":"ce","city":"Crato","parameter_uf":"ce","parameter_city":"crato","area_code":88},{"uf":"ce","city":"Croat\u00e1","parameter_uf":"ce","parameter_city":"croata","area_code":88},{"uf":"ce","city":"Cruz","parameter_uf":"ce","parameter_city":"cruz","area_code":88},{"uf":"ce","city":"Erer\u00ea","parameter_uf":"ce","parameter_city":"erere","area_code":88},{"uf":"ce","city":"Eus\u00e9bio","parameter_uf":"ce","parameter_city":"eusebio","area_code":85},{"uf":"ce","city":"Farias brito","parameter_uf":"ce","parameter_city":"farias-brito","area_code":88},{"uf":"ce","city":"Forquilha","parameter_uf":"ce","parameter_city":"forquilha","area_code":88},{"uf":"ce","city":"Fortaleza","parameter_uf":"ce","parameter_city":"fortaleza","area_code":85},{"uf":"ce","city":"Fortim","parameter_uf":"ce","parameter_city":"fortim","area_code":88},{"uf":"ce","city":"Frecheirinha","parameter_uf":"ce","parameter_city":"frecheirinha","area_code":88},{"uf":"ce","city":"General sampaio","parameter_uf":"ce","parameter_city":"general-sampaio","area_code":85},{"uf":"ce","city":"Gra\u00e7a","parameter_uf":"ce","parameter_city":"graca","area_code":88},{"uf":"ce","city":"Granja","parameter_uf":"ce","parameter_city":"granja","area_code":88},{"uf":"ce","city":"Granjeiro","parameter_uf":"ce","parameter_city":"granjeiro","area_code":88},{"uf":"ce","city":"Groa\u00edras","parameter_uf":"ce","parameter_city":"groairas","area_code":88},{"uf":"ce","city":"Guai\u00faba","parameter_uf":"ce","parameter_city":"guaiuba","area_code":85},{"uf":"ce","city":"Guaraciaba do norte","parameter_uf":"ce","parameter_city":"guaraciaba-do-norte","area_code":88},{"uf":"ce","city":"Guaramiranga","parameter_uf":"ce","parameter_city":"guaramiranga","area_code":85},{"uf":"ce","city":"Hidrol\u00e2ndia","parameter_uf":"ce","parameter_city":"hidrolandia","area_code":88},{"uf":"ce","city":"Horizonte","parameter_uf":"ce","parameter_city":"horizonte","area_code":85},{"uf":"ce","city":"Ibaretama","parameter_uf":"ce","parameter_city":"ibaretama","area_code":88},{"uf":"ce","city":"Ibiapina","parameter_uf":"ce","parameter_city":"ibiapina","area_code":88},{"uf":"ce","city":"Ibicuitinga","parameter_uf":"ce","parameter_city":"ibicuitinga","area_code":88},{"uf":"ce","city":"Icapu\u00ed","parameter_uf":"ce","parameter_city":"icapui","area_code":88},{"uf":"ce","city":"Ic\u00f3","parameter_uf":"ce","parameter_city":"ico","area_code":88},{"uf":"ce","city":"Iguatu","parameter_uf":"ce","parameter_city":"iguatu","area_code":88},{"uf":"ce","city":"Independ\u00eancia","parameter_uf":"ce","parameter_city":"independencia","area_code":88},{"uf":"ce","city":"Ipaporanga","parameter_uf":"ce","parameter_city":"ipaporanga","area_code":88},{"uf":"ce","city":"Ipaumirim","parameter_uf":"ce","parameter_city":"ipaumirim","area_code":88},{"uf":"ce","city":"Ipu","parameter_uf":"ce","parameter_city":"ipu","area_code":88},{"uf":"ce","city":"Ipueiras","parameter_uf":"ce","parameter_city":"ipueiras","area_code":88},{"uf":"ce","city":"Iracema","parameter_uf":"ce","parameter_city":"iracema","area_code":88},{"uf":"ce","city":"Irau\u00e7uba","parameter_uf":"ce","parameter_city":"iraucuba","area_code":88},{"uf":"ce","city":"Itai\u00e7aba","parameter_uf":"ce","parameter_city":"itaicaba","area_code":88},{"uf":"ce","city":"Itaitinga","parameter_uf":"ce","parameter_city":"itaitinga","area_code":85},{"uf":"ce","city":"Itapag\u00e9","parameter_uf":"ce","parameter_city":"itapage","area_code":85},{"uf":"ce","city":"Itapipoca","parameter_uf":"ce","parameter_city":"itapipoca","area_code":88},{"uf":"ce","city":"Itapi\u00fana","parameter_uf":"ce","parameter_city":"itapiuna","area_code":88},{"uf":"ce","city":"Itarema","parameter_uf":"ce","parameter_city":"itarema","area_code":88},{"uf":"ce","city":"Itatira","parameter_uf":"ce","parameter_city":"itatira","area_code":88},{"uf":"ce","city":"Jaguaretama","parameter_uf":"ce","parameter_city":"jaguaretama","area_code":88},{"uf":"ce","city":"Jaguaribara","parameter_uf":"ce","parameter_city":"jaguaribara","area_code":88},{"uf":"ce","city":"Jaguaribe","parameter_uf":"ce","parameter_city":"jaguaribe","area_code":88},{"uf":"ce","city":"Jaguaruana","parameter_uf":"ce","parameter_city":"jaguaruana","area_code":88},{"uf":"ce","city":"Jardim","parameter_uf":"ce","parameter_city":"jardim","area_code":88},{"uf":"ce","city":"Jati","parameter_uf":"ce","parameter_city":"jati","area_code":88},{"uf":"ce","city":"Jijoca de jericoacoara","parameter_uf":"ce","parameter_city":"jijoca-de-jericoacoara","area_code":88},{"uf":"ce","city":"Juazeiro do norte","parameter_uf":"ce","parameter_city":"juazeiro-do-norte","area_code":88},{"uf":"ce","city":"Juc\u00e1s","parameter_uf":"ce","parameter_city":"jucas","area_code":88},{"uf":"ce","city":"Lavras da mangabeira","parameter_uf":"ce","parameter_city":"lavras-da-mangabeira","area_code":88},{"uf":"ce","city":"Limoeiro do norte","parameter_uf":"ce","parameter_city":"limoeiro-do-norte","area_code":88},{"uf":"ce","city":"Madalena","parameter_uf":"ce","parameter_city":"madalena","area_code":88},{"uf":"ce","city":"Maracana\u00fa","parameter_uf":"ce","parameter_city":"maracanau","area_code":85},{"uf":"ce","city":"Maranguape","parameter_uf":"ce","parameter_city":"maranguape","area_code":85},{"uf":"ce","city":"Marco","parameter_uf":"ce","parameter_city":"marco","area_code":88},{"uf":"ce","city":"Martin\u00f3pole","parameter_uf":"ce","parameter_city":"martinopole","area_code":88},{"uf":"ce","city":"Massap\u00ea","parameter_uf":"ce","parameter_city":"massape","area_code":88},{"uf":"ce","city":"Mauriti","parameter_uf":"ce","parameter_city":"mauriti","area_code":88},{"uf":"ce","city":"Meruoca","parameter_uf":"ce","parameter_city":"meruoca","area_code":88},{"uf":"ce","city":"Milagres","parameter_uf":"ce","parameter_city":"milagres","area_code":88},{"uf":"ce","city":"Milh\u00e3","parameter_uf":"ce","parameter_city":"milha","area_code":88},{"uf":"ce","city":"Mira\u00edma","parameter_uf":"ce","parameter_city":"miraima","area_code":88},{"uf":"ce","city":"Miss\u00e3o velha","parameter_uf":"ce","parameter_city":"missao-velha","area_code":88},{"uf":"ce","city":"Momba\u00e7a","parameter_uf":"ce","parameter_city":"mombaca","area_code":88},{"uf":"ce","city":"Monsenhor tabosa","parameter_uf":"ce","parameter_city":"monsenhor-tabosa","area_code":88},{"uf":"ce","city":"Morada nova","parameter_uf":"ce","parameter_city":"morada-nova","area_code":88},{"uf":"ce","city":"Mora\u00fajo","parameter_uf":"ce","parameter_city":"moraujo","area_code":88},{"uf":"ce","city":"Morrinhos","parameter_uf":"ce","parameter_city":"morrinhos","area_code":88},{"uf":"ce","city":"Mucambo","parameter_uf":"ce","parameter_city":"mucambo","area_code":88},{"uf":"ce","city":"Mulungu","parameter_uf":"ce","parameter_city":"mulungu","area_code":85},{"uf":"ce","city":"Nova olinda","parameter_uf":"ce","parameter_city":"nova-olinda","area_code":88},{"uf":"ce","city":"Nova russas","parameter_uf":"ce","parameter_city":"nova-russas","area_code":88},{"uf":"ce","city":"Novo oriente","parameter_uf":"ce","parameter_city":"novo-oriente","area_code":88},{"uf":"ce","city":"Ocara","parameter_uf":"ce","parameter_city":"ocara","area_code":85},{"uf":"ce","city":"Or\u00f3s","parameter_uf":"ce","parameter_city":"oros","area_code":88},{"uf":"ce","city":"Pacajus","parameter_uf":"ce","parameter_city":"pacajus","area_code":85},{"uf":"ce","city":"Pacatuba","parameter_uf":"ce","parameter_city":"pacatuba","area_code":85},{"uf":"ce","city":"Pacoti","parameter_uf":"ce","parameter_city":"pacoti","area_code":85},{"uf":"ce","city":"Pacuj\u00e1","parameter_uf":"ce","parameter_city":"pacuja","area_code":88},{"uf":"ce","city":"Palhano","parameter_uf":"ce","parameter_city":"palhano","area_code":88},{"uf":"ce","city":"Palm\u00e1cia","parameter_uf":"ce","parameter_city":"palmacia","area_code":85},{"uf":"ce","city":"Paracuru","parameter_uf":"ce","parameter_city":"paracuru","area_code":85},{"uf":"ce","city":"Paraipaba","parameter_uf":"ce","parameter_city":"paraipaba","area_code":85},{"uf":"ce","city":"Parambu","parameter_uf":"ce","parameter_city":"parambu","area_code":88},{"uf":"ce","city":"Paramoti","parameter_uf":"ce","parameter_city":"paramoti","area_code":85},{"uf":"ce","city":"Pedra branca","parameter_uf":"ce","parameter_city":"pedra-branca","area_code":88},{"uf":"ce","city":"Penaforte","parameter_uf":"ce","parameter_city":"penaforte","area_code":88},{"uf":"ce","city":"Pentecoste","parameter_uf":"ce","parameter_city":"pentecoste","area_code":85},{"uf":"ce","city":"Pereiro","parameter_uf":"ce","parameter_city":"pereiro","area_code":88},{"uf":"ce","city":"Pindoretama","parameter_uf":"ce","parameter_city":"pindoretama","area_code":85},{"uf":"ce","city":"Piquet carneiro","parameter_uf":"ce","parameter_city":"piquet-carneiro","area_code":88},{"uf":"ce","city":"Pires ferreira","parameter_uf":"ce","parameter_city":"pires-ferreira","area_code":88},{"uf":"ce","city":"Poranga","parameter_uf":"ce","parameter_city":"poranga","area_code":88},{"uf":"ce","city":"Porteiras","parameter_uf":"ce","parameter_city":"porteiras","area_code":88},{"uf":"ce","city":"Potengi","parameter_uf":"ce","parameter_city":"potengi","area_code":88},{"uf":"ce","city":"Potiretama","parameter_uf":"ce","parameter_city":"potiretama","area_code":88},{"uf":"ce","city":"Quiterian\u00f3polis","parameter_uf":"ce","parameter_city":"quiterianopolis","area_code":88},{"uf":"ce","city":"Quixad\u00e1","parameter_uf":"ce","parameter_city":"quixada","area_code":88},{"uf":"ce","city":"Quixel\u00f4","parameter_uf":"ce","parameter_city":"quixelo","area_code":88},{"uf":"ce","city":"Quixeramobim","parameter_uf":"ce","parameter_city":"quixeramobim","area_code":88},{"uf":"ce","city":"Quixer\u00e9","parameter_uf":"ce","parameter_city":"quixere","area_code":88},{"uf":"ce","city":"Reden\u00e7\u00e3o","parameter_uf":"ce","parameter_city":"redencao","area_code":85},{"uf":"ce","city":"Reriutaba","parameter_uf":"ce","parameter_city":"reriutaba","area_code":88},{"uf":"ce","city":"Russas","parameter_uf":"ce","parameter_city":"russas","area_code":88},{"uf":"ce","city":"Saboeiro","parameter_uf":"ce","parameter_city":"saboeiro","area_code":88},{"uf":"ce","city":"Salitre","parameter_uf":"ce","parameter_city":"salitre","area_code":88},{"uf":"ce","city":"Santa quit\u00e9ria","parameter_uf":"ce","parameter_city":"santa-quiteria","area_code":88},{"uf":"ce","city":"Santana do acara\u00fa","parameter_uf":"ce","parameter_city":"santana-do-acarau","area_code":88},{"uf":"ce","city":"Santana do cariri","parameter_uf":"ce","parameter_city":"santana-do-cariri","area_code":88},{"uf":"ce","city":"S\u00e3o benedito","parameter_uf":"ce","parameter_city":"sao-benedito","area_code":88},{"uf":"ce","city":"S\u00e3o jo\u00e3o do jaguaribe","parameter_uf":"ce","parameter_city":"sao-joao-do-jaguaribe","area_code":88},{"uf":"ce","city":"S\u00e3o lu\u00eds do curu","parameter_uf":"ce","parameter_city":"sao-luis-do-curu","area_code":85},{"uf":"ce","city":"Senador pompeu","parameter_uf":"ce","parameter_city":"senador-pompeu","area_code":88},{"uf":"ce","city":"Senador s\u00e1","parameter_uf":"ce","parameter_city":"senador-sa","area_code":88},{"uf":"ce","city":"Sobral","parameter_uf":"ce","parameter_city":"sobral","area_code":88},{"uf":"ce","city":"Solon\u00f3pole","parameter_uf":"ce","parameter_city":"solonopole","area_code":88},{"uf":"ce","city":"Tabuleiro do norte","parameter_uf":"ce","parameter_city":"tabuleiro-do-norte","area_code":88},{"uf":"ce","city":"Tamboril","parameter_uf":"ce","parameter_city":"tamboril","area_code":88},{"uf":"ce","city":"Tarrafas","parameter_uf":"ce","parameter_city":"tarrafas","area_code":88},{"uf":"ce","city":"Tau\u00e1","parameter_uf":"ce","parameter_city":"taua","area_code":88},{"uf":"ce","city":"Teju\u00e7uoca","parameter_uf":"ce","parameter_city":"tejucuoca","area_code":85},{"uf":"ce","city":"Tiangu\u00e1","parameter_uf":"ce","parameter_city":"tiangua","area_code":88},{"uf":"ce","city":"Trairi","parameter_uf":"ce","parameter_city":"trairi","area_code":85},{"uf":"ce","city":"Tururu","parameter_uf":"ce","parameter_city":"tururu","area_code":85},{"uf":"ce","city":"Ubajara","parameter_uf":"ce","parameter_city":"ubajara","area_code":88},{"uf":"ce","city":"Umari","parameter_uf":"ce","parameter_city":"umari","area_code":88},{"uf":"ce","city":"Umirim","parameter_uf":"ce","parameter_city":"umirim","area_code":85},{"uf":"ce","city":"Uruburetama","parameter_uf":"ce","parameter_city":"uruburetama","area_code":85},{"uf":"ce","city":"Uruoca","parameter_uf":"ce","parameter_city":"uruoca","area_code":88},{"uf":"ce","city":"Varjota","parameter_uf":"ce","parameter_city":"varjota","area_code":88},{"uf":"ce","city":"V\u00e1rzea alegre","parameter_uf":"ce","parameter_city":"varzea-alegre","area_code":88},{"uf":"ce","city":"Vi\u00e7osa do cear\u00e1","parameter_uf":"ce","parameter_city":"vicosa-do-ceara","area_code":88}]