[{"uf":"go","city":"Abadia de goi\u00e1s","parameter_uf":"go","parameter_city":"abadia-de-goias","area_code":62},{"uf":"go","city":"Abadi\u00e2nia","parameter_uf":"go","parameter_city":"abadiania","area_code":62},{"uf":"go","city":"Acre\u00fana","parameter_uf":"go","parameter_city":"acreuna","area_code":64},{"uf":"go","city":"Adel\u00e2ndia","parameter_uf":"go","parameter_city":"adelandia","area_code":64},{"uf":"go","city":"\u00c1gua fria de goi\u00e1s","parameter_uf":"go","parameter_city":"agua-fria-de-goias","area_code":62},{"uf":"go","city":"\u00c1gua limpa","parameter_uf":"go","parameter_city":"agua-limpa","area_code":64},{"uf":"go","city":"\u00c1guas lindas de goi\u00e1s","parameter_uf":"go","parameter_city":"aguas-lindas-de-goias","area_code":61},{"uf":"go","city":"Alex\u00e2nia","parameter_uf":"go","parameter_city":"alexania","area_code":62},{"uf":"go","city":"Alo\u00e2ndia","parameter_uf":"go","parameter_city":"aloandia","area_code":64},{"uf":"go","city":"Alto horizonte","parameter_uf":"go","parameter_city":"alto-horizonte","area_code":62},{"uf":"go","city":"Alto para\u00edso de goi\u00e1s","parameter_uf":"go","parameter_city":"alto-paraiso-de-goias","area_code":62},{"uf":"go","city":"Alvorada do norte","parameter_uf":"go","parameter_city":"alvorada-do-norte","area_code":62},{"uf":"go","city":"Amaralina","parameter_uf":"go","parameter_city":"amaralina","area_code":62},{"uf":"go","city":"Americano do brasil","parameter_uf":"go","parameter_city":"americano-do-brasil","area_code":64},{"uf":"go","city":"Amorin\u00f3polis","parameter_uf":"go","parameter_city":"amorinopolis","area_code":64},{"uf":"go","city":"An\u00e1polis","parameter_uf":"go","parameter_city":"anapolis","area_code":62},{"uf":"go","city":"Anhanguera","parameter_uf":"go","parameter_city":"anhanguera","area_code":64},{"uf":"go","city":"Anicuns","parameter_uf":"go","parameter_city":"anicuns","area_code":64},{"uf":"go","city":"Aparecida de goi\u00e2nia","parameter_uf":"go","parameter_city":"aparecida-de-goiania","area_code":62},{"uf":"go","city":"Aparecida do rio doce","parameter_uf":"go","parameter_city":"aparecida-do-rio-doce","area_code":64},{"uf":"go","city":"Apor\u00e9","parameter_uf":"go","parameter_city":"apore","area_code":64},{"uf":"go","city":"Ara\u00e7u","parameter_uf":"go","parameter_city":"aracu","area_code":62},{"uf":"go","city":"Aragar\u00e7as","parameter_uf":"go","parameter_city":"aragarcas","area_code":64},{"uf":"go","city":"Aragoi\u00e2nia","parameter_uf":"go","parameter_city":"aragoiania","area_code":62},{"uf":"go","city":"Araguapaz","parameter_uf":"go","parameter_city":"araguapaz","area_code":62},{"uf":"go","city":"Aren\u00f3polis","parameter_uf":"go","parameter_city":"arenopolis","area_code":64},{"uf":"go","city":"Aruan\u00e3","parameter_uf":"go","parameter_city":"aruana","area_code":62},{"uf":"go","city":"Auril\u00e2ndia","parameter_uf":"go","parameter_city":"aurilandia","area_code":64},{"uf":"go","city":"Avelin\u00f3polis","parameter_uf":"go","parameter_city":"avelinopolis","area_code":64},{"uf":"go","city":"Baliza","parameter_uf":"go","parameter_city":"baliza","area_code":64},{"uf":"go","city":"Barro alto","parameter_uf":"go","parameter_city":"barro-alto","area_code":62},{"uf":"go","city":"Bela vista de goi\u00e1s","parameter_uf":"go","parameter_city":"bela-vista-de-goias","area_code":62},{"uf":"go","city":"Bom jardim de goi\u00e1s","parameter_uf":"go","parameter_city":"bom-jardim-de-goias","area_code":64},{"uf":"go","city":"Bom jesus","parameter_uf":"go","parameter_city":"bom-jesus","area_code":64},{"uf":"go","city":"Bonfin\u00f3polis","parameter_uf":"go","parameter_city":"bonfinopolis","area_code":62},{"uf":"go","city":"Bon\u00f3polis","parameter_uf":"go","parameter_city":"bonopolis","area_code":62},{"uf":"go","city":"Brazabrantes","parameter_uf":"go","parameter_city":"brazabrantes","area_code":62},{"uf":"go","city":"Brit\u00e2nia","parameter_uf":"go","parameter_city":"britania","area_code":62},{"uf":"go","city":"Buriti alegre","parameter_uf":"go","parameter_city":"buriti-alegre","area_code":64},{"uf":"go","city":"Buriti de goi\u00e1s","parameter_uf":"go","parameter_city":"buriti-de-goias","area_code":64},{"uf":"go","city":"Buritin\u00f3polis","parameter_uf":"go","parameter_city":"buritinopolis","area_code":62},{"uf":"go","city":"Cabeceiras","parameter_uf":"go","parameter_city":"cabeceiras","area_code":61},{"uf":"go","city":"Cachoeira alta","parameter_uf":"go","parameter_city":"cachoeira-alta","area_code":64},{"uf":"go","city":"Cachoeira de goi\u00e1s","parameter_uf":"go","parameter_city":"cachoeira-de-goias","area_code":64},{"uf":"go","city":"Cachoeira dourada","parameter_uf":"go","parameter_city":"cachoeira-dourada","area_code":64},{"uf":"go","city":"Ca\u00e7u","parameter_uf":"go","parameter_city":"cacu","area_code":64},{"uf":"go","city":"Caiap\u00f4nia","parameter_uf":"go","parameter_city":"caiaponia","area_code":64},{"uf":"go","city":"Caldas novas","parameter_uf":"go","parameter_city":"caldas-novas","area_code":64},{"uf":"go","city":"Caldazinha","parameter_uf":"go","parameter_city":"caldazinha","area_code":62},{"uf":"go","city":"Campestre de goi\u00e1s","parameter_uf":"go","parameter_city":"campestre-de-goias","area_code":62},{"uf":"go","city":"Campina\u00e7u","parameter_uf":"go","parameter_city":"campinacu","area_code":62},{"uf":"go","city":"Campinorte","parameter_uf":"go","parameter_city":"campinorte","area_code":62},{"uf":"go","city":"Campo alegre de goi\u00e1s","parameter_uf":"go","parameter_city":"campo-alegre-de-goias","area_code":64},{"uf":"go","city":"Campo limpo de goias","parameter_uf":"go","parameter_city":"campo-limpo-de-goias","area_code":62},{"uf":"go","city":"Campos belos","parameter_uf":"go","parameter_city":"campos-belos","area_code":62},{"uf":"go","city":"Campos verdes","parameter_uf":"go","parameter_city":"campos-verdes","area_code":62},{"uf":"go","city":"Carmo do rio verde","parameter_uf":"go","parameter_city":"carmo-do-rio-verde","area_code":62},{"uf":"go","city":"Castel\u00e2ndia","parameter_uf":"go","parameter_city":"castelandia","area_code":64},{"uf":"go","city":"Catal\u00e3o","parameter_uf":"go","parameter_city":"catalao","area_code":64},{"uf":"go","city":"Catura\u00ed","parameter_uf":"go","parameter_city":"caturai","area_code":62},{"uf":"go","city":"Cavalcante","parameter_uf":"go","parameter_city":"cavalcante","area_code":62},{"uf":"go","city":"Ceres","parameter_uf":"go","parameter_city":"ceres","area_code":62},{"uf":"go","city":"Cezarina","parameter_uf":"go","parameter_city":"cezarina","area_code":64},{"uf":"go","city":"Chapad\u00e3o do c\u00e9u","parameter_uf":"go","parameter_city":"chapadao-do-ceu","area_code":64},{"uf":"go","city":"Cidade ocidental","parameter_uf":"go","parameter_city":"cidade-ocidental","area_code":61},{"uf":"go","city":"Cocalzinho de goi\u00e1s","parameter_uf":"go","parameter_city":"cocalzinho-de-goias","area_code":62},{"uf":"go","city":"Colinas do sul","parameter_uf":"go","parameter_city":"colinas-do-sul","area_code":62},{"uf":"go","city":"C\u00f3rrego do ouro","parameter_uf":"go","parameter_city":"corrego-do-ouro","area_code":64},{"uf":"go","city":"Corumb\u00e1 de goi\u00e1s","parameter_uf":"go","parameter_city":"corumba-de-goias","area_code":62},{"uf":"go","city":"Corumba\u00edba","parameter_uf":"go","parameter_city":"corumbaiba","area_code":64},{"uf":"go","city":"Cristalina","parameter_uf":"go","parameter_city":"cristalina","area_code":61},{"uf":"go","city":"Cristian\u00f3polis","parameter_uf":"go","parameter_city":"cristianopolis","area_code":64},{"uf":"go","city":"Crix\u00e1s","parameter_uf":"go","parameter_city":"crixas","area_code":62},{"uf":"go","city":"Crom\u00ednia","parameter_uf":"go","parameter_city":"crominia","area_code":64},{"uf":"go","city":"Cumari","parameter_uf":"go","parameter_city":"cumari","area_code":64},{"uf":"go","city":"Damian\u00f3polis","parameter_uf":"go","parameter_city":"damianopolis","area_code":62},{"uf":"go","city":"Damol\u00e2ndia","parameter_uf":"go","parameter_city":"damolandia","area_code":62},{"uf":"go","city":"Davin\u00f3polis","parameter_uf":"go","parameter_city":"davinopolis","area_code":64},{"uf":"go","city":"Diorama","parameter_uf":"go","parameter_city":"diorama","area_code":64},{"uf":"go","city":"Divin\u00f3polis de goi\u00e1s","parameter_uf":"go","parameter_city":"divinopolis-de-goias","area_code":62},{"uf":"go","city":"Doverl\u00e2ndia","parameter_uf":"go","parameter_city":"doverlandia","area_code":64},{"uf":"go","city":"Edealina","parameter_uf":"go","parameter_city":"edealina","area_code":64},{"uf":"go","city":"Ed\u00e9ia","parameter_uf":"go","parameter_city":"edeia","area_code":64},{"uf":"go","city":"Estrela do norte","parameter_uf":"go","parameter_city":"estrela-do-norte","area_code":62},{"uf":"go","city":"Faina","parameter_uf":"go","parameter_city":"faina","area_code":62},{"uf":"go","city":"Fazenda nova","parameter_uf":"go","parameter_city":"fazenda-nova","area_code":62},{"uf":"go","city":"Firmin\u00f3polis","parameter_uf":"go","parameter_city":"firminopolis","area_code":64},{"uf":"go","city":"Flores de goi\u00e1s","parameter_uf":"go","parameter_city":"flores-de-goias","area_code":62},{"uf":"go","city":"Formosa","parameter_uf":"go","parameter_city":"formosa","area_code":61},{"uf":"go","city":"Formoso","parameter_uf":"go","parameter_city":"formoso","area_code":62},{"uf":"go","city":"Gameleira de goias","parameter_uf":"go","parameter_city":"gameleira-de-goias","area_code":62},{"uf":"go","city":"Goian\u00e1polis","parameter_uf":"go","parameter_city":"goianapolis","area_code":62},{"uf":"go","city":"Goiandira","parameter_uf":"go","parameter_city":"goiandira","area_code":64},{"uf":"go","city":"Goian\u00e9sia","parameter_uf":"go","parameter_city":"goianesia","area_code":62},{"uf":"go","city":"Goi\u00e2nia","parameter_uf":"go","parameter_city":"goiania","area_code":62},{"uf":"go","city":"Goianira","parameter_uf":"go","parameter_city":"goianira","area_code":62},{"uf":"go","city":"Goi\u00e1s","parameter_uf":"go","parameter_city":"goias","area_code":62},{"uf":"go","city":"Goiatuba","parameter_uf":"go","parameter_city":"goiatuba","area_code":64},{"uf":"go","city":"Gouvel\u00e2ndia","parameter_uf":"go","parameter_city":"gouvelandia","area_code":64},{"uf":"go","city":"Guap\u00f3","parameter_uf":"go","parameter_city":"guapo","area_code":62},{"uf":"go","city":"Guara\u00edta","parameter_uf":"go","parameter_city":"guaraita","area_code":62},{"uf":"go","city":"Guarani de goi\u00e1s","parameter_uf":"go","parameter_city":"guarani-de-goias","area_code":62},{"uf":"go","city":"Guarinos","parameter_uf":"go","parameter_city":"guarinos","area_code":62},{"uf":"go","city":"Heitora\u00ed","parameter_uf":"go","parameter_city":"heitorai","area_code":62},{"uf":"go","city":"Hidrol\u00e2ndia","parameter_uf":"go","parameter_city":"hidrolandia","area_code":62},{"uf":"go","city":"Hidrolina","parameter_uf":"go","parameter_city":"hidrolina","area_code":62},{"uf":"go","city":"Iaciara","parameter_uf":"go","parameter_city":"iaciara","area_code":62},{"uf":"go","city":"Inaciol\u00e2ndia","parameter_uf":"go","parameter_city":"inaciolandia","area_code":64},{"uf":"go","city":"Indiara","parameter_uf":"go","parameter_city":"indiara","area_code":64},{"uf":"go","city":"Inhumas","parameter_uf":"go","parameter_city":"inhumas","area_code":62},{"uf":"go","city":"Ipameri","parameter_uf":"go","parameter_city":"ipameri","area_code":64},{"uf":"go","city":"Ipiranga de goias","parameter_uf":"go","parameter_city":"ipiranga-de-goias","area_code":62},{"uf":"go","city":"Ipor\u00e1","parameter_uf":"go","parameter_city":"ipora","area_code":64},{"uf":"go","city":"Israel\u00e2ndia","parameter_uf":"go","parameter_city":"israelandia","area_code":64},{"uf":"go","city":"Itabera\u00ed","parameter_uf":"go","parameter_city":"itaberai","area_code":62},{"uf":"go","city":"Itaguari","parameter_uf":"go","parameter_city":"itaguari","area_code":62},{"uf":"go","city":"Itaguaru","parameter_uf":"go","parameter_city":"itaguaru","area_code":62},{"uf":"go","city":"Itaj\u00e1","parameter_uf":"go","parameter_city":"itaja","area_code":64},{"uf":"go","city":"Itapaci","parameter_uf":"go","parameter_city":"itapaci","area_code":62},{"uf":"go","city":"Itapirapu\u00e3","parameter_uf":"go","parameter_city":"itapirapua","area_code":62},{"uf":"go","city":"Itapuranga","parameter_uf":"go","parameter_city":"itapuranga","area_code":62},{"uf":"go","city":"Itarum\u00e3","parameter_uf":"go","parameter_city":"itaruma","area_code":64},{"uf":"go","city":"Itau\u00e7u","parameter_uf":"go","parameter_city":"itaucu","area_code":62},{"uf":"go","city":"Itumbiara","parameter_uf":"go","parameter_city":"itumbiara","area_code":64},{"uf":"go","city":"Ivol\u00e2ndia","parameter_uf":"go","parameter_city":"ivolandia","area_code":64},{"uf":"go","city":"Jandaia","parameter_uf":"go","parameter_city":"jandaia","area_code":64},{"uf":"go","city":"Jaragu\u00e1","parameter_uf":"go","parameter_city":"jaragua","area_code":62},{"uf":"go","city":"Jata\u00ed","parameter_uf":"go","parameter_city":"jatai","area_code":64},{"uf":"go","city":"Jaupaci","parameter_uf":"go","parameter_city":"jaupaci","area_code":64},{"uf":"go","city":"Jes\u00fapolis","parameter_uf":"go","parameter_city":"jesupolis","area_code":62},{"uf":"go","city":"Jovi\u00e2nia","parameter_uf":"go","parameter_city":"joviania","area_code":64},{"uf":"go","city":"Jussara","parameter_uf":"go","parameter_city":"jussara","area_code":62},{"uf":"go","city":"Lagoa santa","parameter_uf":"go","parameter_city":"lagoa-santa","area_code":64},{"uf":"go","city":"Leopoldo de bulh\u00f5es","parameter_uf":"go","parameter_city":"leopoldo-de-bulhoes","area_code":62},{"uf":"go","city":"Luzi\u00e2nia","parameter_uf":"go","parameter_city":"luziania","area_code":61},{"uf":"go","city":"Mairipotaba","parameter_uf":"go","parameter_city":"mairipotaba","area_code":64},{"uf":"go","city":"Mamba\u00ed","parameter_uf":"go","parameter_city":"mambai","area_code":62},{"uf":"go","city":"Mara rosa","parameter_uf":"go","parameter_city":"mara-rosa","area_code":62},{"uf":"go","city":"Marzag\u00e3o","parameter_uf":"go","parameter_city":"marzagao","area_code":64},{"uf":"go","city":"Matrinch\u00e3","parameter_uf":"go","parameter_city":"matrincha","area_code":62},{"uf":"go","city":"Mauril\u00e2ndia","parameter_uf":"go","parameter_city":"maurilandia","area_code":64},{"uf":"go","city":"Mimoso de goi\u00e1s","parameter_uf":"go","parameter_city":"mimoso-de-goias","area_code":62},{"uf":"go","city":"Mina\u00e7u","parameter_uf":"go","parameter_city":"minacu","area_code":62},{"uf":"go","city":"Mineiros","parameter_uf":"go","parameter_city":"mineiros","area_code":64},{"uf":"go","city":"Moipor\u00e1","parameter_uf":"go","parameter_city":"moipora","area_code":64},{"uf":"go","city":"Monte alegre de goi\u00e1s","parameter_uf":"go","parameter_city":"monte-alegre-de-goias","area_code":62},{"uf":"go","city":"Montes claros de goi\u00e1s","parameter_uf":"go","parameter_city":"montes-claros-de-goias","area_code":62},{"uf":"go","city":"Montividiu","parameter_uf":"go","parameter_city":"montividiu","area_code":64},{"uf":"go","city":"Montividiu do norte","parameter_uf":"go","parameter_city":"montividiu-do-norte","area_code":62},{"uf":"go","city":"Morrinhos","parameter_uf":"go","parameter_city":"morrinhos","area_code":64},{"uf":"go","city":"Morro agudo de goi\u00e1s","parameter_uf":"go","parameter_city":"morro-agudo-de-goias","area_code":62},{"uf":"go","city":"Moss\u00e2medes","parameter_uf":"go","parameter_city":"mossamedes","area_code":64},{"uf":"go","city":"Mozarl\u00e2ndia","parameter_uf":"go","parameter_city":"mozarlandia","area_code":62},{"uf":"go","city":"Mundo novo","parameter_uf":"go","parameter_city":"mundo-novo","area_code":62},{"uf":"go","city":"Mutun\u00f3polis","parameter_uf":"go","parameter_city":"mutunopolis","area_code":62},{"uf":"go","city":"Naz\u00e1rio","parameter_uf":"go","parameter_city":"nazario","area_code":64},{"uf":"go","city":"Ner\u00f3polis","parameter_uf":"go","parameter_city":"neropolis","area_code":62},{"uf":"go","city":"Niquel\u00e2ndia","parameter_uf":"go","parameter_city":"niquelandia","area_code":62},{"uf":"go","city":"Nova am\u00e9rica","parameter_uf":"go","parameter_city":"nova-america","area_code":62},{"uf":"go","city":"Nova aurora","parameter_uf":"go","parameter_city":"nova-aurora","area_code":64},{"uf":"go","city":"Nova crix\u00e1s","parameter_uf":"go","parameter_city":"nova-crixas","area_code":62},{"uf":"go","city":"Nova gl\u00f3ria","parameter_uf":"go","parameter_city":"nova-gloria","area_code":62},{"uf":"go","city":"Nova igua\u00e7u de goi\u00e1s","parameter_uf":"go","parameter_city":"nova-iguacu-de-goias","area_code":62},{"uf":"go","city":"Nova roma","parameter_uf":"go","parameter_city":"nova-roma","area_code":62},{"uf":"go","city":"Nova veneza","parameter_uf":"go","parameter_city":"nova-veneza","area_code":62},{"uf":"go","city":"Novo brasil","parameter_uf":"go","parameter_city":"novo-brasil","area_code":62},{"uf":"go","city":"Novo gama","parameter_uf":"go","parameter_city":"novo-gama","area_code":61},{"uf":"go","city":"Novo planalto","parameter_uf":"go","parameter_city":"novo-planalto","area_code":62},{"uf":"go","city":"Orizona","parameter_uf":"go","parameter_city":"orizona","area_code":64},{"uf":"go","city":"Ouro verde de goi\u00e1s","parameter_uf":"go","parameter_city":"ouro-verde-de-goias","area_code":62},{"uf":"go","city":"Ouvidor","parameter_uf":"go","parameter_city":"ouvidor","area_code":64},{"uf":"go","city":"Padre bernardo","parameter_uf":"go","parameter_city":"padre-bernardo","area_code":61},{"uf":"go","city":"Palestina de goi\u00e1s","parameter_uf":"go","parameter_city":"palestina-de-goias","area_code":64},{"uf":"go","city":"Palmeiras de goi\u00e1s","parameter_uf":"go","parameter_city":"palmeiras-de-goias","area_code":64},{"uf":"go","city":"Palmelo","parameter_uf":"go","parameter_city":"palmelo","area_code":64},{"uf":"go","city":"Palmin\u00f3polis","parameter_uf":"go","parameter_city":"palminopolis","area_code":64},{"uf":"go","city":"Panam\u00e1","parameter_uf":"go","parameter_city":"panama","area_code":64},{"uf":"go","city":"Paranaiguara","parameter_uf":"go","parameter_city":"paranaiguara","area_code":64},{"uf":"go","city":"Para\u00fana","parameter_uf":"go","parameter_city":"parauna","area_code":64},{"uf":"go","city":"Perol\u00e2ndia","parameter_uf":"go","parameter_city":"perolandia","area_code":64},{"uf":"go","city":"Petrolina de goi\u00e1s","parameter_uf":"go","parameter_city":"petrolina-de-goias","area_code":62},{"uf":"go","city":"Pilar de goi\u00e1s","parameter_uf":"go","parameter_city":"pilar-de-goias","area_code":62},{"uf":"go","city":"Piracanjuba","parameter_uf":"go","parameter_city":"piracanjuba","area_code":64},{"uf":"go","city":"Piranhas","parameter_uf":"go","parameter_city":"piranhas","area_code":64},{"uf":"go","city":"Piren\u00f3polis","parameter_uf":"go","parameter_city":"pirenopolis","area_code":62},{"uf":"go","city":"Pires do rio","parameter_uf":"go","parameter_city":"pires-do-rio","area_code":64},{"uf":"go","city":"Planaltina","parameter_uf":"go","parameter_city":"planaltina","area_code":61},{"uf":"go","city":"Pontalina","parameter_uf":"go","parameter_city":"pontalina","area_code":64},{"uf":"go","city":"Porangatu","parameter_uf":"go","parameter_city":"porangatu","area_code":62},{"uf":"go","city":"Porteir\u00e3o","parameter_uf":"go","parameter_city":"porteirao","area_code":64},{"uf":"go","city":"Portel\u00e2ndia","parameter_uf":"go","parameter_city":"portelandia","area_code":64},{"uf":"go","city":"Posse","parameter_uf":"go","parameter_city":"posse","area_code":62},{"uf":"go","city":"Professor jamil","parameter_uf":"go","parameter_city":"professor-jamil","area_code":64},{"uf":"go","city":"Quirin\u00f3polis","parameter_uf":"go","parameter_city":"quirinopolis","area_code":64},{"uf":"go","city":"Rialma","parameter_uf":"go","parameter_city":"rialma","area_code":62},{"uf":"go","city":"Rian\u00e1polis","parameter_uf":"go","parameter_city":"rianapolis","area_code":62},{"uf":"go","city":"Rio quente","parameter_uf":"go","parameter_city":"rio-quente","area_code":64},{"uf":"go","city":"Rio verde","parameter_uf":"go","parameter_city":"rio-verde","area_code":64},{"uf":"go","city":"Rubiataba","parameter_uf":"go","parameter_city":"rubiataba","area_code":62},{"uf":"go","city":"Sanclerl\u00e2ndia","parameter_uf":"go","parameter_city":"sanclerlandia","area_code":64},{"uf":"go","city":"Santa cruz de goi\u00e1s","parameter_uf":"go","parameter_city":"santa-cruz-de-goias","area_code":64},{"uf":"go","city":"Santa f\u00e9 de goi\u00e1s","parameter_uf":"go","parameter_city":"santa-fe-de-goias","area_code":62},{"uf":"go","city":"Santa helena de goi\u00e1s","parameter_uf":"go","parameter_city":"santa-helena-de-goias","area_code":64},{"uf":"go","city":"Santa isabel","parameter_uf":"go","parameter_city":"santa-isabel","area_code":62},{"uf":"go","city":"Santa rosa de goi\u00e1s","parameter_uf":"go","parameter_city":"santa-rosa-de-goias","area_code":62},{"uf":"go","city":"Santa tereza de goi\u00e1s","parameter_uf":"go","parameter_city":"santa-tereza-de-goias","area_code":62},{"uf":"go","city":"Santo ant\u00f4nio de goi\u00e1s","parameter_uf":"go","parameter_city":"santo-antonio-de-goias","area_code":62},{"uf":"go","city":"S\u00e3o domingos","parameter_uf":"go","parameter_city":"sao-domingos","area_code":62},{"uf":"go","city":"S\u00e3o francisco de goi\u00e1s","parameter_uf":"go","parameter_city":"sao-francisco-de-goias","area_code":62},{"uf":"go","city":"S\u00e3o jo\u00e3o da para\u00fana","parameter_uf":"go","parameter_city":"sao-joao-da-parauna","area_code":64},{"uf":"go","city":"S\u00e3o jo\u00e3o d'alian\u00e7a","parameter_uf":"go","parameter_city":"sao-joao-d-alianca","area_code":62},{"uf":"go","city":"S\u00e3o lu\u00edz do norte","parameter_uf":"go","parameter_city":"sao-luiz-do-norte","area_code":62},{"uf":"go","city":"S\u00e3o patr\u00edcio","parameter_uf":"go","parameter_city":"sao-patricio","area_code":62},{"uf":"go","city":"S\u00e3o sim\u00e3o","parameter_uf":"go","parameter_city":"sao-simao","area_code":64},{"uf":"go","city":"Senador canedo","parameter_uf":"go","parameter_city":"senador-canedo","area_code":62},{"uf":"go","city":"Serran\u00f3polis","parameter_uf":"go","parameter_city":"serranopolis","area_code":64},{"uf":"go","city":"Silv\u00e2nia","parameter_uf":"go","parameter_city":"silvania","area_code":62},{"uf":"go","city":"Simol\u00e2ndia","parameter_uf":"go","parameter_city":"simolandia","area_code":62},{"uf":"go","city":"S\u00edtio d'abadia","parameter_uf":"go","parameter_city":"sitio-d-abadia","area_code":62},{"uf":"go","city":"Taquaral de goi\u00e1s","parameter_uf":"go","parameter_city":"taquaral-de-goias","area_code":62},{"uf":"go","city":"Teresina de goi\u00e1s","parameter_uf":"go","parameter_city":"teresina-de-goias","area_code":62},{"uf":"go","city":"Terez\u00f3polis de goi\u00e1s","parameter_uf":"go","parameter_city":"terezopolis-de-goias","area_code":62},{"uf":"go","city":"Tr\u00eas ranchos","parameter_uf":"go","parameter_city":"tres-ranchos","area_code":64},{"uf":"go","city":"Trindade","parameter_uf":"go","parameter_city":"trindade","area_code":62},{"uf":"go","city":"Trombas","parameter_uf":"go","parameter_city":"trombas","area_code":62},{"uf":"go","city":"Turv\u00e2nia","parameter_uf":"go","parameter_city":"turvania","area_code":64},{"uf":"go","city":"Turvel\u00e2ndia","parameter_uf":"go","parameter_city":"turvelandia","area_code":64},{"uf":"go","city":"Uirapuru","parameter_uf":"go","parameter_city":"uirapuru","area_code":62},{"uf":"go","city":"Urua\u00e7u","parameter_uf":"go","parameter_city":"uruacu","area_code":62},{"uf":"go","city":"Uruana","parameter_uf":"go","parameter_city":"uruana","area_code":62},{"uf":"go","city":"Uruta\u00ed","parameter_uf":"go","parameter_city":"urutai","area_code":64},{"uf":"go","city":"Valpara\u00edso de goi\u00e1s","parameter_uf":"go","parameter_city":"valparaiso-de-goias","area_code":61},{"uf":"go","city":"Varj\u00e3o","parameter_uf":"go","parameter_city":"varjao","area_code":62},{"uf":"go","city":"Vian\u00f3polis","parameter_uf":"go","parameter_city":"vianopolis","area_code":62},{"uf":"go","city":"Vicentin\u00f3polis","parameter_uf":"go","parameter_city":"vicentinopolis","area_code":64},{"uf":"go","city":"Vila boa","parameter_uf":"go","parameter_city":"vila-boa","area_code":62},{"uf":"go","city":"Vila propicio","parameter_uf":"go","parameter_city":"vila-propicio","area_code":62}]