[{"uf":"mg","city":"Abadia dos dourados","parameter_uf":"mg","parameter_city":"abadia-dos-dourados","area_code":34},{"uf":"mg","city":"Abaet\u00e9","parameter_uf":"mg","parameter_city":"abaete","area_code":37},{"uf":"mg","city":"Abre campo","parameter_uf":"mg","parameter_city":"abre-campo","area_code":31},{"uf":"mg","city":"Acaiaca","parameter_uf":"mg","parameter_city":"acaiaca","area_code":31},{"uf":"mg","city":"A\u00e7ucena","parameter_uf":"mg","parameter_city":"acucena","area_code":33},{"uf":"mg","city":"\u00c1gua boa","parameter_uf":"mg","parameter_city":"agua-boa","area_code":33},{"uf":"mg","city":"\u00c1gua comprida","parameter_uf":"mg","parameter_city":"agua-comprida","area_code":34},{"uf":"mg","city":"Aguanil","parameter_uf":"mg","parameter_city":"aguanil","area_code":35},{"uf":"mg","city":"\u00c1guas formosas","parameter_uf":"mg","parameter_city":"aguas-formosas","area_code":33},{"uf":"mg","city":"\u00c1guas vermelhas","parameter_uf":"mg","parameter_city":"aguas-vermelhas","area_code":33},{"uf":"mg","city":"Aimor\u00e9s","parameter_uf":"mg","parameter_city":"aimores","area_code":33},{"uf":"mg","city":"Aiuruoca","parameter_uf":"mg","parameter_city":"aiuruoca","area_code":35},{"uf":"mg","city":"Alagoa","parameter_uf":"mg","parameter_city":"alagoa","area_code":35},{"uf":"mg","city":"Albertina","parameter_uf":"mg","parameter_city":"albertina","area_code":35},{"uf":"mg","city":"Al\u00e9m para\u00edba","parameter_uf":"mg","parameter_city":"alem-paraiba","area_code":32},{"uf":"mg","city":"Alfenas","parameter_uf":"mg","parameter_city":"alfenas","area_code":35},{"uf":"mg","city":"Alfredo vasconcelos","parameter_uf":"mg","parameter_city":"alfredo-vasconcelos","area_code":32},{"uf":"mg","city":"Almenara","parameter_uf":"mg","parameter_city":"almenara","area_code":33},{"uf":"mg","city":"Alpercata","parameter_uf":"mg","parameter_city":"alpercata","area_code":33},{"uf":"mg","city":"Alpin\u00f3polis","parameter_uf":"mg","parameter_city":"alpinopolis","area_code":35},{"uf":"mg","city":"Alterosa","parameter_uf":"mg","parameter_city":"alterosa","area_code":35},{"uf":"mg","city":"Alto capara\u00f3","parameter_uf":"mg","parameter_city":"alto-caparao","area_code":32},{"uf":"mg","city":"Alto jequitib\u00e1","parameter_uf":"mg","parameter_city":"alto-jequitiba","area_code":33},{"uf":"mg","city":"Alto rio doce","parameter_uf":"mg","parameter_city":"alto-rio-doce","area_code":32},{"uf":"mg","city":"Alvarenga","parameter_uf":"mg","parameter_city":"alvarenga","area_code":33},{"uf":"mg","city":"Alvin\u00f3polis","parameter_uf":"mg","parameter_city":"alvinopolis","area_code":31},{"uf":"mg","city":"Alvorada de minas","parameter_uf":"mg","parameter_city":"alvorada-de-minas","area_code":31},{"uf":"mg","city":"Amparo do serra","parameter_uf":"mg","parameter_city":"amparo-do-serra","area_code":31},{"uf":"mg","city":"Andradas","parameter_uf":"mg","parameter_city":"andradas","area_code":35},{"uf":"mg","city":"Andrel\u00e2ndia","parameter_uf":"mg","parameter_city":"andrelandia","area_code":35},{"uf":"mg","city":"Angel\u00e2ndia","parameter_uf":"mg","parameter_city":"angelandia","area_code":33},{"uf":"mg","city":"Ant\u00f4nio carlos","parameter_uf":"mg","parameter_city":"antonio-carlos","area_code":32},{"uf":"mg","city":"Ant\u00f4nio dias","parameter_uf":"mg","parameter_city":"antonio-dias","area_code":31},{"uf":"mg","city":"Ant\u00f4nio prado de minas","parameter_uf":"mg","parameter_city":"antonio-prado-de-minas","area_code":32},{"uf":"mg","city":"Ara\u00e7a\u00ed","parameter_uf":"mg","parameter_city":"aracai","area_code":31},{"uf":"mg","city":"Aracitaba","parameter_uf":"mg","parameter_city":"aracitaba","area_code":32},{"uf":"mg","city":"Ara\u00e7ua\u00ed","parameter_uf":"mg","parameter_city":"aracuai","area_code":33},{"uf":"mg","city":"Araguari","parameter_uf":"mg","parameter_city":"araguari","area_code":34},{"uf":"mg","city":"Arantina","parameter_uf":"mg","parameter_city":"arantina","area_code":32},{"uf":"mg","city":"Araponga","parameter_uf":"mg","parameter_city":"araponga","area_code":31},{"uf":"mg","city":"Arapor\u00e3","parameter_uf":"mg","parameter_city":"arapora","area_code":34},{"uf":"mg","city":"Arapu\u00e1","parameter_uf":"mg","parameter_city":"arapua","area_code":34},{"uf":"mg","city":"Ara\u00fajos","parameter_uf":"mg","parameter_city":"araujos","area_code":37},{"uf":"mg","city":"Arax\u00e1","parameter_uf":"mg","parameter_city":"araxa","area_code":34},{"uf":"mg","city":"Arceburgo","parameter_uf":"mg","parameter_city":"arceburgo","area_code":35},{"uf":"mg","city":"Arcos","parameter_uf":"mg","parameter_city":"arcos","area_code":37},{"uf":"mg","city":"Areado","parameter_uf":"mg","parameter_city":"areado","area_code":35},{"uf":"mg","city":"Argirita","parameter_uf":"mg","parameter_city":"argirita","area_code":32},{"uf":"mg","city":"Aricanduva","parameter_uf":"mg","parameter_city":"aricanduva","area_code":38},{"uf":"mg","city":"Arinos","parameter_uf":"mg","parameter_city":"arinos","area_code":38},{"uf":"mg","city":"Astolfo dutra","parameter_uf":"mg","parameter_city":"astolfo-dutra","area_code":32},{"uf":"mg","city":"Atal\u00e9ia","parameter_uf":"mg","parameter_city":"ataleia","area_code":33},{"uf":"mg","city":"Augusto de lima","parameter_uf":"mg","parameter_city":"augusto-de-lima","area_code":38},{"uf":"mg","city":"Baependi","parameter_uf":"mg","parameter_city":"baependi","area_code":35},{"uf":"mg","city":"Baldim","parameter_uf":"mg","parameter_city":"baldim","area_code":31},{"uf":"mg","city":"Bambu\u00ed","parameter_uf":"mg","parameter_city":"bambui","area_code":37},{"uf":"mg","city":"Bandeira","parameter_uf":"mg","parameter_city":"bandeira","area_code":33},{"uf":"mg","city":"Bandeira do sul","parameter_uf":"mg","parameter_city":"bandeira-do-sul","area_code":35},{"uf":"mg","city":"Bar\u00e3o de cocais","parameter_uf":"mg","parameter_city":"barao-de-cocais","area_code":31},{"uf":"mg","city":"Bar\u00e3o de monte alto","parameter_uf":"mg","parameter_city":"barao-de-monte-alto","area_code":32},{"uf":"mg","city":"Barbacena","parameter_uf":"mg","parameter_city":"barbacena","area_code":32},{"uf":"mg","city":"Barra longa","parameter_uf":"mg","parameter_city":"barra-longa","area_code":31},{"uf":"mg","city":"Barroso","parameter_uf":"mg","parameter_city":"barroso","area_code":32},{"uf":"mg","city":"Bela vista de minas","parameter_uf":"mg","parameter_city":"bela-vista-de-minas","area_code":31},{"uf":"mg","city":"Belmiro braga","parameter_uf":"mg","parameter_city":"belmiro-braga","area_code":32},{"uf":"mg","city":"Belo horizonte","parameter_uf":"mg","parameter_city":"belo-horizonte","area_code":31},{"uf":"mg","city":"Belo oriente","parameter_uf":"mg","parameter_city":"belo-oriente","area_code":33},{"uf":"mg","city":"Belo vale","parameter_uf":"mg","parameter_city":"belo-vale","area_code":31},{"uf":"mg","city":"Berilo","parameter_uf":"mg","parameter_city":"berilo","area_code":33},{"uf":"mg","city":"Berizal","parameter_uf":"mg","parameter_city":"berizal","area_code":38},{"uf":"mg","city":"Bert\u00f3polis","parameter_uf":"mg","parameter_city":"bertopolis","area_code":33},{"uf":"mg","city":"Betim","parameter_uf":"mg","parameter_city":"betim","area_code":31},{"uf":"mg","city":"Bias fortes","parameter_uf":"mg","parameter_city":"bias-fortes","area_code":32},{"uf":"mg","city":"Bicas","parameter_uf":"mg","parameter_city":"bicas","area_code":32},{"uf":"mg","city":"Biquinhas","parameter_uf":"mg","parameter_city":"biquinhas","area_code":37},{"uf":"mg","city":"Boa esperan\u00e7a","parameter_uf":"mg","parameter_city":"boa-esperanca","area_code":35},{"uf":"mg","city":"Bocaina de minas","parameter_uf":"mg","parameter_city":"bocaina-de-minas","area_code":32},{"uf":"mg","city":"Bocai\u00fava","parameter_uf":"mg","parameter_city":"bocaiuva","area_code":38},{"uf":"mg","city":"Bom despacho","parameter_uf":"mg","parameter_city":"bom-despacho","area_code":37},{"uf":"mg","city":"Bom jardim de minas","parameter_uf":"mg","parameter_city":"bom-jardim-de-minas","area_code":32},{"uf":"mg","city":"Bom jesus da penha","parameter_uf":"mg","parameter_city":"bom-jesus-da-penha","area_code":35},{"uf":"mg","city":"Bom jesus do amparo","parameter_uf":"mg","parameter_city":"bom-jesus-do-amparo","area_code":31},{"uf":"mg","city":"Bom jesus do galho","parameter_uf":"mg","parameter_city":"bom-jesus-do-galho","area_code":33},{"uf":"mg","city":"Bom repouso","parameter_uf":"mg","parameter_city":"bom-repouso","area_code":35},{"uf":"mg","city":"Bom sucesso","parameter_uf":"mg","parameter_city":"bom-sucesso","area_code":35},{"uf":"mg","city":"Bonfim","parameter_uf":"mg","parameter_city":"bonfim","area_code":31},{"uf":"mg","city":"Bonfin\u00f3polis de minas","parameter_uf":"mg","parameter_city":"bonfinopolis-de-minas","area_code":38},{"uf":"mg","city":"Bonito de minas","parameter_uf":"mg","parameter_city":"bonito-de-minas","area_code":38},{"uf":"mg","city":"Borda da mata","parameter_uf":"mg","parameter_city":"borda-da-mata","area_code":35},{"uf":"mg","city":"Botelhos","parameter_uf":"mg","parameter_city":"botelhos","area_code":35},{"uf":"mg","city":"Botumirim","parameter_uf":"mg","parameter_city":"botumirim","area_code":38},{"uf":"mg","city":"Br\u00e1s pires","parameter_uf":"mg","parameter_city":"bras-pires","area_code":32},{"uf":"mg","city":"Brasil\u00e2ndia","parameter_uf":"mg","parameter_city":"brasilandia","area_code":38},{"uf":"mg","city":"Bras\u00edlia de minas","parameter_uf":"mg","parameter_city":"brasilia-de-minas","area_code":38},{"uf":"mg","city":"Bras\u00f3polis","parameter_uf":"mg","parameter_city":"brasopolis","area_code":35},{"uf":"mg","city":"Bra\u00fanas","parameter_uf":"mg","parameter_city":"braunas","area_code":33},{"uf":"mg","city":"Brumadinho","parameter_uf":"mg","parameter_city":"brumadinho","area_code":31},{"uf":"mg","city":"Bueno brand\u00e3o","parameter_uf":"mg","parameter_city":"bueno-brandao","area_code":35},{"uf":"mg","city":"Buen\u00f3polis","parameter_uf":"mg","parameter_city":"buenopolis","area_code":38},{"uf":"mg","city":"Bugre","parameter_uf":"mg","parameter_city":"bugre","area_code":33},{"uf":"mg","city":"Buritis","parameter_uf":"mg","parameter_city":"buritis","area_code":38},{"uf":"mg","city":"Buritizeiro","parameter_uf":"mg","parameter_city":"buritizeiro","area_code":38},{"uf":"mg","city":"Cabeceira grande","parameter_uf":"mg","parameter_city":"cabeceira-grande","area_code":38},{"uf":"mg","city":"Cabo verde","parameter_uf":"mg","parameter_city":"cabo-verde","area_code":35},{"uf":"mg","city":"Cachoeira da prata","parameter_uf":"mg","parameter_city":"cachoeira-da-prata","area_code":31},{"uf":"mg","city":"Cachoeira de minas","parameter_uf":"mg","parameter_city":"cachoeira-de-minas","area_code":35},{"uf":"mg","city":"Cachoeira de paje\u00fa","parameter_uf":"mg","parameter_city":"cachoeira-de-pajeu","area_code":33},{"uf":"mg","city":"Cachoeira dourada","parameter_uf":"mg","parameter_city":"cachoeira-dourada","area_code":34},{"uf":"mg","city":"Caetan\u00f3polis","parameter_uf":"mg","parameter_city":"caetanopolis","area_code":31},{"uf":"mg","city":"Caet\u00e9","parameter_uf":"mg","parameter_city":"caete","area_code":31},{"uf":"mg","city":"Caiana","parameter_uf":"mg","parameter_city":"caiana","area_code":32},{"uf":"mg","city":"Cajuri","parameter_uf":"mg","parameter_city":"cajuri","area_code":31},{"uf":"mg","city":"Caldas","parameter_uf":"mg","parameter_city":"caldas","area_code":35},{"uf":"mg","city":"Camacho","parameter_uf":"mg","parameter_city":"camacho","area_code":37},{"uf":"mg","city":"Camanducaia","parameter_uf":"mg","parameter_city":"camanducaia","area_code":35},{"uf":"mg","city":"Cambu\u00ed","parameter_uf":"mg","parameter_city":"cambui","area_code":35},{"uf":"mg","city":"Cambuquira","parameter_uf":"mg","parameter_city":"cambuquira","area_code":35},{"uf":"mg","city":"Campan\u00e1rio","parameter_uf":"mg","parameter_city":"campanario","area_code":33},{"uf":"mg","city":"Campanha","parameter_uf":"mg","parameter_city":"campanha","area_code":35},{"uf":"mg","city":"Campestre","parameter_uf":"mg","parameter_city":"campestre","area_code":35},{"uf":"mg","city":"Campina verde","parameter_uf":"mg","parameter_city":"campina-verde","area_code":34},{"uf":"mg","city":"Campo azul","parameter_uf":"mg","parameter_city":"campo-azul","area_code":38},{"uf":"mg","city":"Campo belo","parameter_uf":"mg","parameter_city":"campo-belo","area_code":35},{"uf":"mg","city":"Campo do meio","parameter_uf":"mg","parameter_city":"campo-do-meio","area_code":35},{"uf":"mg","city":"Campo florido","parameter_uf":"mg","parameter_city":"campo-florido","area_code":34},{"uf":"mg","city":"Campos altos","parameter_uf":"mg","parameter_city":"campos-altos","area_code":37},{"uf":"mg","city":"Campos gerais","parameter_uf":"mg","parameter_city":"campos-gerais","area_code":35},{"uf":"mg","city":"Cana verde","parameter_uf":"mg","parameter_city":"cana-verde","area_code":35},{"uf":"mg","city":"Cana\u00e3","parameter_uf":"mg","parameter_city":"canaa","area_code":31},{"uf":"mg","city":"Can\u00e1polis","parameter_uf":"mg","parameter_city":"canapolis","area_code":34},{"uf":"mg","city":"Candeias","parameter_uf":"mg","parameter_city":"candeias","area_code":35},{"uf":"mg","city":"Cantagalo","parameter_uf":"mg","parameter_city":"cantagalo","area_code":33},{"uf":"mg","city":"Capara\u00f3","parameter_uf":"mg","parameter_city":"caparao","area_code":32},{"uf":"mg","city":"Capela nova","parameter_uf":"mg","parameter_city":"capela-nova","area_code":31},{"uf":"mg","city":"Capelinha","parameter_uf":"mg","parameter_city":"capelinha","area_code":33},{"uf":"mg","city":"Capetinga","parameter_uf":"mg","parameter_city":"capetinga","area_code":35},{"uf":"mg","city":"Capim branco","parameter_uf":"mg","parameter_city":"capim-branco","area_code":31},{"uf":"mg","city":"Capin\u00f3polis","parameter_uf":"mg","parameter_city":"capinopolis","area_code":34},{"uf":"mg","city":"Capit\u00e3o andrade","parameter_uf":"mg","parameter_city":"capitao-andrade","area_code":33},{"uf":"mg","city":"Capit\u00e3o en\u00e9as","parameter_uf":"mg","parameter_city":"capitao-eneas","area_code":38},{"uf":"mg","city":"Capit\u00f3lio","parameter_uf":"mg","parameter_city":"capitolio","area_code":37},{"uf":"mg","city":"Caputira","parameter_uf":"mg","parameter_city":"caputira","area_code":31},{"uf":"mg","city":"Cara\u00ed","parameter_uf":"mg","parameter_city":"carai","area_code":33},{"uf":"mg","city":"Carana\u00edba","parameter_uf":"mg","parameter_city":"caranaiba","area_code":31},{"uf":"mg","city":"Caranda\u00ed","parameter_uf":"mg","parameter_city":"carandai","area_code":32},{"uf":"mg","city":"Carangola","parameter_uf":"mg","parameter_city":"carangola","area_code":32},{"uf":"mg","city":"Caratinga","parameter_uf":"mg","parameter_city":"caratinga","area_code":33},{"uf":"mg","city":"Carbonita","parameter_uf":"mg","parameter_city":"carbonita","area_code":38},{"uf":"mg","city":"Carea\u00e7u","parameter_uf":"mg","parameter_city":"careacu","area_code":35},{"uf":"mg","city":"Carlos chagas","parameter_uf":"mg","parameter_city":"carlos-chagas","area_code":33},{"uf":"mg","city":"Carm\u00e9sia","parameter_uf":"mg","parameter_city":"carmesia","area_code":31},{"uf":"mg","city":"Carmo da cachoeira","parameter_uf":"mg","parameter_city":"carmo-da-cachoeira","area_code":35},{"uf":"mg","city":"Carmo da mata","parameter_uf":"mg","parameter_city":"carmo-da-mata","area_code":37},{"uf":"mg","city":"Carmo de minas","parameter_uf":"mg","parameter_city":"carmo-de-minas","area_code":35},{"uf":"mg","city":"Carmo do cajuru","parameter_uf":"mg","parameter_city":"carmo-do-cajuru","area_code":37},{"uf":"mg","city":"Carmo do parana\u00edba","parameter_uf":"mg","parameter_city":"carmo-do-paranaiba","area_code":34},{"uf":"mg","city":"Carmo do rio claro","parameter_uf":"mg","parameter_city":"carmo-do-rio-claro","area_code":35},{"uf":"mg","city":"Carm\u00f3polis de minas","parameter_uf":"mg","parameter_city":"carmopolis-de-minas","area_code":37},{"uf":"mg","city":"Carneirinho","parameter_uf":"mg","parameter_city":"carneirinho","area_code":34},{"uf":"mg","city":"Carrancas","parameter_uf":"mg","parameter_city":"carrancas","area_code":35},{"uf":"mg","city":"Carvalh\u00f3polis","parameter_uf":"mg","parameter_city":"carvalhopolis","area_code":35},{"uf":"mg","city":"Carvalhos","parameter_uf":"mg","parameter_city":"carvalhos","area_code":35},{"uf":"mg","city":"Casa grande","parameter_uf":"mg","parameter_city":"casa-grande","area_code":31},{"uf":"mg","city":"Cascalho rico","parameter_uf":"mg","parameter_city":"cascalho-rico","area_code":34},{"uf":"mg","city":"C\u00e1ssia","parameter_uf":"mg","parameter_city":"cassia","area_code":35},{"uf":"mg","city":"Cataguases","parameter_uf":"mg","parameter_city":"cataguases","area_code":32},{"uf":"mg","city":"Catas altas","parameter_uf":"mg","parameter_city":"catas-altas","area_code":31},{"uf":"mg","city":"Catuji","parameter_uf":"mg","parameter_city":"catuji","area_code":33},{"uf":"mg","city":"Catuti","parameter_uf":"mg","parameter_city":"catuti","area_code":38},{"uf":"mg","city":"Caxambu","parameter_uf":"mg","parameter_city":"caxambu","area_code":35},{"uf":"mg","city":"Cedro do abaet\u00e9","parameter_uf":"mg","parameter_city":"cedro-do-abaete","area_code":37},{"uf":"mg","city":"Central de minas","parameter_uf":"mg","parameter_city":"central-de-minas","area_code":33},{"uf":"mg","city":"Centralina","parameter_uf":"mg","parameter_city":"centralina","area_code":34},{"uf":"mg","city":"Ch\u00e1cara","parameter_uf":"mg","parameter_city":"chacara","area_code":32},{"uf":"mg","city":"Chal\u00e9","parameter_uf":"mg","parameter_city":"chale","area_code":33},{"uf":"mg","city":"Chapada do norte","parameter_uf":"mg","parameter_city":"chapada-do-norte","area_code":33},{"uf":"mg","city":"Chapada ga\u00facha","parameter_uf":"mg","parameter_city":"chapada-gaucha","area_code":38},{"uf":"mg","city":"Chiador","parameter_uf":"mg","parameter_city":"chiador","area_code":32},{"uf":"mg","city":"Cipot\u00e2nea","parameter_uf":"mg","parameter_city":"cipotanea","area_code":32},{"uf":"mg","city":"Claraval","parameter_uf":"mg","parameter_city":"claraval","area_code":34},{"uf":"mg","city":"Claro dos po\u00e7\u00f5es","parameter_uf":"mg","parameter_city":"claro-dos-pocoes","area_code":38},{"uf":"mg","city":"Cl\u00e1udio","parameter_uf":"mg","parameter_city":"claudio","area_code":37},{"uf":"mg","city":"Coimbra","parameter_uf":"mg","parameter_city":"coimbra","area_code":32},{"uf":"mg","city":"Coluna","parameter_uf":"mg","parameter_city":"coluna","area_code":33},{"uf":"mg","city":"Comendador gomes","parameter_uf":"mg","parameter_city":"comendador-gomes","area_code":34},{"uf":"mg","city":"Comercinho","parameter_uf":"mg","parameter_city":"comercinho","area_code":33},{"uf":"mg","city":"Concei\u00e7\u00e3o das alagoas","parameter_uf":"mg","parameter_city":"conceicao-das-alagoas","area_code":34},{"uf":"mg","city":"Concei\u00e7\u00e3o das pedras","parameter_uf":"mg","parameter_city":"conceicao-das-pedras","area_code":35},{"uf":"mg","city":"Concei\u00e7\u00e3o de ipanema","parameter_uf":"mg","parameter_city":"conceicao-de-ipanema","area_code":33},{"uf":"mg","city":"Concei\u00e7\u00e3o do par\u00e1","parameter_uf":"mg","parameter_city":"conceicao-do-para","area_code":37},{"uf":"mg","city":"Concei\u00e7\u00e3o do rio verde","parameter_uf":"mg","parameter_city":"conceicao-do-rio-verde","area_code":35},{"uf":"mg","city":"Concei\u00e7\u00e3o dos ouros","parameter_uf":"mg","parameter_city":"conceicao-dos-ouros","area_code":35},{"uf":"mg","city":"C\u00f4nego marinho","parameter_uf":"mg","parameter_city":"conego-marinho","area_code":38},{"uf":"mg","city":"Confins","parameter_uf":"mg","parameter_city":"confins","area_code":31},{"uf":"mg","city":"Congonhal","parameter_uf":"mg","parameter_city":"congonhal","area_code":35},{"uf":"mg","city":"Congonhas","parameter_uf":"mg","parameter_city":"congonhas","area_code":31},{"uf":"mg","city":"Congonhas do norte","parameter_uf":"mg","parameter_city":"congonhas-do-norte","area_code":31},{"uf":"mg","city":"Conquista","parameter_uf":"mg","parameter_city":"conquista","area_code":34},{"uf":"mg","city":"Conselheiro lafaiete","parameter_uf":"mg","parameter_city":"conselheiro-lafaiete","area_code":31},{"uf":"mg","city":"Conselheiro pena","parameter_uf":"mg","parameter_city":"conselheiro-pena","area_code":33},{"uf":"mg","city":"Consola\u00e7\u00e3o","parameter_uf":"mg","parameter_city":"consolacao","area_code":35},{"uf":"mg","city":"Contagem","parameter_uf":"mg","parameter_city":"contagem","area_code":31},{"uf":"mg","city":"Coqueiral","parameter_uf":"mg","parameter_city":"coqueiral","area_code":35},{"uf":"mg","city":"Cora\u00e7\u00e3o de jesus","parameter_uf":"mg","parameter_city":"coracao-de-jesus","area_code":38},{"uf":"mg","city":"Cordisburgo","parameter_uf":"mg","parameter_city":"cordisburgo","area_code":31},{"uf":"mg","city":"Cordisl\u00e2ndia","parameter_uf":"mg","parameter_city":"cordislandia","area_code":35},{"uf":"mg","city":"Corinto","parameter_uf":"mg","parameter_city":"corinto","area_code":38},{"uf":"mg","city":"Coroaci","parameter_uf":"mg","parameter_city":"coroaci","area_code":33},{"uf":"mg","city":"Coromandel","parameter_uf":"mg","parameter_city":"coromandel","area_code":34},{"uf":"mg","city":"Coronel fabriciano","parameter_uf":"mg","parameter_city":"coronel-fabriciano","area_code":31},{"uf":"mg","city":"Coronel murta","parameter_uf":"mg","parameter_city":"coronel-murta","area_code":33},{"uf":"mg","city":"Coronel pacheco","parameter_uf":"mg","parameter_city":"coronel-pacheco","area_code":32},{"uf":"mg","city":"Coronel xavier chaves","parameter_uf":"mg","parameter_city":"coronel-xavier-chaves","area_code":32},{"uf":"mg","city":"C\u00f3rrego danta","parameter_uf":"mg","parameter_city":"corrego-danta","area_code":37},{"uf":"mg","city":"C\u00f3rrego do bom jesus","parameter_uf":"mg","parameter_city":"corrego-do-bom-jesus","area_code":35},{"uf":"mg","city":"C\u00f3rrego fundo","parameter_uf":"mg","parameter_city":"corrego-fundo","area_code":37},{"uf":"mg","city":"C\u00f3rrego novo","parameter_uf":"mg","parameter_city":"corrego-novo","area_code":33},{"uf":"mg","city":"Cris\u00f3lita","parameter_uf":"mg","parameter_city":"crisolita","area_code":33},{"uf":"mg","city":"Cristais","parameter_uf":"mg","parameter_city":"cristais","area_code":35},{"uf":"mg","city":"Crist\u00e1lia","parameter_uf":"mg","parameter_city":"cristalia","area_code":38},{"uf":"mg","city":"Cristiano otoni","parameter_uf":"mg","parameter_city":"cristiano-otoni","area_code":31},{"uf":"mg","city":"Cristina","parameter_uf":"mg","parameter_city":"cristina","area_code":35},{"uf":"mg","city":"Crucil\u00e2ndia","parameter_uf":"mg","parameter_city":"crucilandia","area_code":31},{"uf":"mg","city":"Cruzeiro da fortaleza","parameter_uf":"mg","parameter_city":"cruzeiro-da-fortaleza","area_code":34},{"uf":"mg","city":"Cruz\u00edlia","parameter_uf":"mg","parameter_city":"cruzilia","area_code":35},{"uf":"mg","city":"Cuparaque","parameter_uf":"mg","parameter_city":"cuparaque","area_code":33},{"uf":"mg","city":"Curral de dentro","parameter_uf":"mg","parameter_city":"curral-de-dentro","area_code":33},{"uf":"mg","city":"Curvelo","parameter_uf":"mg","parameter_city":"curvelo","area_code":38},{"uf":"mg","city":"Datas","parameter_uf":"mg","parameter_city":"datas","area_code":38},{"uf":"mg","city":"Delfim moreira","parameter_uf":"mg","parameter_city":"delfim-moreira","area_code":35},{"uf":"mg","city":"Delfin\u00f3polis","parameter_uf":"mg","parameter_city":"delfinopolis","area_code":35},{"uf":"mg","city":"Delta","parameter_uf":"mg","parameter_city":"delta","area_code":34},{"uf":"mg","city":"Descoberto","parameter_uf":"mg","parameter_city":"descoberto","area_code":32},{"uf":"mg","city":"Desterro do melo","parameter_uf":"mg","parameter_city":"desterro-do-melo","area_code":32},{"uf":"mg","city":"Diamantina","parameter_uf":"mg","parameter_city":"diamantina","area_code":38},{"uf":"mg","city":"Diogo de vasconcelos","parameter_uf":"mg","parameter_city":"diogo-de-vasconcelos","area_code":31},{"uf":"mg","city":"Dion\u00edsio","parameter_uf":"mg","parameter_city":"dionisio","area_code":31},{"uf":"mg","city":"Divin\u00e9sia","parameter_uf":"mg","parameter_city":"divinesia","area_code":32},{"uf":"mg","city":"Divino","parameter_uf":"mg","parameter_city":"divino","area_code":32},{"uf":"mg","city":"Divinol\u00e2ndia de minas","parameter_uf":"mg","parameter_city":"divinolandia-de-minas","area_code":33},{"uf":"mg","city":"Divin\u00f3polis","parameter_uf":"mg","parameter_city":"divinopolis","area_code":37},{"uf":"mg","city":"Divisa alegre","parameter_uf":"mg","parameter_city":"divisa-alegre","area_code":33},{"uf":"mg","city":"Divisa nova","parameter_uf":"mg","parameter_city":"divisa-nova","area_code":35},{"uf":"mg","city":"Divis\u00f3polis","parameter_uf":"mg","parameter_city":"divisopolis","area_code":33},{"uf":"mg","city":"Dom bosco","parameter_uf":"mg","parameter_city":"dom-bosco","area_code":38},{"uf":"mg","city":"Dom cavati","parameter_uf":"mg","parameter_city":"dom-cavati","area_code":33},{"uf":"mg","city":"Dom joaquim","parameter_uf":"mg","parameter_city":"dom-joaquim","area_code":31},{"uf":"mg","city":"Dom silv\u00e9rio","parameter_uf":"mg","parameter_city":"dom-silverio","area_code":31},{"uf":"mg","city":"Dom vi\u00e7oso","parameter_uf":"mg","parameter_city":"dom-vicoso","area_code":35},{"uf":"mg","city":"Dona euz\u00e9bia","parameter_uf":"mg","parameter_city":"dona-euzebia","area_code":32},{"uf":"mg","city":"Dores de campos","parameter_uf":"mg","parameter_city":"dores-de-campos","area_code":32},{"uf":"mg","city":"Dores de guanh\u00e3es","parameter_uf":"mg","parameter_city":"dores-de-guanhaes","area_code":33},{"uf":"mg","city":"Dores do indai\u00e1","parameter_uf":"mg","parameter_city":"dores-do-indaia","area_code":37},{"uf":"mg","city":"Dores do turvo","parameter_uf":"mg","parameter_city":"dores-do-turvo","area_code":32},{"uf":"mg","city":"Dores\u00f3polis","parameter_uf":"mg","parameter_city":"doresopolis","area_code":37},{"uf":"mg","city":"Douradoquara","parameter_uf":"mg","parameter_city":"douradoquara","area_code":34},{"uf":"mg","city":"Durand\u00e9","parameter_uf":"mg","parameter_city":"durande","area_code":33},{"uf":"mg","city":"El\u00f3i mendes","parameter_uf":"mg","parameter_city":"eloi-mendes","area_code":35},{"uf":"mg","city":"Engenheiro caldas","parameter_uf":"mg","parameter_city":"engenheiro-caldas","area_code":33},{"uf":"mg","city":"Engenheiro navarro","parameter_uf":"mg","parameter_city":"engenheiro-navarro","area_code":38},{"uf":"mg","city":"Entre folhas","parameter_uf":"mg","parameter_city":"entre-folhas","area_code":33},{"uf":"mg","city":"Entre rios de minas","parameter_uf":"mg","parameter_city":"entre-rios-de-minas","area_code":31},{"uf":"mg","city":"Erv\u00e1lia","parameter_uf":"mg","parameter_city":"ervalia","area_code":32},{"uf":"mg","city":"Esmeraldas","parameter_uf":"mg","parameter_city":"esmeraldas","area_code":31},{"uf":"mg","city":"Espera feliz","parameter_uf":"mg","parameter_city":"espera-feliz","area_code":32},{"uf":"mg","city":"Espinosa","parameter_uf":"mg","parameter_city":"espinosa","area_code":38},{"uf":"mg","city":"Estiva","parameter_uf":"mg","parameter_city":"estiva","area_code":35},{"uf":"mg","city":"Estrela dalva","parameter_uf":"mg","parameter_city":"estrela-dalva","area_code":32},{"uf":"mg","city":"Estrela do indai\u00e1","parameter_uf":"mg","parameter_city":"estrela-do-indaia","area_code":37},{"uf":"mg","city":"Estrela do sul","parameter_uf":"mg","parameter_city":"estrela-do-sul","area_code":34},{"uf":"mg","city":"Eugen\u00f3polis","parameter_uf":"mg","parameter_city":"eugenopolis","area_code":32},{"uf":"mg","city":"Ewbank da c\u00e2mara","parameter_uf":"mg","parameter_city":"ewbank-da-camara","area_code":32},{"uf":"mg","city":"Extrema","parameter_uf":"mg","parameter_city":"extrema","area_code":35},{"uf":"mg","city":"Fama","parameter_uf":"mg","parameter_city":"fama","area_code":35},{"uf":"mg","city":"Faria lemos","parameter_uf":"mg","parameter_city":"faria-lemos","area_code":32},{"uf":"mg","city":"Fel\u00edcio dos santos","parameter_uf":"mg","parameter_city":"felicio-dos-santos","area_code":38},{"uf":"mg","city":"Felisburgo","parameter_uf":"mg","parameter_city":"felisburgo","area_code":33},{"uf":"mg","city":"Felixl\u00e2ndia","parameter_uf":"mg","parameter_city":"felixlandia","area_code":38},{"uf":"mg","city":"Fernandes tourinho","parameter_uf":"mg","parameter_city":"fernandes-tourinho","area_code":33},{"uf":"mg","city":"Ferros","parameter_uf":"mg","parameter_city":"ferros","area_code":31},{"uf":"mg","city":"Fervedouro","parameter_uf":"mg","parameter_city":"fervedouro","area_code":32},{"uf":"mg","city":"Florestal","parameter_uf":"mg","parameter_city":"florestal","area_code":31},{"uf":"mg","city":"Formiga","parameter_uf":"mg","parameter_city":"formiga","area_code":37},{"uf":"mg","city":"Formoso","parameter_uf":"mg","parameter_city":"formoso","area_code":38},{"uf":"mg","city":"Fortaleza de minas","parameter_uf":"mg","parameter_city":"fortaleza-de-minas","area_code":35},{"uf":"mg","city":"Fortuna de minas","parameter_uf":"mg","parameter_city":"fortuna-de-minas","area_code":31},{"uf":"mg","city":"Francisco badar\u00f3","parameter_uf":"mg","parameter_city":"francisco-badaro","area_code":33},{"uf":"mg","city":"Francisco dumont","parameter_uf":"mg","parameter_city":"francisco-dumont","area_code":38},{"uf":"mg","city":"Francisco s\u00e1","parameter_uf":"mg","parameter_city":"francisco-sa","area_code":38},{"uf":"mg","city":"Francisc\u00f3polis","parameter_uf":"mg","parameter_city":"franciscopolis","area_code":33},{"uf":"mg","city":"Frei gaspar","parameter_uf":"mg","parameter_city":"frei-gaspar","area_code":33},{"uf":"mg","city":"Frei inoc\u00eancio","parameter_uf":"mg","parameter_city":"frei-inocencio","area_code":33},{"uf":"mg","city":"Frei lagonegro","parameter_uf":"mg","parameter_city":"frei-lagonegro","area_code":33},{"uf":"mg","city":"Fronteira","parameter_uf":"mg","parameter_city":"fronteira","area_code":34},{"uf":"mg","city":"Fronteira dos vales","parameter_uf":"mg","parameter_city":"fronteira-dos-vales","area_code":33},{"uf":"mg","city":"Fruta de leite","parameter_uf":"mg","parameter_city":"fruta-de-leite","area_code":38},{"uf":"mg","city":"Frutal","parameter_uf":"mg","parameter_city":"frutal","area_code":34},{"uf":"mg","city":"Funil\u00e2ndia","parameter_uf":"mg","parameter_city":"funilandia","area_code":31},{"uf":"mg","city":"Galil\u00e9ia","parameter_uf":"mg","parameter_city":"galileia","area_code":33},{"uf":"mg","city":"Gameleiras","parameter_uf":"mg","parameter_city":"gameleiras","area_code":38},{"uf":"mg","city":"Glaucil\u00e2ndia","parameter_uf":"mg","parameter_city":"glaucilandia","area_code":38},{"uf":"mg","city":"Goiabeira","parameter_uf":"mg","parameter_city":"goiabeira","area_code":33},{"uf":"mg","city":"Goian\u00e1","parameter_uf":"mg","parameter_city":"goiana","area_code":32},{"uf":"mg","city":"Gon\u00e7alves","parameter_uf":"mg","parameter_city":"goncalves","area_code":35},{"uf":"mg","city":"Gonzaga","parameter_uf":"mg","parameter_city":"gonzaga","area_code":33},{"uf":"mg","city":"Gouv\u00eaa","parameter_uf":"mg","parameter_city":"gouvea","area_code":38},{"uf":"mg","city":"Gr\u00e3o mogol","parameter_uf":"mg","parameter_city":"grao-mogol","area_code":38},{"uf":"mg","city":"Grupiara","parameter_uf":"mg","parameter_city":"grupiara","area_code":34},{"uf":"mg","city":"Guanh\u00e3es","parameter_uf":"mg","parameter_city":"guanhaes","area_code":33},{"uf":"mg","city":"Guap\u00e9","parameter_uf":"mg","parameter_city":"guape","area_code":35},{"uf":"mg","city":"Guaraciaba","parameter_uf":"mg","parameter_city":"guaraciaba","area_code":31},{"uf":"mg","city":"Guaraciama","parameter_uf":"mg","parameter_city":"guaraciama","area_code":38},{"uf":"mg","city":"Guaran\u00e9sia","parameter_uf":"mg","parameter_city":"guaranesia","area_code":35},{"uf":"mg","city":"Guarani","parameter_uf":"mg","parameter_city":"guarani","area_code":32},{"uf":"mg","city":"Guarar\u00e1","parameter_uf":"mg","parameter_city":"guarara","area_code":32},{"uf":"mg","city":"Guarda-mor","parameter_uf":"mg","parameter_city":"guarda-mor","area_code":38},{"uf":"mg","city":"Guaxup\u00e9","parameter_uf":"mg","parameter_city":"guaxupe","area_code":35},{"uf":"mg","city":"Guidoval","parameter_uf":"mg","parameter_city":"guidoval","area_code":32},{"uf":"mg","city":"Guimar\u00e2nia","parameter_uf":"mg","parameter_city":"guimarania","area_code":34},{"uf":"mg","city":"Guiricema","parameter_uf":"mg","parameter_city":"guiricema","area_code":32},{"uf":"mg","city":"Gurinhat\u00e3","parameter_uf":"mg","parameter_city":"gurinhata","area_code":34},{"uf":"mg","city":"Heliodora","parameter_uf":"mg","parameter_city":"heliodora","area_code":35},{"uf":"mg","city":"Iapu","parameter_uf":"mg","parameter_city":"iapu","area_code":33},{"uf":"mg","city":"Ibertioga","parameter_uf":"mg","parameter_city":"ibertioga","area_code":32},{"uf":"mg","city":"Ibi\u00e1","parameter_uf":"mg","parameter_city":"ibia","area_code":34},{"uf":"mg","city":"Ibia\u00ed","parameter_uf":"mg","parameter_city":"ibiai","area_code":38},{"uf":"mg","city":"Ibiracatu","parameter_uf":"mg","parameter_city":"ibiracatu","area_code":38},{"uf":"mg","city":"Ibiraci","parameter_uf":"mg","parameter_city":"ibiraci","area_code":35},{"uf":"mg","city":"Ibirit\u00e9","parameter_uf":"mg","parameter_city":"ibirite","area_code":31},{"uf":"mg","city":"Ibiti\u00fara de minas","parameter_uf":"mg","parameter_city":"ibitiura-de-minas","area_code":35},{"uf":"mg","city":"Ibituruna","parameter_uf":"mg","parameter_city":"ibituruna","area_code":35},{"uf":"mg","city":"Icara\u00ed de minas","parameter_uf":"mg","parameter_city":"icarai-de-minas","area_code":38},{"uf":"mg","city":"Igarap\u00e9","parameter_uf":"mg","parameter_city":"igarape","area_code":31},{"uf":"mg","city":"Igaratinga","parameter_uf":"mg","parameter_city":"igaratinga","area_code":37},{"uf":"mg","city":"Iguatama","parameter_uf":"mg","parameter_city":"iguatama","area_code":37},{"uf":"mg","city":"Ijaci","parameter_uf":"mg","parameter_city":"ijaci","area_code":35},{"uf":"mg","city":"Ilic\u00ednea","parameter_uf":"mg","parameter_city":"ilicinea","area_code":35},{"uf":"mg","city":"Imb\u00e9 de minas","parameter_uf":"mg","parameter_city":"imbe-de-minas","area_code":33},{"uf":"mg","city":"Inconfidentes","parameter_uf":"mg","parameter_city":"inconfidentes","area_code":35},{"uf":"mg","city":"Indaiabira","parameter_uf":"mg","parameter_city":"indaiabira","area_code":38},{"uf":"mg","city":"Indian\u00f3polis","parameter_uf":"mg","parameter_city":"indianopolis","area_code":34},{"uf":"mg","city":"Inga\u00ed","parameter_uf":"mg","parameter_city":"ingai","area_code":35},{"uf":"mg","city":"Inhapim","parameter_uf":"mg","parameter_city":"inhapim","area_code":33},{"uf":"mg","city":"Inha\u00fama","parameter_uf":"mg","parameter_city":"inhauma","area_code":31},{"uf":"mg","city":"Inimutaba","parameter_uf":"mg","parameter_city":"inimutaba","area_code":38},{"uf":"mg","city":"Ipaba","parameter_uf":"mg","parameter_city":"ipaba","area_code":33},{"uf":"mg","city":"Ipanema","parameter_uf":"mg","parameter_city":"ipanema","area_code":33},{"uf":"mg","city":"Ipatinga","parameter_uf":"mg","parameter_city":"ipatinga","area_code":31},{"uf":"mg","city":"Ipia\u00e7u","parameter_uf":"mg","parameter_city":"ipiacu","area_code":34},{"uf":"mg","city":"Ipui\u00fana","parameter_uf":"mg","parameter_city":"ipuiuna","area_code":35},{"uf":"mg","city":"Ira\u00ed de minas","parameter_uf":"mg","parameter_city":"irai-de-minas","area_code":34},{"uf":"mg","city":"Itabira","parameter_uf":"mg","parameter_city":"itabira","area_code":31},{"uf":"mg","city":"Itabirinha de mantena","parameter_uf":"mg","parameter_city":"itabirinha-de-mantena","area_code":33},{"uf":"mg","city":"Itabirito","parameter_uf":"mg","parameter_city":"itabirito","area_code":31},{"uf":"mg","city":"Itacambira","parameter_uf":"mg","parameter_city":"itacambira","area_code":38},{"uf":"mg","city":"Itacarambi","parameter_uf":"mg","parameter_city":"itacarambi","area_code":38},{"uf":"mg","city":"Itaguara","parameter_uf":"mg","parameter_city":"itaguara","area_code":37},{"uf":"mg","city":"Itaip\u00e9","parameter_uf":"mg","parameter_city":"itaipe","area_code":33},{"uf":"mg","city":"Itajub\u00e1","parameter_uf":"mg","parameter_city":"itajuba","area_code":35},{"uf":"mg","city":"Itamarandiba","parameter_uf":"mg","parameter_city":"itamarandiba","area_code":38},{"uf":"mg","city":"Itamarati de minas","parameter_uf":"mg","parameter_city":"itamarati-de-minas","area_code":32},{"uf":"mg","city":"Itambacuri","parameter_uf":"mg","parameter_city":"itambacuri","area_code":33},{"uf":"mg","city":"Itamb\u00e9 do mato dentro","parameter_uf":"mg","parameter_city":"itambe-do-mato-dentro","area_code":31},{"uf":"mg","city":"Itamogi","parameter_uf":"mg","parameter_city":"itamogi","area_code":35},{"uf":"mg","city":"Itamonte","parameter_uf":"mg","parameter_city":"itamonte","area_code":35},{"uf":"mg","city":"Itanhandu","parameter_uf":"mg","parameter_city":"itanhandu","area_code":35},{"uf":"mg","city":"Itanhomi","parameter_uf":"mg","parameter_city":"itanhomi","area_code":33},{"uf":"mg","city":"Itaobim","parameter_uf":"mg","parameter_city":"itaobim","area_code":33},{"uf":"mg","city":"Itapagipe","parameter_uf":"mg","parameter_city":"itapagipe","area_code":34},{"uf":"mg","city":"Itapecerica","parameter_uf":"mg","parameter_city":"itapecerica","area_code":37},{"uf":"mg","city":"Itapeva","parameter_uf":"mg","parameter_city":"itapeva","area_code":35},{"uf":"mg","city":"Itatiaiu\u00e7u","parameter_uf":"mg","parameter_city":"itatiaiucu","area_code":31},{"uf":"mg","city":"Ita\u00fa de minas","parameter_uf":"mg","parameter_city":"itau-de-minas","area_code":35},{"uf":"mg","city":"Ita\u00fana","parameter_uf":"mg","parameter_city":"itauna","area_code":37},{"uf":"mg","city":"Itaverava","parameter_uf":"mg","parameter_city":"itaverava","area_code":31},{"uf":"mg","city":"Itinga","parameter_uf":"mg","parameter_city":"itinga","area_code":33},{"uf":"mg","city":"Itueta","parameter_uf":"mg","parameter_city":"itueta","area_code":33},{"uf":"mg","city":"Ituiutaba","parameter_uf":"mg","parameter_city":"ituiutaba","area_code":34},{"uf":"mg","city":"Itumirim","parameter_uf":"mg","parameter_city":"itumirim","area_code":35},{"uf":"mg","city":"Iturama","parameter_uf":"mg","parameter_city":"iturama","area_code":34},{"uf":"mg","city":"Itutinga","parameter_uf":"mg","parameter_city":"itutinga","area_code":35},{"uf":"mg","city":"Jaboticatubas","parameter_uf":"mg","parameter_city":"jaboticatubas","area_code":31},{"uf":"mg","city":"Jacinto","parameter_uf":"mg","parameter_city":"jacinto","area_code":33},{"uf":"mg","city":"Jacu\u00ed","parameter_uf":"mg","parameter_city":"jacui","area_code":35},{"uf":"mg","city":"Jacutinga","parameter_uf":"mg","parameter_city":"jacutinga","area_code":35},{"uf":"mg","city":"Jaguara\u00e7u","parameter_uf":"mg","parameter_city":"jaguaracu","area_code":31},{"uf":"mg","city":"Ja\u00edba","parameter_uf":"mg","parameter_city":"jaiba","area_code":38},{"uf":"mg","city":"Jampruca","parameter_uf":"mg","parameter_city":"jampruca","area_code":33},{"uf":"mg","city":"Jana\u00faba","parameter_uf":"mg","parameter_city":"janauba","area_code":38},{"uf":"mg","city":"Janu\u00e1ria","parameter_uf":"mg","parameter_city":"januaria","area_code":38},{"uf":"mg","city":"Japara\u00edba","parameter_uf":"mg","parameter_city":"japaraiba","area_code":37},{"uf":"mg","city":"Japonvar","parameter_uf":"mg","parameter_city":"japonvar","area_code":38},{"uf":"mg","city":"Jeceaba","parameter_uf":"mg","parameter_city":"jeceaba","area_code":31},{"uf":"mg","city":"Jenipapo de minas","parameter_uf":"mg","parameter_city":"jenipapo-de-minas","area_code":33},{"uf":"mg","city":"Jequeri","parameter_uf":"mg","parameter_city":"jequeri","area_code":31},{"uf":"mg","city":"Jequita\u00ed","parameter_uf":"mg","parameter_city":"jequitai","area_code":38},{"uf":"mg","city":"Jequitib\u00e1","parameter_uf":"mg","parameter_city":"jequitiba","area_code":31},{"uf":"mg","city":"Jequitinhonha","parameter_uf":"mg","parameter_city":"jequitinhonha","area_code":33},{"uf":"mg","city":"Jesu\u00e2nia","parameter_uf":"mg","parameter_city":"jesuania","area_code":35},{"uf":"mg","city":"Joa\u00edma","parameter_uf":"mg","parameter_city":"joaima","area_code":33},{"uf":"mg","city":"Joan\u00e9sia","parameter_uf":"mg","parameter_city":"joanesia","area_code":33},{"uf":"mg","city":"Jo\u00e3o monlevade","parameter_uf":"mg","parameter_city":"joao-monlevade","area_code":31},{"uf":"mg","city":"Jo\u00e3o pinheiro","parameter_uf":"mg","parameter_city":"joao-pinheiro","area_code":38},{"uf":"mg","city":"Joaquim fel\u00edcio","parameter_uf":"mg","parameter_city":"joaquim-felicio","area_code":38},{"uf":"mg","city":"Jord\u00e2nia","parameter_uf":"mg","parameter_city":"jordania","area_code":33},{"uf":"mg","city":"Jos\u00e9 raydan","parameter_uf":"mg","parameter_city":"jose-raydan","area_code":33},{"uf":"mg","city":"Josen\u00f3polis","parameter_uf":"mg","parameter_city":"josenopolis","area_code":38},{"uf":"mg","city":"Juatuba","parameter_uf":"mg","parameter_city":"juatuba","area_code":31},{"uf":"mg","city":"Juiz de fora","parameter_uf":"mg","parameter_city":"juiz-de-fora","area_code":32},{"uf":"mg","city":"Juramento","parameter_uf":"mg","parameter_city":"juramento","area_code":38},{"uf":"mg","city":"Juruaia","parameter_uf":"mg","parameter_city":"juruaia","area_code":35},{"uf":"mg","city":"Juven\u00edlia","parameter_uf":"mg","parameter_city":"juvenilia","area_code":38},{"uf":"mg","city":"Ladainha","parameter_uf":"mg","parameter_city":"ladainha","area_code":33},{"uf":"mg","city":"Lagamar","parameter_uf":"mg","parameter_city":"lagamar","area_code":34},{"uf":"mg","city":"Lagoa da prata","parameter_uf":"mg","parameter_city":"lagoa-da-prata","area_code":37},{"uf":"mg","city":"Lagoa dos patos","parameter_uf":"mg","parameter_city":"lagoa-dos-patos","area_code":38},{"uf":"mg","city":"Lagoa dourada","parameter_uf":"mg","parameter_city":"lagoa-dourada","area_code":32},{"uf":"mg","city":"Lagoa formosa","parameter_uf":"mg","parameter_city":"lagoa-formosa","area_code":34},{"uf":"mg","city":"Lagoa grande","parameter_uf":"mg","parameter_city":"lagoa-grande","area_code":34},{"uf":"mg","city":"Lagoa santa","parameter_uf":"mg","parameter_city":"lagoa-santa","area_code":31},{"uf":"mg","city":"Lajinha","parameter_uf":"mg","parameter_city":"lajinha","area_code":33},{"uf":"mg","city":"Lambari","parameter_uf":"mg","parameter_city":"lambari","area_code":35},{"uf":"mg","city":"Lamim","parameter_uf":"mg","parameter_city":"lamim","area_code":31},{"uf":"mg","city":"Laranjal","parameter_uf":"mg","parameter_city":"laranjal","area_code":32},{"uf":"mg","city":"Lassance","parameter_uf":"mg","parameter_city":"lassance","area_code":38},{"uf":"mg","city":"Lavras","parameter_uf":"mg","parameter_city":"lavras","area_code":35},{"uf":"mg","city":"Leandro ferreira","parameter_uf":"mg","parameter_city":"leandro-ferreira","area_code":37},{"uf":"mg","city":"Leme do prado","parameter_uf":"mg","parameter_city":"leme-do-prado","area_code":33},{"uf":"mg","city":"Leopoldina","parameter_uf":"mg","parameter_city":"leopoldina","area_code":32},{"uf":"mg","city":"Liberdade","parameter_uf":"mg","parameter_city":"liberdade","area_code":32},{"uf":"mg","city":"Lima duarte","parameter_uf":"mg","parameter_city":"lima-duarte","area_code":32},{"uf":"mg","city":"Limeira do oeste","parameter_uf":"mg","parameter_city":"limeira-do-oeste","area_code":34},{"uf":"mg","city":"Lontra","parameter_uf":"mg","parameter_city":"lontra","area_code":38},{"uf":"mg","city":"Luisburgo","parameter_uf":"mg","parameter_city":"luisburgo","area_code":33},{"uf":"mg","city":"Luisl\u00e2ndia","parameter_uf":"mg","parameter_city":"luislandia","area_code":38},{"uf":"mg","city":"Lumin\u00e1rias","parameter_uf":"mg","parameter_city":"luminarias","area_code":35},{"uf":"mg","city":"Luz","parameter_uf":"mg","parameter_city":"luz","area_code":37},{"uf":"mg","city":"Machacalis","parameter_uf":"mg","parameter_city":"machacalis","area_code":33},{"uf":"mg","city":"Machado","parameter_uf":"mg","parameter_city":"machado","area_code":35},{"uf":"mg","city":"Malacacheta","parameter_uf":"mg","parameter_city":"malacacheta","area_code":33},{"uf":"mg","city":"Mamonas","parameter_uf":"mg","parameter_city":"mamonas","area_code":38},{"uf":"mg","city":"Manga","parameter_uf":"mg","parameter_city":"manga","area_code":38},{"uf":"mg","city":"Manhua\u00e7u","parameter_uf":"mg","parameter_city":"manhuacu","area_code":33},{"uf":"mg","city":"Manhumirim","parameter_uf":"mg","parameter_city":"manhumirim","area_code":33},{"uf":"mg","city":"Mantena","parameter_uf":"mg","parameter_city":"mantena","area_code":33},{"uf":"mg","city":"Mar de espanha","parameter_uf":"mg","parameter_city":"mar-de-espanha","area_code":32},{"uf":"mg","city":"Maravilhas","parameter_uf":"mg","parameter_city":"maravilhas","area_code":37},{"uf":"mg","city":"Maria da f\u00e9","parameter_uf":"mg","parameter_city":"maria-da-fe","area_code":35},{"uf":"mg","city":"Mariana","parameter_uf":"mg","parameter_city":"mariana","area_code":31},{"uf":"mg","city":"Marilac","parameter_uf":"mg","parameter_city":"marilac","area_code":33},{"uf":"mg","city":"M\u00e1rio campos","parameter_uf":"mg","parameter_city":"mario-campos","area_code":31},{"uf":"mg","city":"Marip\u00e1 de minas","parameter_uf":"mg","parameter_city":"maripa-de-minas","area_code":32},{"uf":"mg","city":"Marli\u00e9ria","parameter_uf":"mg","parameter_city":"marlieria","area_code":31},{"uf":"mg","city":"Marmel\u00f3polis","parameter_uf":"mg","parameter_city":"marmelopolis","area_code":35},{"uf":"mg","city":"Martinho campos","parameter_uf":"mg","parameter_city":"martinho-campos","area_code":37},{"uf":"mg","city":"Martins soares","parameter_uf":"mg","parameter_city":"martins-soares","area_code":33},{"uf":"mg","city":"Mata verde","parameter_uf":"mg","parameter_city":"mata-verde","area_code":33},{"uf":"mg","city":"Materl\u00e2ndia","parameter_uf":"mg","parameter_city":"materlandia","area_code":33},{"uf":"mg","city":"Mateus leme","parameter_uf":"mg","parameter_city":"mateus-leme","area_code":31},{"uf":"mg","city":"Mathias lobato","parameter_uf":"mg","parameter_city":"mathias-lobato","area_code":33},{"uf":"mg","city":"Matias barbosa","parameter_uf":"mg","parameter_city":"matias-barbosa","area_code":32},{"uf":"mg","city":"Matias cardoso","parameter_uf":"mg","parameter_city":"matias-cardoso","area_code":38},{"uf":"mg","city":"Matip\u00f3","parameter_uf":"mg","parameter_city":"matipo","area_code":31},{"uf":"mg","city":"Mato verde","parameter_uf":"mg","parameter_city":"mato-verde","area_code":38},{"uf":"mg","city":"Matozinhos","parameter_uf":"mg","parameter_city":"matozinhos","area_code":31},{"uf":"mg","city":"Matutina","parameter_uf":"mg","parameter_city":"matutina","area_code":34},{"uf":"mg","city":"Medeiros","parameter_uf":"mg","parameter_city":"medeiros","area_code":37},{"uf":"mg","city":"Medina","parameter_uf":"mg","parameter_city":"medina","area_code":33},{"uf":"mg","city":"Mendes pimentel","parameter_uf":"mg","parameter_city":"mendes-pimentel","area_code":33},{"uf":"mg","city":"Merc\u00eas","parameter_uf":"mg","parameter_city":"merces","area_code":32},{"uf":"mg","city":"Mesquita","parameter_uf":"mg","parameter_city":"mesquita","area_code":33},{"uf":"mg","city":"Minas novas","parameter_uf":"mg","parameter_city":"minas-novas","area_code":33},{"uf":"mg","city":"Minduri","parameter_uf":"mg","parameter_city":"minduri","area_code":35},{"uf":"mg","city":"Mirabela","parameter_uf":"mg","parameter_city":"mirabela","area_code":38},{"uf":"mg","city":"Miradouro","parameter_uf":"mg","parameter_city":"miradouro","area_code":32},{"uf":"mg","city":"Mira\u00ed","parameter_uf":"mg","parameter_city":"mirai","area_code":32},{"uf":"mg","city":"Mirav\u00e2nia","parameter_uf":"mg","parameter_city":"miravania","area_code":38},{"uf":"mg","city":"Moeda","parameter_uf":"mg","parameter_city":"moeda","area_code":31},{"uf":"mg","city":"Moema","parameter_uf":"mg","parameter_city":"moema","area_code":37},{"uf":"mg","city":"Monjolos","parameter_uf":"mg","parameter_city":"monjolos","area_code":38},{"uf":"mg","city":"Monsenhor paulo","parameter_uf":"mg","parameter_city":"monsenhor-paulo","area_code":35},{"uf":"mg","city":"Montalv\u00e2nia","parameter_uf":"mg","parameter_city":"montalvania","area_code":38},{"uf":"mg","city":"Monte alegre de minas","parameter_uf":"mg","parameter_city":"monte-alegre-de-minas","area_code":34},{"uf":"mg","city":"Monte azul","parameter_uf":"mg","parameter_city":"monte-azul","area_code":38},{"uf":"mg","city":"Monte belo","parameter_uf":"mg","parameter_city":"monte-belo","area_code":35},{"uf":"mg","city":"Monte carmelo","parameter_uf":"mg","parameter_city":"monte-carmelo","area_code":34},{"uf":"mg","city":"Monte formoso","parameter_uf":"mg","parameter_city":"monte-formoso","area_code":33},{"uf":"mg","city":"Monte santo de minas","parameter_uf":"mg","parameter_city":"monte-santo-de-minas","area_code":35},{"uf":"mg","city":"Monte si\u00e3o","parameter_uf":"mg","parameter_city":"monte-siao","area_code":35},{"uf":"mg","city":"Montes claros","parameter_uf":"mg","parameter_city":"montes-claros","area_code":38},{"uf":"mg","city":"Montezuma","parameter_uf":"mg","parameter_city":"montezuma","area_code":38},{"uf":"mg","city":"Morada nova de minas","parameter_uf":"mg","parameter_city":"morada-nova-de-minas","area_code":38},{"uf":"mg","city":"Morro da gar\u00e7a","parameter_uf":"mg","parameter_city":"morro-da-garca","area_code":38},{"uf":"mg","city":"Morro do pilar","parameter_uf":"mg","parameter_city":"morro-do-pilar","area_code":31},{"uf":"mg","city":"Munhoz","parameter_uf":"mg","parameter_city":"munhoz","area_code":35},{"uf":"mg","city":"Muria\u00e9","parameter_uf":"mg","parameter_city":"muriae","area_code":32},{"uf":"mg","city":"Mutum","parameter_uf":"mg","parameter_city":"mutum","area_code":33},{"uf":"mg","city":"Muzambinho","parameter_uf":"mg","parameter_city":"muzambinho","area_code":35},{"uf":"mg","city":"Nacip raydan","parameter_uf":"mg","parameter_city":"nacip-raydan","area_code":33},{"uf":"mg","city":"Nanuque","parameter_uf":"mg","parameter_city":"nanuque","area_code":33},{"uf":"mg","city":"Naque","parameter_uf":"mg","parameter_city":"naque","area_code":33},{"uf":"mg","city":"Natal\u00e2ndia","parameter_uf":"mg","parameter_city":"natalandia","area_code":38},{"uf":"mg","city":"Nat\u00e9rcia","parameter_uf":"mg","parameter_city":"natercia","area_code":35},{"uf":"mg","city":"Nazareno","parameter_uf":"mg","parameter_city":"nazareno","area_code":35},{"uf":"mg","city":"Nepomuceno","parameter_uf":"mg","parameter_city":"nepomuceno","area_code":35},{"uf":"mg","city":"Ninheira","parameter_uf":"mg","parameter_city":"ninheira","area_code":38},{"uf":"mg","city":"Nova bel\u00e9m","parameter_uf":"mg","parameter_city":"nova-belem","area_code":33},{"uf":"mg","city":"Nova era","parameter_uf":"mg","parameter_city":"nova-era","area_code":31},{"uf":"mg","city":"Nova lima","parameter_uf":"mg","parameter_city":"nova-lima","area_code":31},{"uf":"mg","city":"Nova m\u00f3dica","parameter_uf":"mg","parameter_city":"nova-modica","area_code":33},{"uf":"mg","city":"Nova ponte","parameter_uf":"mg","parameter_city":"nova-ponte","area_code":34},{"uf":"mg","city":"Nova porteirinha","parameter_uf":"mg","parameter_city":"nova-porteirinha","area_code":38},{"uf":"mg","city":"Nova resende","parameter_uf":"mg","parameter_city":"nova-resende","area_code":35},{"uf":"mg","city":"Nova serrana","parameter_uf":"mg","parameter_city":"nova-serrana","area_code":37},{"uf":"mg","city":"Nova uni\u00e3o","parameter_uf":"mg","parameter_city":"nova-uniao","area_code":31},{"uf":"mg","city":"Novo cruzeiro","parameter_uf":"mg","parameter_city":"novo-cruzeiro","area_code":33},{"uf":"mg","city":"Novo oriente de minas","parameter_uf":"mg","parameter_city":"novo-oriente-de-minas","area_code":33},{"uf":"mg","city":"Novorizonte","parameter_uf":"mg","parameter_city":"novorizonte","area_code":38},{"uf":"mg","city":"Olaria","parameter_uf":"mg","parameter_city":"olaria","area_code":32},{"uf":"mg","city":"Olhos d'agua","parameter_uf":"mg","parameter_city":"olhos-d-agua","area_code":38},{"uf":"mg","city":"Ol\u00edmpio noronha","parameter_uf":"mg","parameter_city":"olimpio-noronha","area_code":35},{"uf":"mg","city":"Oliveira","parameter_uf":"mg","parameter_city":"oliveira","area_code":37},{"uf":"mg","city":"Oliveira fortes","parameter_uf":"mg","parameter_city":"oliveira-fortes","area_code":32},{"uf":"mg","city":"On\u00e7a de pitangui","parameter_uf":"mg","parameter_city":"onca-de-pitangui","area_code":37},{"uf":"mg","city":"Orat\u00f3rios","parameter_uf":"mg","parameter_city":"oratorios","area_code":31},{"uf":"mg","city":"Oriz\u00e2nia","parameter_uf":"mg","parameter_city":"orizania","area_code":32},{"uf":"mg","city":"Ouro branco","parameter_uf":"mg","parameter_city":"ouro-branco","area_code":31},{"uf":"mg","city":"Ouro fino","parameter_uf":"mg","parameter_city":"ouro-fino","area_code":35},{"uf":"mg","city":"Ouro preto","parameter_uf":"mg","parameter_city":"ouro-preto","area_code":31},{"uf":"mg","city":"Ouro verde de minas","parameter_uf":"mg","parameter_city":"ouro-verde-de-minas","area_code":33},{"uf":"mg","city":"Padre carvalho","parameter_uf":"mg","parameter_city":"padre-carvalho","area_code":38},{"uf":"mg","city":"Padre para\u00edso","parameter_uf":"mg","parameter_city":"padre-paraiso","area_code":33},{"uf":"mg","city":"Pai pedro","parameter_uf":"mg","parameter_city":"pai-pedro","area_code":38},{"uf":"mg","city":"Paineiras","parameter_uf":"mg","parameter_city":"paineiras","area_code":37},{"uf":"mg","city":"Pains","parameter_uf":"mg","parameter_city":"pains","area_code":37},{"uf":"mg","city":"Paiva","parameter_uf":"mg","parameter_city":"paiva","area_code":32},{"uf":"mg","city":"Palma","parameter_uf":"mg","parameter_city":"palma","area_code":32},{"uf":"mg","city":"Palm\u00f3polis","parameter_uf":"mg","parameter_city":"palmopolis","area_code":33},{"uf":"mg","city":"Papagaios","parameter_uf":"mg","parameter_city":"papagaios","area_code":37},{"uf":"mg","city":"Par\u00e1 de minas","parameter_uf":"mg","parameter_city":"para-de-minas","area_code":37},{"uf":"mg","city":"Paracatu","parameter_uf":"mg","parameter_city":"paracatu","area_code":38},{"uf":"mg","city":"Paragua\u00e7u","parameter_uf":"mg","parameter_city":"paraguacu","area_code":35},{"uf":"mg","city":"Parais\u00f3polis","parameter_uf":"mg","parameter_city":"paraisopolis","area_code":35},{"uf":"mg","city":"Paraopeba","parameter_uf":"mg","parameter_city":"paraopeba","area_code":31},{"uf":"mg","city":"Passa quatro","parameter_uf":"mg","parameter_city":"passa-quatro","area_code":35},{"uf":"mg","city":"Passa tempo","parameter_uf":"mg","parameter_city":"passa-tempo","area_code":37},{"uf":"mg","city":"Passa vinte","parameter_uf":"mg","parameter_city":"passa-vinte","area_code":32},{"uf":"mg","city":"Passab\u00e9m","parameter_uf":"mg","parameter_city":"passabem","area_code":31},{"uf":"mg","city":"Passos","parameter_uf":"mg","parameter_city":"passos","area_code":35},{"uf":"mg","city":"Patis","parameter_uf":"mg","parameter_city":"patis","area_code":38},{"uf":"mg","city":"Patos de minas","parameter_uf":"mg","parameter_city":"patos-de-minas","area_code":34},{"uf":"mg","city":"Patroc\u00ednio","parameter_uf":"mg","parameter_city":"patrocinio","area_code":34},{"uf":"mg","city":"Patroc\u00ednio do muria\u00e9","parameter_uf":"mg","parameter_city":"patrocinio-do-muriae","area_code":32},{"uf":"mg","city":"Paula c\u00e2ndido","parameter_uf":"mg","parameter_city":"paula-candido","area_code":32},{"uf":"mg","city":"Paulistas","parameter_uf":"mg","parameter_city":"paulistas","area_code":33},{"uf":"mg","city":"Pav\u00e3o","parameter_uf":"mg","parameter_city":"pavao","area_code":33},{"uf":"mg","city":"Pe\u00e7anha","parameter_uf":"mg","parameter_city":"pecanha","area_code":33},{"uf":"mg","city":"Pedra azul","parameter_uf":"mg","parameter_city":"pedra-azul","area_code":33},{"uf":"mg","city":"Pedra bonita","parameter_uf":"mg","parameter_city":"pedra-bonita","area_code":31},{"uf":"mg","city":"Pedra do anta","parameter_uf":"mg","parameter_city":"pedra-do-anta","area_code":31},{"uf":"mg","city":"Pedra do indai\u00e1","parameter_uf":"mg","parameter_city":"pedra-do-indaia","area_code":37},{"uf":"mg","city":"Pedra dourada","parameter_uf":"mg","parameter_city":"pedra-dourada","area_code":32},{"uf":"mg","city":"Pedralva","parameter_uf":"mg","parameter_city":"pedralva","area_code":35},{"uf":"mg","city":"Pedrin\u00f3polis","parameter_uf":"mg","parameter_city":"pedrinopolis","area_code":34},{"uf":"mg","city":"Pedro leopoldo","parameter_uf":"mg","parameter_city":"pedro-leopoldo","area_code":31},{"uf":"mg","city":"Pedro teixeira","parameter_uf":"mg","parameter_city":"pedro-teixeira","area_code":32},{"uf":"mg","city":"Pequeri","parameter_uf":"mg","parameter_city":"pequeri","area_code":32},{"uf":"mg","city":"Pequi","parameter_uf":"mg","parameter_city":"pequi","area_code":37},{"uf":"mg","city":"Perdig\u00e3o","parameter_uf":"mg","parameter_city":"perdigao","area_code":37},{"uf":"mg","city":"Perdizes","parameter_uf":"mg","parameter_city":"perdizes","area_code":34},{"uf":"mg","city":"Perd\u00f5es","parameter_uf":"mg","parameter_city":"perdoes","area_code":35},{"uf":"mg","city":"Periquito","parameter_uf":"mg","parameter_city":"periquito","area_code":33},{"uf":"mg","city":"Pescador","parameter_uf":"mg","parameter_city":"pescador","area_code":33},{"uf":"mg","city":"Piau","parameter_uf":"mg","parameter_city":"piau","area_code":32},{"uf":"mg","city":"Piedade de caratinga","parameter_uf":"mg","parameter_city":"piedade-de-caratinga","area_code":33},{"uf":"mg","city":"Piedade de ponte nova","parameter_uf":"mg","parameter_city":"piedade-de-ponte-nova","area_code":31},{"uf":"mg","city":"Piedade do rio grande","parameter_uf":"mg","parameter_city":"piedade-do-rio-grande","area_code":32},{"uf":"mg","city":"Piedade dos gerais","parameter_uf":"mg","parameter_city":"piedade-dos-gerais","area_code":31},{"uf":"mg","city":"Pimenta","parameter_uf":"mg","parameter_city":"pimenta","area_code":37},{"uf":"mg","city":"Pingo d'\u00e1gua","parameter_uf":"mg","parameter_city":"pingo-d-agua","area_code":33},{"uf":"mg","city":"Pint\u00f3polis","parameter_uf":"mg","parameter_city":"pintopolis","area_code":38},{"uf":"mg","city":"Piracema","parameter_uf":"mg","parameter_city":"piracema","area_code":37},{"uf":"mg","city":"Pirajuba","parameter_uf":"mg","parameter_city":"pirajuba","area_code":34},{"uf":"mg","city":"Piranga","parameter_uf":"mg","parameter_city":"piranga","area_code":31},{"uf":"mg","city":"Pirangu\u00e7u","parameter_uf":"mg","parameter_city":"pirangucu","area_code":35},{"uf":"mg","city":"Piranguinho","parameter_uf":"mg","parameter_city":"piranguinho","area_code":35},{"uf":"mg","city":"Pirapetinga","parameter_uf":"mg","parameter_city":"pirapetinga","area_code":32},{"uf":"mg","city":"Pirapora","parameter_uf":"mg","parameter_city":"pirapora","area_code":38},{"uf":"mg","city":"Pira\u00faba","parameter_uf":"mg","parameter_city":"pirauba","area_code":32},{"uf":"mg","city":"Pitangui","parameter_uf":"mg","parameter_city":"pitangui","area_code":37},{"uf":"mg","city":"Piu\u00ed","parameter_uf":"mg","parameter_city":"piui","area_code":37},{"uf":"mg","city":"Planura","parameter_uf":"mg","parameter_city":"planura","area_code":34},{"uf":"mg","city":"Po\u00e7o fundo","parameter_uf":"mg","parameter_city":"poco-fundo","area_code":35},{"uf":"mg","city":"Po\u00e7os de caldas","parameter_uf":"mg","parameter_city":"pocos-de-caldas","area_code":35},{"uf":"mg","city":"Pocrane","parameter_uf":"mg","parameter_city":"pocrane","area_code":33},{"uf":"mg","city":"Pomp\u00e9u","parameter_uf":"mg","parameter_city":"pompeu","area_code":37},{"uf":"mg","city":"Ponte nova","parameter_uf":"mg","parameter_city":"ponte-nova","area_code":31},{"uf":"mg","city":"Ponto chique","parameter_uf":"mg","parameter_city":"ponto-chique","area_code":38},{"uf":"mg","city":"Ponto dos volantes","parameter_uf":"mg","parameter_city":"ponto-dos-volantes","area_code":33},{"uf":"mg","city":"Porteirinha","parameter_uf":"mg","parameter_city":"porteirinha","area_code":38},{"uf":"mg","city":"Porto firme","parameter_uf":"mg","parameter_city":"porto-firme","area_code":31},{"uf":"mg","city":"Pot\u00e9","parameter_uf":"mg","parameter_city":"pote","area_code":33},{"uf":"mg","city":"Pouso alegre","parameter_uf":"mg","parameter_city":"pouso-alegre","area_code":35},{"uf":"mg","city":"Pouso alto","parameter_uf":"mg","parameter_city":"pouso-alto","area_code":35},{"uf":"mg","city":"Prados","parameter_uf":"mg","parameter_city":"prados","area_code":32},{"uf":"mg","city":"Prata","parameter_uf":"mg","parameter_city":"prata","area_code":34},{"uf":"mg","city":"Prat\u00e1polis","parameter_uf":"mg","parameter_city":"pratapolis","area_code":35},{"uf":"mg","city":"Pratinha","parameter_uf":"mg","parameter_city":"pratinha","area_code":34},{"uf":"mg","city":"Presidente bernardes","parameter_uf":"mg","parameter_city":"presidente-bernardes","area_code":32},{"uf":"mg","city":"Presidente juscelino","parameter_uf":"mg","parameter_city":"presidente-juscelino","area_code":38},{"uf":"mg","city":"Presidente kubitschek","parameter_uf":"mg","parameter_city":"presidente-kubitschek","area_code":38},{"uf":"mg","city":"Presidente oleg\u00e1rio","parameter_uf":"mg","parameter_city":"presidente-olegario","area_code":34},{"uf":"mg","city":"Prudente de morais","parameter_uf":"mg","parameter_city":"prudente-de-morais","area_code":31},{"uf":"mg","city":"Quartel geral","parameter_uf":"mg","parameter_city":"quartel-geral","area_code":37},{"uf":"mg","city":"Queluzita","parameter_uf":"mg","parameter_city":"queluzita","area_code":31},{"uf":"mg","city":"Raposos","parameter_uf":"mg","parameter_city":"raposos","area_code":31},{"uf":"mg","city":"Raul soares","parameter_uf":"mg","parameter_city":"raul-soares","area_code":33},{"uf":"mg","city":"Recreio","parameter_uf":"mg","parameter_city":"recreio","area_code":32},{"uf":"mg","city":"Reduto","parameter_uf":"mg","parameter_city":"reduto","area_code":33},{"uf":"mg","city":"Resende costa","parameter_uf":"mg","parameter_city":"resende-costa","area_code":32},{"uf":"mg","city":"Resplendor","parameter_uf":"mg","parameter_city":"resplendor","area_code":33},{"uf":"mg","city":"Ressaquinha","parameter_uf":"mg","parameter_city":"ressaquinha","area_code":32},{"uf":"mg","city":"Riachinho","parameter_uf":"mg","parameter_city":"riachinho","area_code":38},{"uf":"mg","city":"Riacho dos machados","parameter_uf":"mg","parameter_city":"riacho-dos-machados","area_code":38},{"uf":"mg","city":"Ribeir\u00e3o das neves","parameter_uf":"mg","parameter_city":"ribeirao-das-neves","area_code":31},{"uf":"mg","city":"Ribeir\u00e3o vermelho","parameter_uf":"mg","parameter_city":"ribeirao-vermelho","area_code":35},{"uf":"mg","city":"Rio acima","parameter_uf":"mg","parameter_city":"rio-acima","area_code":31},{"uf":"mg","city":"Rio casca","parameter_uf":"mg","parameter_city":"rio-casca","area_code":31},{"uf":"mg","city":"Rio do prado","parameter_uf":"mg","parameter_city":"rio-do-prado","area_code":33},{"uf":"mg","city":"Rio doce","parameter_uf":"mg","parameter_city":"rio-doce","area_code":31},{"uf":"mg","city":"Rio espera","parameter_uf":"mg","parameter_city":"rio-espera","area_code":31},{"uf":"mg","city":"Rio manso","parameter_uf":"mg","parameter_city":"rio-manso","area_code":31},{"uf":"mg","city":"Rio novo","parameter_uf":"mg","parameter_city":"rio-novo","area_code":32},{"uf":"mg","city":"Rio parana\u00edba","parameter_uf":"mg","parameter_city":"rio-paranaiba","area_code":34},{"uf":"mg","city":"Rio pardo de minas","parameter_uf":"mg","parameter_city":"rio-pardo-de-minas","area_code":38},{"uf":"mg","city":"Rio piracicaba","parameter_uf":"mg","parameter_city":"rio-piracicaba","area_code":31},{"uf":"mg","city":"Rio pomba","parameter_uf":"mg","parameter_city":"rio-pomba","area_code":32},{"uf":"mg","city":"Rio preto","parameter_uf":"mg","parameter_city":"rio-preto","area_code":32},{"uf":"mg","city":"Rio vermelho","parameter_uf":"mg","parameter_city":"rio-vermelho","area_code":33},{"uf":"mg","city":"Rit\u00e1polis","parameter_uf":"mg","parameter_city":"ritapolis","area_code":32},{"uf":"mg","city":"Rochedo de minas","parameter_uf":"mg","parameter_city":"rochedo-de-minas","area_code":32},{"uf":"mg","city":"Rodeiro","parameter_uf":"mg","parameter_city":"rodeiro","area_code":32},{"uf":"mg","city":"Romaria","parameter_uf":"mg","parameter_city":"romaria","area_code":34},{"uf":"mg","city":"Ros\u00e1rio da limeira","parameter_uf":"mg","parameter_city":"rosario-da-limeira","area_code":32},{"uf":"mg","city":"Rubelita","parameter_uf":"mg","parameter_city":"rubelita","area_code":38},{"uf":"mg","city":"Rubim","parameter_uf":"mg","parameter_city":"rubim","area_code":33},{"uf":"mg","city":"Sabar\u00e1","parameter_uf":"mg","parameter_city":"sabara","area_code":31},{"uf":"mg","city":"Sabin\u00f3polis","parameter_uf":"mg","parameter_city":"sabinopolis","area_code":33},{"uf":"mg","city":"Sacramento","parameter_uf":"mg","parameter_city":"sacramento","area_code":34},{"uf":"mg","city":"Salinas","parameter_uf":"mg","parameter_city":"salinas","area_code":38},{"uf":"mg","city":"Salto da divisa","parameter_uf":"mg","parameter_city":"salto-da-divisa","area_code":33},{"uf":"mg","city":"Santa b\u00e1rbara","parameter_uf":"mg","parameter_city":"santa-barbara","area_code":31},{"uf":"mg","city":"Santa cruz de minas","parameter_uf":"mg","parameter_city":"santa-cruz-de-minas","area_code":32},{"uf":"mg","city":"Santa cruz de salinas","parameter_uf":"mg","parameter_city":"santa-cruz-de-salinas","area_code":38},{"uf":"mg","city":"Santa f\u00e9 de minas","parameter_uf":"mg","parameter_city":"santa-fe-de-minas","area_code":38},{"uf":"mg","city":"Santa helena de minas","parameter_uf":"mg","parameter_city":"santa-helena-de-minas","area_code":33},{"uf":"mg","city":"Santa juliana","parameter_uf":"mg","parameter_city":"santa-juliana","area_code":34},{"uf":"mg","city":"Santa luzia","parameter_uf":"mg","parameter_city":"santa-luzia","area_code":31},{"uf":"mg","city":"Santa margarida","parameter_uf":"mg","parameter_city":"santa-margarida","area_code":31},{"uf":"mg","city":"Santa maria do salto","parameter_uf":"mg","parameter_city":"santa-maria-do-salto","area_code":33},{"uf":"mg","city":"Santa maria do sua\u00e7u\u00ed","parameter_uf":"mg","parameter_city":"santa-maria-do-suacui","area_code":33},{"uf":"mg","city":"Santa rita de caldas","parameter_uf":"mg","parameter_city":"santa-rita-de-caldas","area_code":35},{"uf":"mg","city":"Santa rita de minas","parameter_uf":"mg","parameter_city":"santa-rita-de-minas","area_code":33},{"uf":"mg","city":"Santa rita do itueto","parameter_uf":"mg","parameter_city":"santa-rita-do-itueto","area_code":33},{"uf":"mg","city":"Santa rita do sapuca\u00ed","parameter_uf":"mg","parameter_city":"santa-rita-do-sapucai","area_code":35},{"uf":"mg","city":"Santa rosa da serra","parameter_uf":"mg","parameter_city":"santa-rosa-da-serra","area_code":34},{"uf":"mg","city":"Santa vit\u00f3ria","parameter_uf":"mg","parameter_city":"santa-vitoria","area_code":34},{"uf":"mg","city":"Santana da vargem","parameter_uf":"mg","parameter_city":"santana-da-vargem","area_code":35},{"uf":"mg","city":"Santana de cataguases","parameter_uf":"mg","parameter_city":"santana-de-cataguases","area_code":32},{"uf":"mg","city":"Santana de pirapama","parameter_uf":"mg","parameter_city":"santana-de-pirapama","area_code":31},{"uf":"mg","city":"Santana do deserto","parameter_uf":"mg","parameter_city":"santana-do-deserto","area_code":32},{"uf":"mg","city":"Santana do garamb\u00e9u","parameter_uf":"mg","parameter_city":"santana-do-garambeu","area_code":32},{"uf":"mg","city":"Santana do jacar\u00e9","parameter_uf":"mg","parameter_city":"santana-do-jacare","area_code":35},{"uf":"mg","city":"Santana do manhua\u00e7u","parameter_uf":"mg","parameter_city":"santana-do-manhuacu","area_code":33},{"uf":"mg","city":"Santana do para\u00edso","parameter_uf":"mg","parameter_city":"santana-do-paraiso","area_code":33},{"uf":"mg","city":"Santana do riacho","parameter_uf":"mg","parameter_city":"santana-do-riacho","area_code":31},{"uf":"mg","city":"Santana dos montes","parameter_uf":"mg","parameter_city":"santana-dos-montes","area_code":31},{"uf":"mg","city":"Santo hip\u00f3lito","parameter_uf":"mg","parameter_city":"santo-hipolito","area_code":38},{"uf":"mg","city":"Santos dumont","parameter_uf":"mg","parameter_city":"santos-dumont","area_code":32},{"uf":"mg","city":"S\u00e3o bento abade","parameter_uf":"mg","parameter_city":"sao-bento-abade","area_code":35},{"uf":"mg","city":"S\u00e3o br\u00e1s do sua\u00e7u\u00ed","parameter_uf":"mg","parameter_city":"sao-bras-do-suacui","area_code":31},{"uf":"mg","city":"S\u00e3o domingos do prata","parameter_uf":"mg","parameter_city":"sao-domingos-do-prata","area_code":31},{"uf":"mg","city":"S\u00e3o f\u00e9lix de minas","parameter_uf":"mg","parameter_city":"sao-felix-de-minas","area_code":33},{"uf":"mg","city":"S\u00e3o francisco","parameter_uf":"mg","parameter_city":"sao-francisco","area_code":38},{"uf":"mg","city":"S\u00e3o francisco de paula","parameter_uf":"mg","parameter_city":"sao-francisco-de-paula","area_code":37},{"uf":"mg","city":"S\u00e3o francisco de sales","parameter_uf":"mg","parameter_city":"sao-francisco-de-sales","area_code":34},{"uf":"mg","city":"S\u00e3o geraldo","parameter_uf":"mg","parameter_city":"sao-geraldo","area_code":32},{"uf":"mg","city":"S\u00e3o geraldo do baixio","parameter_uf":"mg","parameter_city":"sao-geraldo-do-baixio","area_code":33},{"uf":"mg","city":"S\u00e3o gon\u00e7alo do abaet\u00e9","parameter_uf":"mg","parameter_city":"sao-goncalo-do-abaete","area_code":38},{"uf":"mg","city":"S\u00e3o gon\u00e7alo do par\u00e1","parameter_uf":"mg","parameter_city":"sao-goncalo-do-para","area_code":37},{"uf":"mg","city":"S\u00e3o gotardo","parameter_uf":"mg","parameter_city":"sao-gotardo","area_code":34},{"uf":"mg","city":"S\u00e3o jo\u00e3o da lagoa","parameter_uf":"mg","parameter_city":"sao-joao-da-lagoa","area_code":38},{"uf":"mg","city":"S\u00e3o jo\u00e3o da mata","parameter_uf":"mg","parameter_city":"sao-joao-da-mata","area_code":35},{"uf":"mg","city":"S\u00e3o jo\u00e3o da ponte","parameter_uf":"mg","parameter_city":"sao-joao-da-ponte","area_code":38},{"uf":"mg","city":"S\u00e3o jo\u00e3o das miss\u00f5es","parameter_uf":"mg","parameter_city":"sao-joao-das-missoes","area_code":38},{"uf":"mg","city":"S\u00e3o jo\u00e3o del rei","parameter_uf":"mg","parameter_city":"sao-joao-del-rei","area_code":32},{"uf":"mg","city":"S\u00e3o jo\u00e3o do manhua\u00e7u","parameter_uf":"mg","parameter_city":"sao-joao-do-manhuacu","area_code":33},{"uf":"mg","city":"S\u00e3o jo\u00e3o do oriente","parameter_uf":"mg","parameter_city":"sao-joao-do-oriente","area_code":33},{"uf":"mg","city":"S\u00e3o jo\u00e3o do pacu\u00ed","parameter_uf":"mg","parameter_city":"sao-joao-do-pacui","area_code":38},{"uf":"mg","city":"S\u00e3o jo\u00e3o do para\u00edso","parameter_uf":"mg","parameter_city":"sao-joao-do-paraiso","area_code":38},{"uf":"mg","city":"S\u00e3o jo\u00e3o evangelista","parameter_uf":"mg","parameter_city":"sao-joao-evangelista","area_code":33},{"uf":"mg","city":"S\u00e3o jo\u00e3o nepomuceno","parameter_uf":"mg","parameter_city":"sao-joao-nepomuceno","area_code":32},{"uf":"mg","city":"S\u00e3o joaquim de bicas","parameter_uf":"mg","parameter_city":"sao-joaquim-de-bicas","area_code":31},{"uf":"mg","city":"S\u00e3o jos\u00e9 da barra","parameter_uf":"mg","parameter_city":"sao-jose-da-barra","area_code":35},{"uf":"mg","city":"S\u00e3o jos\u00e9 da lapa","parameter_uf":"mg","parameter_city":"sao-jose-da-lapa","area_code":31},{"uf":"mg","city":"S\u00e3o jos\u00e9 da safira","parameter_uf":"mg","parameter_city":"sao-jose-da-safira","area_code":33},{"uf":"mg","city":"S\u00e3o jos\u00e9 da varginha","parameter_uf":"mg","parameter_city":"sao-jose-da-varginha","area_code":37},{"uf":"mg","city":"S\u00e3o jos\u00e9 do alegre","parameter_uf":"mg","parameter_city":"sao-jose-do-alegre","area_code":35},{"uf":"mg","city":"S\u00e3o jos\u00e9 do divino","parameter_uf":"mg","parameter_city":"sao-jose-do-divino","area_code":33},{"uf":"mg","city":"S\u00e3o jos\u00e9 do goiabal","parameter_uf":"mg","parameter_city":"sao-jose-do-goiabal","area_code":31},{"uf":"mg","city":"S\u00e3o jos\u00e9 do jacuri","parameter_uf":"mg","parameter_city":"sao-jose-do-jacuri","area_code":33},{"uf":"mg","city":"S\u00e3o louren\u00e7o","parameter_uf":"mg","parameter_city":"sao-lourenco","area_code":35},{"uf":"mg","city":"S\u00e3o miguel do anta","parameter_uf":"mg","parameter_city":"sao-miguel-do-anta","area_code":31},{"uf":"mg","city":"S\u00e3o pedro da uni\u00e3o","parameter_uf":"mg","parameter_city":"sao-pedro-da-uniao","area_code":35},{"uf":"mg","city":"S\u00e3o pedro do sua\u00e7u\u00ed","parameter_uf":"mg","parameter_city":"sao-pedro-do-suacui","area_code":33},{"uf":"mg","city":"S\u00e3o pedro dos ferros","parameter_uf":"mg","parameter_city":"sao-pedro-dos-ferros","area_code":33},{"uf":"mg","city":"S\u00e3o rom\u00e3o","parameter_uf":"mg","parameter_city":"sao-romao","area_code":38},{"uf":"mg","city":"S\u00e3o roque de minas","parameter_uf":"mg","parameter_city":"sao-roque-de-minas","area_code":37},{"uf":"mg","city":"S\u00e3o sebasti\u00e3o do anta","parameter_uf":"mg","parameter_city":"sao-sebastiao-do-anta","area_code":33},{"uf":"mg","city":"S\u00e3o sebasti\u00e3o do oeste","parameter_uf":"mg","parameter_city":"sao-sebastiao-do-oeste","area_code":37},{"uf":"mg","city":"Sao thome das letras","parameter_uf":"mg","parameter_city":"sao-thome-das-letras","area_code":35},{"uf":"mg","city":"S\u00e3o tiago","parameter_uf":"mg","parameter_city":"sao-tiago","area_code":32},{"uf":"mg","city":"S\u00e3o tom\u00e1s de aquino","parameter_uf":"mg","parameter_city":"sao-tomas-de-aquino","area_code":35},{"uf":"mg","city":"S\u00e3o vicente de minas","parameter_uf":"mg","parameter_city":"sao-vicente-de-minas","area_code":35},{"uf":"mg","city":"Sapuca\u00ed-mirim","parameter_uf":"mg","parameter_city":"sapucai-mirim","area_code":35},{"uf":"mg","city":"Sardo\u00e1","parameter_uf":"mg","parameter_city":"sardoa","area_code":33},{"uf":"mg","city":"Sarzedo","parameter_uf":"mg","parameter_city":"sarzedo","area_code":31},{"uf":"mg","city":"Sem-peixe","parameter_uf":"mg","parameter_city":"sem-peixe","area_code":31},{"uf":"mg","city":"Senador amaral","parameter_uf":"mg","parameter_city":"senador-amaral","area_code":35},{"uf":"mg","city":"Senador cortes","parameter_uf":"mg","parameter_city":"senador-cortes","area_code":32},{"uf":"mg","city":"Senador firmino","parameter_uf":"mg","parameter_city":"senador-firmino","area_code":32},{"uf":"mg","city":"Senador jos\u00e9 bento","parameter_uf":"mg","parameter_city":"senador-jose-bento","area_code":35},{"uf":"mg","city":"Senhora de oliveira","parameter_uf":"mg","parameter_city":"senhora-de-oliveira","area_code":31},{"uf":"mg","city":"Senhora do porto","parameter_uf":"mg","parameter_city":"senhora-do-porto","area_code":33},{"uf":"mg","city":"Senhora dos rem\u00e9dios","parameter_uf":"mg","parameter_city":"senhora-dos-remedios","area_code":32},{"uf":"mg","city":"Sericita","parameter_uf":"mg","parameter_city":"sericita","area_code":31},{"uf":"mg","city":"Seritinga","parameter_uf":"mg","parameter_city":"seritinga","area_code":35},{"uf":"mg","city":"Serra azul de minas","parameter_uf":"mg","parameter_city":"serra-azul-de-minas","area_code":38},{"uf":"mg","city":"Serra da saudade","parameter_uf":"mg","parameter_city":"serra-da-saudade","area_code":37},{"uf":"mg","city":"Serra do salitre","parameter_uf":"mg","parameter_city":"serra-do-salitre","area_code":34},{"uf":"mg","city":"Serra dos aimor\u00e9s","parameter_uf":"mg","parameter_city":"serra-dos-aimores","area_code":33},{"uf":"mg","city":"Serrania","parameter_uf":"mg","parameter_city":"serrania","area_code":35},{"uf":"mg","city":"Serran\u00f3polis de minas","parameter_uf":"mg","parameter_city":"serranopolis-de-minas","area_code":38},{"uf":"mg","city":"Serranos","parameter_uf":"mg","parameter_city":"serranos","area_code":35},{"uf":"mg","city":"Serro","parameter_uf":"mg","parameter_city":"serro","area_code":38},{"uf":"mg","city":"Sete lagoas","parameter_uf":"mg","parameter_city":"sete-lagoas","area_code":31},{"uf":"mg","city":"Setubinha","parameter_uf":"mg","parameter_city":"setubinha","area_code":33},{"uf":"mg","city":"Silveir\u00e2nia","parameter_uf":"mg","parameter_city":"silveirania","area_code":32},{"uf":"mg","city":"Silvian\u00f3polis","parameter_uf":"mg","parameter_city":"silvianopolis","area_code":35},{"uf":"mg","city":"Sim\u00e3o pereira","parameter_uf":"mg","parameter_city":"simao-pereira","area_code":32},{"uf":"mg","city":"Simon\u00e9sia","parameter_uf":"mg","parameter_city":"simonesia","area_code":33},{"uf":"mg","city":"Sobr\u00e1lia","parameter_uf":"mg","parameter_city":"sobralia","area_code":33},{"uf":"mg","city":"Soledade de minas","parameter_uf":"mg","parameter_city":"soledade-de-minas","area_code":35},{"uf":"mg","city":"Tabuleiro","parameter_uf":"mg","parameter_city":"tabuleiro","area_code":32},{"uf":"mg","city":"Taiobeiras","parameter_uf":"mg","parameter_city":"taiobeiras","area_code":38},{"uf":"mg","city":"Taparuba","parameter_uf":"mg","parameter_city":"taparuba","area_code":33},{"uf":"mg","city":"Tapira","parameter_uf":"mg","parameter_city":"tapira","area_code":34},{"uf":"mg","city":"Tapira\u00ed","parameter_uf":"mg","parameter_city":"tapirai","area_code":37},{"uf":"mg","city":"Taquara\u00e7u de minas","parameter_uf":"mg","parameter_city":"taquaracu-de-minas","area_code":31},{"uf":"mg","city":"Tarumirim","parameter_uf":"mg","parameter_city":"tarumirim","area_code":33},{"uf":"mg","city":"Teixeiras","parameter_uf":"mg","parameter_city":"teixeiras","area_code":31},{"uf":"mg","city":"Te\u00f3filo otoni","parameter_uf":"mg","parameter_city":"teofilo-otoni","area_code":33},{"uf":"mg","city":"Tim\u00f3teo","parameter_uf":"mg","parameter_city":"timoteo","area_code":31},{"uf":"mg","city":"Tiradentes","parameter_uf":"mg","parameter_city":"tiradentes","area_code":32},{"uf":"mg","city":"Tiros","parameter_uf":"mg","parameter_city":"tiros","area_code":34},{"uf":"mg","city":"Tocantins","parameter_uf":"mg","parameter_city":"tocantins","area_code":32},{"uf":"mg","city":"Tocos do mogi","parameter_uf":"mg","parameter_city":"tocos-do-mogi","area_code":35},{"uf":"mg","city":"Toledo","parameter_uf":"mg","parameter_city":"toledo","area_code":35},{"uf":"mg","city":"Tombos","parameter_uf":"mg","parameter_city":"tombos","area_code":32},{"uf":"mg","city":"Tr\u00eas cora\u00e7\u00f5es","parameter_uf":"mg","parameter_city":"tres-coracoes","area_code":35},{"uf":"mg","city":"Tr\u00eas marias","parameter_uf":"mg","parameter_city":"tres-marias","area_code":38},{"uf":"mg","city":"Tr\u00eas pontas","parameter_uf":"mg","parameter_city":"tres-pontas","area_code":35},{"uf":"mg","city":"Tumiritinga","parameter_uf":"mg","parameter_city":"tumiritinga","area_code":33},{"uf":"mg","city":"Tupaciguara","parameter_uf":"mg","parameter_city":"tupaciguara","area_code":34},{"uf":"mg","city":"Turmalina","parameter_uf":"mg","parameter_city":"turmalina","area_code":38},{"uf":"mg","city":"Turvol\u00e2ndia","parameter_uf":"mg","parameter_city":"turvolandia","area_code":35},{"uf":"mg","city":"Ub\u00e1","parameter_uf":"mg","parameter_city":"uba","area_code":32},{"uf":"mg","city":"Uba\u00ed","parameter_uf":"mg","parameter_city":"ubai","area_code":38},{"uf":"mg","city":"Ubaporanga","parameter_uf":"mg","parameter_city":"ubaporanga","area_code":33},{"uf":"mg","city":"Uberaba","parameter_uf":"mg","parameter_city":"uberaba","area_code":34},{"uf":"mg","city":"Uberl\u00e2ndia","parameter_uf":"mg","parameter_city":"uberlandia","area_code":34},{"uf":"mg","city":"Umburatiba","parameter_uf":"mg","parameter_city":"umburatiba","area_code":33},{"uf":"mg","city":"Una\u00ed","parameter_uf":"mg","parameter_city":"unai","area_code":38},{"uf":"mg","city":"Uni\u00e3o de minas","parameter_uf":"mg","parameter_city":"uniao-de-minas","area_code":34},{"uf":"mg","city":"Uruana de minas","parameter_uf":"mg","parameter_city":"uruana-de-minas","area_code":38},{"uf":"mg","city":"Uruc\u00e2nia","parameter_uf":"mg","parameter_city":"urucania","area_code":31},{"uf":"mg","city":"Urucuia","parameter_uf":"mg","parameter_city":"urucuia","area_code":38},{"uf":"mg","city":"Vargem alegre","parameter_uf":"mg","parameter_city":"vargem-alegre","area_code":33},{"uf":"mg","city":"Vargem bonita","parameter_uf":"mg","parameter_city":"vargem-bonita","area_code":37},{"uf":"mg","city":"Varginha","parameter_uf":"mg","parameter_city":"varginha","area_code":35},{"uf":"mg","city":"Varj\u00e3o","parameter_uf":"mg","parameter_city":"varjao","area_code":38},{"uf":"mg","city":"V\u00e1rzea da palma","parameter_uf":"mg","parameter_city":"varzea-da-palma","area_code":38},{"uf":"mg","city":"Varzel\u00e2ndia","parameter_uf":"mg","parameter_city":"varzelandia","area_code":38},{"uf":"mg","city":"Vazante","parameter_uf":"mg","parameter_city":"vazante","area_code":34},{"uf":"mg","city":"Verdel\u00e2ndia","parameter_uf":"mg","parameter_city":"verdelandia","area_code":38},{"uf":"mg","city":"Veredinha","parameter_uf":"mg","parameter_city":"veredinha","area_code":38},{"uf":"mg","city":"Ver\u00edssimo","parameter_uf":"mg","parameter_city":"verissimo","area_code":34},{"uf":"mg","city":"Vermelho novo","parameter_uf":"mg","parameter_city":"vermelho-novo","area_code":33},{"uf":"mg","city":"Vespasiano","parameter_uf":"mg","parameter_city":"vespasiano","area_code":31},{"uf":"mg","city":"Vi\u00e7osa","parameter_uf":"mg","parameter_city":"vicosa","area_code":31},{"uf":"mg","city":"Vieiras","parameter_uf":"mg","parameter_city":"vieiras","area_code":32},{"uf":"mg","city":"Virgem da lapa","parameter_uf":"mg","parameter_city":"virgem-da-lapa","area_code":33},{"uf":"mg","city":"Virg\u00ednia","parameter_uf":"mg","parameter_city":"virginia","area_code":35},{"uf":"mg","city":"Virgin\u00f3polis","parameter_uf":"mg","parameter_city":"virginopolis","area_code":33},{"uf":"mg","city":"Virgol\u00e2ndia","parameter_uf":"mg","parameter_city":"virgolandia","area_code":33},{"uf":"mg","city":"Volta grande","parameter_uf":"mg","parameter_city":"volta-grande","area_code":32},{"uf":"mg","city":"Wenceslau braz","parameter_uf":"mg","parameter_city":"wenceslau-braz","area_code":35}]