[{"uf":"mt","city":"Acorizal","parameter_uf":"mt","parameter_city":"acorizal","area_code":65},{"uf":"mt","city":"\u00c1gua boa","parameter_uf":"mt","parameter_city":"agua-boa","area_code":66},{"uf":"mt","city":"Alta floresta","parameter_uf":"mt","parameter_city":"alta-floresta","area_code":66},{"uf":"mt","city":"Alto araguaia","parameter_uf":"mt","parameter_city":"alto-araguaia","area_code":66},{"uf":"mt","city":"Alto boa vista","parameter_uf":"mt","parameter_city":"alto-boa-vista","area_code":66},{"uf":"mt","city":"Alto gar\u00e7as","parameter_uf":"mt","parameter_city":"alto-garcas","area_code":66},{"uf":"mt","city":"Alto paraguai","parameter_uf":"mt","parameter_city":"alto-paraguai","area_code":65},{"uf":"mt","city":"Alto taquari","parameter_uf":"mt","parameter_city":"alto-taquari","area_code":66},{"uf":"mt","city":"Apiac\u00e1s","parameter_uf":"mt","parameter_city":"apiacas","area_code":66},{"uf":"mt","city":"Araguaiana","parameter_uf":"mt","parameter_city":"araguaiana","area_code":66},{"uf":"mt","city":"Araguainha","parameter_uf":"mt","parameter_city":"araguainha","area_code":66},{"uf":"mt","city":"Araputanga","parameter_uf":"mt","parameter_city":"araputanga","area_code":65},{"uf":"mt","city":"Aren\u00e1polis","parameter_uf":"mt","parameter_city":"arenapolis","area_code":65},{"uf":"mt","city":"Aripuan\u00e3","parameter_uf":"mt","parameter_city":"aripuana","area_code":66},{"uf":"mt","city":"Bar\u00e3o de melga\u00e7o","parameter_uf":"mt","parameter_city":"barao-de-melgaco","area_code":65},{"uf":"mt","city":"Barra do bugres","parameter_uf":"mt","parameter_city":"barra-do-bugres","area_code":65},{"uf":"mt","city":"Barra do gar\u00e7as","parameter_uf":"mt","parameter_city":"barra-do-garcas","area_code":66},{"uf":"mt","city":"Bom jesus do araguaia","parameter_uf":"mt","parameter_city":"bom-jesus-do-araguaia","area_code":66},{"uf":"mt","city":"Brasnorte","parameter_uf":"mt","parameter_city":"brasnorte","area_code":66},{"uf":"mt","city":"C\u00e1ceres","parameter_uf":"mt","parameter_city":"caceres","area_code":65},{"uf":"mt","city":"Campin\u00e1polis","parameter_uf":"mt","parameter_city":"campinapolis","area_code":66},{"uf":"mt","city":"Campo novo do parecis","parameter_uf":"mt","parameter_city":"campo-novo-do-parecis","area_code":65},{"uf":"mt","city":"Campo verde","parameter_uf":"mt","parameter_city":"campo-verde","area_code":66},{"uf":"mt","city":"Campos de j\u00falio","parameter_uf":"mt","parameter_city":"campos-de-julio","area_code":65},{"uf":"mt","city":"Canabrava do norte","parameter_uf":"mt","parameter_city":"canabrava-do-norte","area_code":66},{"uf":"mt","city":"Canarana","parameter_uf":"mt","parameter_city":"canarana","area_code":66},{"uf":"mt","city":"Carlinda","parameter_uf":"mt","parameter_city":"carlinda","area_code":66},{"uf":"mt","city":"Castanheira","parameter_uf":"mt","parameter_city":"castanheira","area_code":66},{"uf":"mt","city":"Chapada dos guimar\u00e3es","parameter_uf":"mt","parameter_city":"chapada-dos-guimaraes","area_code":65},{"uf":"mt","city":"Cl\u00e1udia","parameter_uf":"mt","parameter_city":"claudia","area_code":66},{"uf":"mt","city":"Cocalinho","parameter_uf":"mt","parameter_city":"cocalinho","area_code":66},{"uf":"mt","city":"Col\u00edder","parameter_uf":"mt","parameter_city":"colider","area_code":66},{"uf":"mt","city":"Colniza","parameter_uf":"mt","parameter_city":"colniza","area_code":66},{"uf":"mt","city":"Comodoro","parameter_uf":"mt","parameter_city":"comodoro","area_code":65},{"uf":"mt","city":"Confresa","parameter_uf":"mt","parameter_city":"confresa","area_code":66},{"uf":"mt","city":"Conquista do oeste","parameter_uf":"mt","parameter_city":"conquista-do-oeste","area_code":65},{"uf":"mt","city":"Cotrigua\u00e7u","parameter_uf":"mt","parameter_city":"cotriguacu","area_code":66},{"uf":"mt","city":"Cuiab\u00e1","parameter_uf":"mt","parameter_city":"cuiaba","area_code":65},{"uf":"mt","city":"Curvelandia","parameter_uf":"mt","parameter_city":"curvelandia","area_code":65},{"uf":"mt","city":"Denise","parameter_uf":"mt","parameter_city":"denise","area_code":65},{"uf":"mt","city":"Diamantino","parameter_uf":"mt","parameter_city":"diamantino","area_code":65},{"uf":"mt","city":"Dom aquino","parameter_uf":"mt","parameter_city":"dom-aquino","area_code":66},{"uf":"mt","city":"Feliz natal","parameter_uf":"mt","parameter_city":"feliz-natal","area_code":66},{"uf":"mt","city":"Figueir\u00f3polis d'oeste","parameter_uf":"mt","parameter_city":"figueiropolis-d-oeste","area_code":65},{"uf":"mt","city":"Ga\u00facha do norte","parameter_uf":"mt","parameter_city":"gaucha-do-norte","area_code":66},{"uf":"mt","city":"General carneiro","parameter_uf":"mt","parameter_city":"general-carneiro","area_code":66},{"uf":"mt","city":"Gl\u00f3ria d'oeste","parameter_uf":"mt","parameter_city":"gloria-d-oeste","area_code":65},{"uf":"mt","city":"Guarant\u00e3 do norte","parameter_uf":"mt","parameter_city":"guaranta-do-norte","area_code":66},{"uf":"mt","city":"Guiratinga","parameter_uf":"mt","parameter_city":"guiratinga","area_code":66},{"uf":"mt","city":"Indiava\u00ed","parameter_uf":"mt","parameter_city":"indiavai","area_code":65},{"uf":"mt","city":"Ita\u00faba","parameter_uf":"mt","parameter_city":"itauba","area_code":66},{"uf":"mt","city":"Itiquira","parameter_uf":"mt","parameter_city":"itiquira","area_code":65},{"uf":"mt","city":"Jaciara","parameter_uf":"mt","parameter_city":"jaciara","area_code":66},{"uf":"mt","city":"Jangada","parameter_uf":"mt","parameter_city":"jangada","area_code":65},{"uf":"mt","city":"Jauru","parameter_uf":"mt","parameter_city":"jauru","area_code":65},{"uf":"mt","city":"Juara","parameter_uf":"mt","parameter_city":"juara","area_code":66},{"uf":"mt","city":"Ju\u00edna","parameter_uf":"mt","parameter_city":"juina","area_code":66},{"uf":"mt","city":"Juruena","parameter_uf":"mt","parameter_city":"juruena","area_code":66},{"uf":"mt","city":"Juscimeira","parameter_uf":"mt","parameter_city":"juscimeira","area_code":66},{"uf":"mt","city":"Lambari d'oeste","parameter_uf":"mt","parameter_city":"lambari-d-oeste","area_code":65},{"uf":"mt","city":"Lucas do rio verde","parameter_uf":"mt","parameter_city":"lucas-do-rio-verde","area_code":65},{"uf":"mt","city":"Luci\u00e1ra","parameter_uf":"mt","parameter_city":"luciara","area_code":66},{"uf":"mt","city":"Marcel\u00e2ndia","parameter_uf":"mt","parameter_city":"marcelandia","area_code":66},{"uf":"mt","city":"Matup\u00e1","parameter_uf":"mt","parameter_city":"matupa","area_code":66},{"uf":"mt","city":"Mirassol d'oeste","parameter_uf":"mt","parameter_city":"mirassol-d-oeste","area_code":65},{"uf":"mt","city":"Nobres","parameter_uf":"mt","parameter_city":"nobres","area_code":65},{"uf":"mt","city":"Nortel\u00e2ndia","parameter_uf":"mt","parameter_city":"nortelandia","area_code":65},{"uf":"mt","city":"Nova bandeirantes","parameter_uf":"mt","parameter_city":"nova-bandeirantes","area_code":66},{"uf":"mt","city":"Nova brasil\u00e2ndia","parameter_uf":"mt","parameter_city":"nova-brasilandia","area_code":66},{"uf":"mt","city":"Nova can\u00e3a do norte","parameter_uf":"mt","parameter_city":"nova-canaa-do-norte","area_code":66},{"uf":"mt","city":"Nova guarita","parameter_uf":"mt","parameter_city":"nova-guarita","area_code":66},{"uf":"mt","city":"Nova lacerda","parameter_uf":"mt","parameter_city":"nova-lacerda","area_code":65},{"uf":"mt","city":"Nova maril\u00e2ndia","parameter_uf":"mt","parameter_city":"nova-marilandia","area_code":65},{"uf":"mt","city":"Nova maring\u00e1","parameter_uf":"mt","parameter_city":"nova-maringa","area_code":66},{"uf":"mt","city":"Nova monte verde","parameter_uf":"mt","parameter_city":"nova-monte-verde","area_code":66},{"uf":"mt","city":"Nova mutum","parameter_uf":"mt","parameter_city":"nova-mutum","area_code":65},{"uf":"mt","city":"Nova nazar\u00e9","parameter_uf":"mt","parameter_city":"nova-nazare","area_code":66},{"uf":"mt","city":"Nova ol\u00edmpia","parameter_uf":"mt","parameter_city":"nova-olimpia","area_code":65},{"uf":"mt","city":"Nova santa helena","parameter_uf":"mt","parameter_city":"nova-santa-helena","area_code":66},{"uf":"mt","city":"Nova ubirat\u00e3","parameter_uf":"mt","parameter_city":"nova-ubirata","area_code":66},{"uf":"mt","city":"Nova xavantina","parameter_uf":"mt","parameter_city":"nova-xavantina","area_code":66},{"uf":"mt","city":"Novo mundo","parameter_uf":"mt","parameter_city":"novo-mundo","area_code":66},{"uf":"mt","city":"Novo santo antonio","parameter_uf":"mt","parameter_city":"novo-santo-antonio","area_code":66},{"uf":"mt","city":"Novo s\u00e3o joaquim","parameter_uf":"mt","parameter_city":"novo-sao-joaquim","area_code":66},{"uf":"mt","city":"Parana\u00edta","parameter_uf":"mt","parameter_city":"paranaita","area_code":66},{"uf":"mt","city":"Paranatinga","parameter_uf":"mt","parameter_city":"paranatinga","area_code":66},{"uf":"mt","city":"Pedra preta","parameter_uf":"mt","parameter_city":"pedra-preta","area_code":66},{"uf":"mt","city":"Peixoto de azevedo","parameter_uf":"mt","parameter_city":"peixoto-de-azevedo","area_code":66},{"uf":"mt","city":"Planalto da serra","parameter_uf":"mt","parameter_city":"planalto-da-serra","area_code":66},{"uf":"mt","city":"Pocon\u00e9","parameter_uf":"mt","parameter_city":"pocone","area_code":65},{"uf":"mt","city":"Pontal do araguaia","parameter_uf":"mt","parameter_city":"pontal-do-araguaia","area_code":66},{"uf":"mt","city":"Ponte branca","parameter_uf":"mt","parameter_city":"ponte-branca","area_code":66},{"uf":"mt","city":"Pontes e lacerda","parameter_uf":"mt","parameter_city":"pontes-e-lacerda","area_code":65},{"uf":"mt","city":"Porto alegre do norte","parameter_uf":"mt","parameter_city":"porto-alegre-do-norte","area_code":66},{"uf":"mt","city":"Porto dos ga\u00fachos","parameter_uf":"mt","parameter_city":"porto-dos-gauchos","area_code":66},{"uf":"mt","city":"Porto esperidi\u00e3o","parameter_uf":"mt","parameter_city":"porto-esperidiao","area_code":65},{"uf":"mt","city":"Porto estrela","parameter_uf":"mt","parameter_city":"porto-estrela","area_code":65},{"uf":"mt","city":"Poxor\u00e9o","parameter_uf":"mt","parameter_city":"poxoreo","area_code":66},{"uf":"mt","city":"Primavera do leste","parameter_uf":"mt","parameter_city":"primavera-do-leste","area_code":66},{"uf":"mt","city":"Quer\u00eancia","parameter_uf":"mt","parameter_city":"querencia","area_code":66},{"uf":"mt","city":"Reserva do caba\u00e7al","parameter_uf":"mt","parameter_city":"reserva-do-cabacal","area_code":65},{"uf":"mt","city":"Ribeir\u00e3o cascalheira","parameter_uf":"mt","parameter_city":"ribeirao-cascalheira","area_code":66},{"uf":"mt","city":"Ribeir\u00e3ozinho","parameter_uf":"mt","parameter_city":"ribeiraozinho","area_code":66},{"uf":"mt","city":"Rio branco","parameter_uf":"mt","parameter_city":"rio-branco","area_code":65},{"uf":"mt","city":"Rondolandia","parameter_uf":"mt","parameter_city":"rondolandia","area_code":66},{"uf":"mt","city":"Rondon\u00f3polis","parameter_uf":"mt","parameter_city":"rondonopolis","area_code":66},{"uf":"mt","city":"Ros\u00e1rio oeste","parameter_uf":"mt","parameter_city":"rosario-oeste","area_code":65},{"uf":"mt","city":"Salto do c\u00e9u","parameter_uf":"mt","parameter_city":"salto-do-ceu","area_code":65},{"uf":"mt","city":"Santa carmem","parameter_uf":"mt","parameter_city":"santa-carmem","area_code":66},{"uf":"mt","city":"Santa cruz do xingu","parameter_uf":"mt","parameter_city":"santa-cruz-do-xingu","area_code":66},{"uf":"mt","city":"Santa terezinha","parameter_uf":"mt","parameter_city":"santa-terezinha","area_code":66},{"uf":"mt","city":"Santo afonso","parameter_uf":"mt","parameter_city":"santo-afonso","area_code":65},{"uf":"mt","city":"S\u00e3o f\u00e9lix do araguaia","parameter_uf":"mt","parameter_city":"sao-felix-do-araguaia","area_code":66},{"uf":"mt","city":"S\u00e3o jos\u00e9 do povo","parameter_uf":"mt","parameter_city":"sao-jose-do-povo","area_code":66},{"uf":"mt","city":"S\u00e3o jos\u00e9 do rio claro","parameter_uf":"mt","parameter_city":"sao-jose-do-rio-claro","area_code":66},{"uf":"mt","city":"S\u00e3o jos\u00e9 do xingu","parameter_uf":"mt","parameter_city":"sao-jose-do-xingu","area_code":66},{"uf":"mt","city":"S\u00e3o pedro da cipa","parameter_uf":"mt","parameter_city":"sao-pedro-da-cipa","area_code":66},{"uf":"mt","city":"Sapezal","parameter_uf":"mt","parameter_city":"sapezal","area_code":65},{"uf":"mt","city":"Serra nova dourada","parameter_uf":"mt","parameter_city":"serra-nova-dourada","area_code":66},{"uf":"mt","city":"Sinop","parameter_uf":"mt","parameter_city":"sinop","area_code":66},{"uf":"mt","city":"Sorriso","parameter_uf":"mt","parameter_city":"sorriso","area_code":66},{"uf":"mt","city":"Tabapor\u00e3","parameter_uf":"mt","parameter_city":"tabapora","area_code":66},{"uf":"mt","city":"Tangar\u00e1 da serra","parameter_uf":"mt","parameter_city":"tangara-da-serra","area_code":65},{"uf":"mt","city":"Tapurah","parameter_uf":"mt","parameter_city":"tapurah","area_code":66},{"uf":"mt","city":"Terra nova do norte","parameter_uf":"mt","parameter_city":"terra-nova-do-norte","area_code":66},{"uf":"mt","city":"Tesouro","parameter_uf":"mt","parameter_city":"tesouro","area_code":66},{"uf":"mt","city":"Torixor\u00e9u","parameter_uf":"mt","parameter_city":"torixoreu","area_code":66},{"uf":"mt","city":"Uni\u00e3o do sul","parameter_uf":"mt","parameter_city":"uniao-do-sul","area_code":66},{"uf":"mt","city":"Vale de s\u00e3o domingos","parameter_uf":"mt","parameter_city":"vale-de-sao-domingos","area_code":65},{"uf":"mt","city":"V\u00e1rzea grande","parameter_uf":"mt","parameter_city":"varzea-grande","area_code":65},{"uf":"mt","city":"Vera","parameter_uf":"mt","parameter_city":"vera","area_code":66}]