[{"uf":"pa","city":"Abaetetuba","parameter_uf":"pa","parameter_city":"abaetetuba","area_code":91},{"uf":"pa","city":"Abel figueiredo","parameter_uf":"pa","parameter_city":"abel-figueiredo","area_code":94},{"uf":"pa","city":"Acar\u00e1","parameter_uf":"pa","parameter_city":"acara","area_code":91},{"uf":"pa","city":"Afu\u00e1","parameter_uf":"pa","parameter_city":"afua","area_code":91},{"uf":"pa","city":"\u00c1gua azul do norte","parameter_uf":"pa","parameter_city":"agua-azul-do-norte","area_code":94},{"uf":"pa","city":"Alenquer","parameter_uf":"pa","parameter_city":"alenquer","area_code":93},{"uf":"pa","city":"Almeirim","parameter_uf":"pa","parameter_city":"almeirim","area_code":93},{"uf":"pa","city":"Altamira","parameter_uf":"pa","parameter_city":"altamira","area_code":93},{"uf":"pa","city":"Anaj\u00e1s","parameter_uf":"pa","parameter_city":"anajas","area_code":91},{"uf":"pa","city":"Ananindeua","parameter_uf":"pa","parameter_city":"ananindeua","area_code":91},{"uf":"pa","city":"Anapu","parameter_uf":"pa","parameter_city":"anapu","area_code":91},{"uf":"pa","city":"Augusto corr\u00eaa","parameter_uf":"pa","parameter_city":"augusto-correa","area_code":91},{"uf":"pa","city":"Aurora do par\u00e1","parameter_uf":"pa","parameter_city":"aurora-do-para","area_code":91},{"uf":"pa","city":"Aveiro","parameter_uf":"pa","parameter_city":"aveiro","area_code":93},{"uf":"pa","city":"Bagre","parameter_uf":"pa","parameter_city":"bagre","area_code":91},{"uf":"pa","city":"Bai\u00e3o","parameter_uf":"pa","parameter_city":"baiao","area_code":91},{"uf":"pa","city":"Bannach","parameter_uf":"pa","parameter_city":"bannach","area_code":94},{"uf":"pa","city":"Barcarena","parameter_uf":"pa","parameter_city":"barcarena","area_code":91},{"uf":"pa","city":"Bel\u00e9m","parameter_uf":"pa","parameter_city":"belem","area_code":91},{"uf":"pa","city":"Belterra","parameter_uf":"pa","parameter_city":"belterra","area_code":93},{"uf":"pa","city":"Benevides","parameter_uf":"pa","parameter_city":"benevides","area_code":91},{"uf":"pa","city":"Bom jesus do tocantins","parameter_uf":"pa","parameter_city":"bom-jesus-do-tocantins","area_code":94},{"uf":"pa","city":"Bonito","parameter_uf":"pa","parameter_city":"bonito","area_code":91},{"uf":"pa","city":"Bragan\u00e7a","parameter_uf":"pa","parameter_city":"braganca","area_code":91},{"uf":"pa","city":"Brasil novo","parameter_uf":"pa","parameter_city":"brasil-novo","area_code":93},{"uf":"pa","city":"Brejo grande do","parameter_uf":"pa","parameter_city":"brejo-grande-do","area_code":94},{"uf":"pa","city":"Breu branco","parameter_uf":"pa","parameter_city":"breu-branco","area_code":94},{"uf":"pa","city":"Breves","parameter_uf":"pa","parameter_city":"breves","area_code":91},{"uf":"pa","city":"Bujaru","parameter_uf":"pa","parameter_city":"bujaru","area_code":91},{"uf":"pa","city":"Cachoeira do arari","parameter_uf":"pa","parameter_city":"cachoeira-do-arari","area_code":91},{"uf":"pa","city":"Cachoeira do piri\u00e1","parameter_uf":"pa","parameter_city":"cachoeira-do-piria","area_code":91},{"uf":"pa","city":"Camet\u00e1","parameter_uf":"pa","parameter_city":"cameta","area_code":91},{"uf":"pa","city":"Cana\u00e3 dos caraj\u00e1s","parameter_uf":"pa","parameter_city":"canaa-dos-carajas","area_code":94},{"uf":"pa","city":"Capanema","parameter_uf":"pa","parameter_city":"capanema","area_code":91},{"uf":"pa","city":"Capit\u00e3o po\u00e7o","parameter_uf":"pa","parameter_city":"capitao-poco","area_code":91},{"uf":"pa","city":"Castanhal","parameter_uf":"pa","parameter_city":"castanhal","area_code":91},{"uf":"pa","city":"Chaves","parameter_uf":"pa","parameter_city":"chaves","area_code":91},{"uf":"pa","city":"Colares","parameter_uf":"pa","parameter_city":"colares","area_code":91},{"uf":"pa","city":"Concei\u00e7\u00e3o do araguaia","parameter_uf":"pa","parameter_city":"conceicao-do-araguaia","area_code":94},{"uf":"pa","city":"Conc\u00f3rdia do par\u00e1","parameter_uf":"pa","parameter_city":"concordia-do-para","area_code":91},{"uf":"pa","city":"Cumaru do norte","parameter_uf":"pa","parameter_city":"cumaru-do-norte","area_code":94},{"uf":"pa","city":"Curion\u00f3polis","parameter_uf":"pa","parameter_city":"curionopolis","area_code":94},{"uf":"pa","city":"Curralinho","parameter_uf":"pa","parameter_city":"curralinho","area_code":91},{"uf":"pa","city":"Curu\u00e1","parameter_uf":"pa","parameter_city":"curua","area_code":93},{"uf":"pa","city":"Curu\u00e7\u00e1","parameter_uf":"pa","parameter_city":"curuca","area_code":91},{"uf":"pa","city":"Dom eliseu","parameter_uf":"pa","parameter_city":"dom-eliseu","area_code":94},{"uf":"pa","city":"Eldorado dos caraj\u00e1s","parameter_uf":"pa","parameter_city":"eldorado-dos-carajas","area_code":94},{"uf":"pa","city":"Faro","parameter_uf":"pa","parameter_city":"faro","area_code":93},{"uf":"pa","city":"Floresta do araguaia","parameter_uf":"pa","parameter_city":"floresta-do-araguaia","area_code":94},{"uf":"pa","city":"Garraf\u00e3o do norte","parameter_uf":"pa","parameter_city":"garrafao-do-norte","area_code":91},{"uf":"pa","city":"Goian\u00e9sia do par\u00e1","parameter_uf":"pa","parameter_city":"goianesia-do-para","area_code":94},{"uf":"pa","city":"Gurup\u00e1","parameter_uf":"pa","parameter_city":"gurupa","area_code":91},{"uf":"pa","city":"Igarap\u00e9-a\u00e7u","parameter_uf":"pa","parameter_city":"igarape-acu","area_code":91},{"uf":"pa","city":"Igarap\u00e9-miri","parameter_uf":"pa","parameter_city":"igarape-miri","area_code":91},{"uf":"pa","city":"Inhangapi","parameter_uf":"pa","parameter_city":"inhangapi","area_code":91},{"uf":"pa","city":"Ipixuna do par\u00e1","parameter_uf":"pa","parameter_city":"ipixuna-do-para","area_code":91},{"uf":"pa","city":"Irituia","parameter_uf":"pa","parameter_city":"irituia","area_code":91},{"uf":"pa","city":"Itaituba","parameter_uf":"pa","parameter_city":"itaituba","area_code":93},{"uf":"pa","city":"Itupiranga","parameter_uf":"pa","parameter_city":"itupiranga","area_code":94},{"uf":"pa","city":"Jacareacanga","parameter_uf":"pa","parameter_city":"jacareacanga","area_code":93},{"uf":"pa","city":"Jacund\u00e1","parameter_uf":"pa","parameter_city":"jacunda","area_code":94},{"uf":"pa","city":"Juruti","parameter_uf":"pa","parameter_city":"juruti","area_code":93},{"uf":"pa","city":"Limoeiro do ajuru","parameter_uf":"pa","parameter_city":"limoeiro-do-ajuru","area_code":91},{"uf":"pa","city":"M\u00e3e do rio","parameter_uf":"pa","parameter_city":"mae-do-rio","area_code":91},{"uf":"pa","city":"Magalh\u00e3es barata","parameter_uf":"pa","parameter_city":"magalhaes-barata","area_code":91},{"uf":"pa","city":"Marab\u00e1","parameter_uf":"pa","parameter_city":"maraba","area_code":94},{"uf":"pa","city":"Maracan\u00e3","parameter_uf":"pa","parameter_city":"maracana","area_code":91},{"uf":"pa","city":"Marapanim","parameter_uf":"pa","parameter_city":"marapanim","area_code":91},{"uf":"pa","city":"Marituba","parameter_uf":"pa","parameter_city":"marituba","area_code":91},{"uf":"pa","city":"Medicil\u00e2ndia","parameter_uf":"pa","parameter_city":"medicilandia","area_code":93},{"uf":"pa","city":"Melga\u00e7o","parameter_uf":"pa","parameter_city":"melgaco","area_code":91},{"uf":"pa","city":"Mocajuba","parameter_uf":"pa","parameter_city":"mocajuba","area_code":91},{"uf":"pa","city":"Moju","parameter_uf":"pa","parameter_city":"moju","area_code":91},{"uf":"pa","city":"Monte alegre","parameter_uf":"pa","parameter_city":"monte-alegre","area_code":93},{"uf":"pa","city":"Muan\u00e1","parameter_uf":"pa","parameter_city":"muana","area_code":91},{"uf":"pa","city":"Nova ipixuna","parameter_uf":"pa","parameter_city":"nova-ipixuna","area_code":94},{"uf":"pa","city":"Nova timboteua","parameter_uf":"pa","parameter_city":"nova-timboteua","area_code":91},{"uf":"pa","city":"Novo progresso","parameter_uf":"pa","parameter_city":"novo-progresso","area_code":93},{"uf":"pa","city":"Novo repartimento","parameter_uf":"pa","parameter_city":"novo-repartimento","area_code":94},{"uf":"pa","city":"\u00d3bidos","parameter_uf":"pa","parameter_city":"obidos","area_code":93},{"uf":"pa","city":"Oeiras do par\u00e1","parameter_uf":"pa","parameter_city":"oeiras-do-para","area_code":91},{"uf":"pa","city":"Oriximin\u00e1","parameter_uf":"pa","parameter_city":"oriximina","area_code":93},{"uf":"pa","city":"Our\u00e9m","parameter_uf":"pa","parameter_city":"ourem","area_code":91},{"uf":"pa","city":"Ouril\u00e2ndia do norte","parameter_uf":"pa","parameter_city":"ourilandia-do-norte","area_code":94},{"uf":"pa","city":"Pacaj\u00e1","parameter_uf":"pa","parameter_city":"pacaja","area_code":91},{"uf":"pa","city":"Palestina do par\u00e1","parameter_uf":"pa","parameter_city":"palestina-do-para","area_code":94},{"uf":"pa","city":"Paragominas","parameter_uf":"pa","parameter_city":"paragominas","area_code":91},{"uf":"pa","city":"Parauapebas","parameter_uf":"pa","parameter_city":"parauapebas","area_code":94},{"uf":"pa","city":"Pau d'arco","parameter_uf":"pa","parameter_city":"pau-d-arco","area_code":94},{"uf":"pa","city":"Peixe-boi","parameter_uf":"pa","parameter_city":"peixe-boi","area_code":91},{"uf":"pa","city":"Pi\u00e7arra","parameter_uf":"pa","parameter_city":"picarra","area_code":94},{"uf":"pa","city":"Placas","parameter_uf":"pa","parameter_city":"placas","area_code":93},{"uf":"pa","city":"Ponta de pedras","parameter_uf":"pa","parameter_city":"ponta-de-pedras","area_code":91},{"uf":"pa","city":"Portel","parameter_uf":"pa","parameter_city":"portel","area_code":91},{"uf":"pa","city":"Porto de moz","parameter_uf":"pa","parameter_city":"porto-de-moz","area_code":93},{"uf":"pa","city":"Prainha","parameter_uf":"pa","parameter_city":"prainha","area_code":93},{"uf":"pa","city":"Primavera","parameter_uf":"pa","parameter_city":"primavera","area_code":91},{"uf":"pa","city":"Quatipuru","parameter_uf":"pa","parameter_city":"quatipuru","area_code":91},{"uf":"pa","city":"Reden\u00e7\u00e3o","parameter_uf":"pa","parameter_city":"redencao","area_code":94},{"uf":"pa","city":"Rio maria","parameter_uf":"pa","parameter_city":"rio-maria","area_code":94},{"uf":"pa","city":"Rondon do par\u00e1","parameter_uf":"pa","parameter_city":"rondon-do-para","area_code":94},{"uf":"pa","city":"Rur\u00f3polis","parameter_uf":"pa","parameter_city":"ruropolis","area_code":93},{"uf":"pa","city":"Salin\u00f3polis","parameter_uf":"pa","parameter_city":"salinopolis","area_code":91},{"uf":"pa","city":"Salvaterra","parameter_uf":"pa","parameter_city":"salvaterra","area_code":91},{"uf":"pa","city":"Santa b\u00e1rbara do par\u00e1","parameter_uf":"pa","parameter_city":"santa-barbara-do-para","area_code":91},{"uf":"pa","city":"Santa cruz do arari","parameter_uf":"pa","parameter_city":"santa-cruz-do-arari","area_code":91},{"uf":"pa","city":"Santa isabel do par\u00e1","parameter_uf":"pa","parameter_city":"santa-isabel-do-para","area_code":91},{"uf":"pa","city":"Santa luzia do par\u00e1","parameter_uf":"pa","parameter_city":"santa-luzia-do-para","area_code":91},{"uf":"pa","city":"Santa maria do par\u00e1","parameter_uf":"pa","parameter_city":"santa-maria-do-para","area_code":91},{"uf":"pa","city":"Santana do araguaia","parameter_uf":"pa","parameter_city":"santana-do-araguaia","area_code":94},{"uf":"pa","city":"Santar\u00e9m","parameter_uf":"pa","parameter_city":"santarem","area_code":93},{"uf":"pa","city":"Santar\u00e9m novo","parameter_uf":"pa","parameter_city":"santarem-novo","area_code":91},{"uf":"pa","city":"Santo ant\u00f4nio do tau\u00e1","parameter_uf":"pa","parameter_city":"santo-antonio-do-taua","area_code":91},{"uf":"pa","city":"S\u00e3o domingos do capim","parameter_uf":"pa","parameter_city":"sao-domingos-do-capim","area_code":91},{"uf":"pa","city":"S\u00e3o f\u00e9lix do xingu","parameter_uf":"pa","parameter_city":"sao-felix-do-xingu","area_code":94},{"uf":"pa","city":"S\u00e3o francisco do par\u00e1","parameter_uf":"pa","parameter_city":"sao-francisco-do-para","area_code":91},{"uf":"pa","city":"S\u00e3o jo\u00e3o da ponta","parameter_uf":"pa","parameter_city":"sao-joao-da-ponta","area_code":91},{"uf":"pa","city":"S\u00e3o jo\u00e3o de pirabas","parameter_uf":"pa","parameter_city":"sao-joao-de-pirabas","area_code":91},{"uf":"pa","city":"S\u00e3o jo\u00e3o do araguaia","parameter_uf":"pa","parameter_city":"sao-joao-do-araguaia","area_code":94},{"uf":"pa","city":"S\u00e3o miguel do guam\u00e1","parameter_uf":"pa","parameter_city":"sao-miguel-do-guama","area_code":91},{"uf":"pa","city":"Sapucaia","parameter_uf":"pa","parameter_city":"sapucaia","area_code":94},{"uf":"pa","city":"Senador jos\u00e9 porf\u00edrio","parameter_uf":"pa","parameter_city":"senador-jose-porfirio","area_code":91},{"uf":"pa","city":"Soure","parameter_uf":"pa","parameter_city":"soure","area_code":91},{"uf":"pa","city":"Tail\u00e2ndia","parameter_uf":"pa","parameter_city":"tailandia","area_code":91},{"uf":"pa","city":"Terra alta","parameter_uf":"pa","parameter_city":"terra-alta","area_code":91},{"uf":"pa","city":"Terra santa","parameter_uf":"pa","parameter_city":"terra-santa","area_code":93},{"uf":"pa","city":"Tom\u00e9-a\u00e7u","parameter_uf":"pa","parameter_city":"tome-acu","area_code":91},{"uf":"pa","city":"Tracuateua","parameter_uf":"pa","parameter_city":"tracuateua","area_code":91},{"uf":"pa","city":"Trair\u00e3o","parameter_uf":"pa","parameter_city":"trairao","area_code":93},{"uf":"pa","city":"Tucum\u00e3","parameter_uf":"pa","parameter_city":"tucuma","area_code":94},{"uf":"pa","city":"Tucuru\u00ed","parameter_uf":"pa","parameter_city":"tucurui","area_code":94},{"uf":"pa","city":"Ulian\u00f3polis","parameter_uf":"pa","parameter_city":"ulianopolis","area_code":91},{"uf":"pa","city":"Uruar\u00e1","parameter_uf":"pa","parameter_city":"uruara","area_code":93},{"uf":"pa","city":"Vigia","parameter_uf":"pa","parameter_city":"vigia","area_code":91},{"uf":"pa","city":"Viseu","parameter_uf":"pa","parameter_city":"viseu","area_code":91},{"uf":"pa","city":"Vit\u00f3ria do xingu","parameter_uf":"pa","parameter_city":"vitoria-do-xingu","area_code":93},{"uf":"pa","city":"Xinguara","parameter_uf":"pa","parameter_city":"xinguara","area_code":94}]