[{"uf":"pr","city":"Abati\u00e1","parameter_uf":"pr","parameter_city":"abatia","area_code":43},{"uf":"pr","city":"Adrian\u00f3polis","parameter_uf":"pr","parameter_city":"adrianopolis","area_code":41},{"uf":"pr","city":"Agudos do sul","parameter_uf":"pr","parameter_city":"agudos-do-sul","area_code":41},{"uf":"pr","city":"Almirante tamandar\u00e9","parameter_uf":"pr","parameter_city":"almirante-tamandare","area_code":41},{"uf":"pr","city":"Altamira do paran\u00e1","parameter_uf":"pr","parameter_city":"altamira-do-parana","area_code":42},{"uf":"pr","city":"Alto paran\u00e1","parameter_uf":"pr","parameter_city":"alto-parana","area_code":44},{"uf":"pr","city":"Alto piquiri","parameter_uf":"pr","parameter_city":"alto-piquiri","area_code":44},{"uf":"pr","city":"Alt\u00f4nia","parameter_uf":"pr","parameter_city":"altonia","area_code":44},{"uf":"pr","city":"Alvorada do sul","parameter_uf":"pr","parameter_city":"alvorada-do-sul","area_code":43},{"uf":"pr","city":"Amapor\u00e3","parameter_uf":"pr","parameter_city":"amapora","area_code":44},{"uf":"pr","city":"Amp\u00e9re","parameter_uf":"pr","parameter_city":"ampere","area_code":46},{"uf":"pr","city":"Anahy","parameter_uf":"pr","parameter_city":"anahy","area_code":45},{"uf":"pr","city":"Andir\u00e1","parameter_uf":"pr","parameter_city":"andira","area_code":43},{"uf":"pr","city":"\u00c2ngulo","parameter_uf":"pr","parameter_city":"angulo","area_code":44},{"uf":"pr","city":"Antonina","parameter_uf":"pr","parameter_city":"antonina","area_code":41},{"uf":"pr","city":"Ant\u00f4nio olinto","parameter_uf":"pr","parameter_city":"antonio-olinto","area_code":42},{"uf":"pr","city":"Apucarana","parameter_uf":"pr","parameter_city":"apucarana","area_code":43},{"uf":"pr","city":"Arapongas","parameter_uf":"pr","parameter_city":"arapongas","area_code":43},{"uf":"pr","city":"Arapoti","parameter_uf":"pr","parameter_city":"arapoti","area_code":43},{"uf":"pr","city":"Arapu\u00e3","parameter_uf":"pr","parameter_city":"arapua","area_code":43},{"uf":"pr","city":"Araruna","parameter_uf":"pr","parameter_city":"araruna","area_code":44},{"uf":"pr","city":"Arauc\u00e1ria","parameter_uf":"pr","parameter_city":"araucaria","area_code":41},{"uf":"pr","city":"Ariranha do iva\u00ed","parameter_uf":"pr","parameter_city":"ariranha-do-ivai","area_code":43},{"uf":"pr","city":"Assa\u00ed","parameter_uf":"pr","parameter_city":"assai","area_code":43},{"uf":"pr","city":"Assis chateaubriand","parameter_uf":"pr","parameter_city":"assis-chateaubriand","area_code":44},{"uf":"pr","city":"Astorga","parameter_uf":"pr","parameter_city":"astorga","area_code":44},{"uf":"pr","city":"Atalaia","parameter_uf":"pr","parameter_city":"atalaia","area_code":44},{"uf":"pr","city":"Balsa nova","parameter_uf":"pr","parameter_city":"balsa-nova","area_code":41},{"uf":"pr","city":"Bandeirantes","parameter_uf":"pr","parameter_city":"bandeirantes","area_code":43},{"uf":"pr","city":"Barbosa ferraz","parameter_uf":"pr","parameter_city":"barbosa-ferraz","area_code":44},{"uf":"pr","city":"Barra do jacar\u00e9","parameter_uf":"pr","parameter_city":"barra-do-jacare","area_code":43},{"uf":"pr","city":"Barrac\u00e3o","parameter_uf":"pr","parameter_city":"barracao","area_code":46},{"uf":"pr","city":"Bela vista da caroba","parameter_uf":"pr","parameter_city":"bela-vista-da-caroba","area_code":46},{"uf":"pr","city":"Bela vista do para\u00edso","parameter_uf":"pr","parameter_city":"bela-vista-do-paraiso","area_code":43},{"uf":"pr","city":"Bituruna","parameter_uf":"pr","parameter_city":"bituruna","area_code":42},{"uf":"pr","city":"Boa esperan\u00e7a","parameter_uf":"pr","parameter_city":"boa-esperanca","area_code":44},{"uf":"pr","city":"Boa ventura de s\u00e3o","parameter_uf":"pr","parameter_city":"boa-ventura-de-sao","area_code":42},{"uf":"pr","city":"Boa vista da aparecida","parameter_uf":"pr","parameter_city":"boa-vista-da-aparecida","area_code":45},{"uf":"pr","city":"Bocai\u00fava do sul","parameter_uf":"pr","parameter_city":"bocaiuva-do-sul","area_code":41},{"uf":"pr","city":"Bom jesus do sul","parameter_uf":"pr","parameter_city":"bom-jesus-do-sul","area_code":46},{"uf":"pr","city":"Bom sucesso","parameter_uf":"pr","parameter_city":"bom-sucesso","area_code":43},{"uf":"pr","city":"Bom sucesso do sul","parameter_uf":"pr","parameter_city":"bom-sucesso-do-sul","area_code":46},{"uf":"pr","city":"Borraz\u00f3polis","parameter_uf":"pr","parameter_city":"borrazopolis","area_code":43},{"uf":"pr","city":"Braganey","parameter_uf":"pr","parameter_city":"braganey","area_code":45},{"uf":"pr","city":"Brasil\u00e2ndia do sul","parameter_uf":"pr","parameter_city":"brasilandia-do-sul","area_code":44},{"uf":"pr","city":"Cafeara","parameter_uf":"pr","parameter_city":"cafeara","area_code":43},{"uf":"pr","city":"Cafel\u00e2ndia","parameter_uf":"pr","parameter_city":"cafelandia","area_code":45},{"uf":"pr","city":"Cafezal do sul","parameter_uf":"pr","parameter_city":"cafezal-do-sul","area_code":44},{"uf":"pr","city":"Calif\u00f3rnia","parameter_uf":"pr","parameter_city":"california","area_code":43},{"uf":"pr","city":"Cambar\u00e1","parameter_uf":"pr","parameter_city":"cambara","area_code":43},{"uf":"pr","city":"Camb\u00e9","parameter_uf":"pr","parameter_city":"cambe","area_code":43},{"uf":"pr","city":"Cambira","parameter_uf":"pr","parameter_city":"cambira","area_code":43},{"uf":"pr","city":"Campina da lagoa","parameter_uf":"pr","parameter_city":"campina-da-lagoa","area_code":44},{"uf":"pr","city":"Campina do sim\u00e3o","parameter_uf":"pr","parameter_city":"campina-do-simao","area_code":42},{"uf":"pr","city":"Campina grande do sul","parameter_uf":"pr","parameter_city":"campina-grande-do-sul","area_code":41},{"uf":"pr","city":"Campo bonito","parameter_uf":"pr","parameter_city":"campo-bonito","area_code":45},{"uf":"pr","city":"Campo do tenente","parameter_uf":"pr","parameter_city":"campo-do-tenente","area_code":41},{"uf":"pr","city":"Campo largo","parameter_uf":"pr","parameter_city":"campo-largo","area_code":41},{"uf":"pr","city":"Campo magro","parameter_uf":"pr","parameter_city":"campo-magro","area_code":41},{"uf":"pr","city":"Campo mour\u00e3o","parameter_uf":"pr","parameter_city":"campo-mourao","area_code":44},{"uf":"pr","city":"C\u00e2ndido de abreu","parameter_uf":"pr","parameter_city":"candido-de-abreu","area_code":43},{"uf":"pr","city":"Cand\u00f3i","parameter_uf":"pr","parameter_city":"candoi","area_code":42},{"uf":"pr","city":"Cantagalo","parameter_uf":"pr","parameter_city":"cantagalo","area_code":42},{"uf":"pr","city":"Capanema","parameter_uf":"pr","parameter_city":"capanema","area_code":46},{"uf":"pr","city":"Carambe\u00ed","parameter_uf":"pr","parameter_city":"carambei","area_code":42},{"uf":"pr","city":"Carl\u00f3polis","parameter_uf":"pr","parameter_city":"carlopolis","area_code":43},{"uf":"pr","city":"Cascavel","parameter_uf":"pr","parameter_city":"cascavel","area_code":45},{"uf":"pr","city":"Castro","parameter_uf":"pr","parameter_city":"castro","area_code":42},{"uf":"pr","city":"Catanduvas","parameter_uf":"pr","parameter_city":"catanduvas","area_code":45},{"uf":"pr","city":"Centen\u00e1rio do sul","parameter_uf":"pr","parameter_city":"centenario-do-sul","area_code":43},{"uf":"pr","city":"Cerro azul","parameter_uf":"pr","parameter_city":"cerro-azul","area_code":41},{"uf":"pr","city":"C\u00e9u azul","parameter_uf":"pr","parameter_city":"ceu-azul","area_code":45},{"uf":"pr","city":"Chopinzinho","parameter_uf":"pr","parameter_city":"chopinzinho","area_code":46},{"uf":"pr","city":"Cianorte","parameter_uf":"pr","parameter_city":"cianorte","area_code":44},{"uf":"pr","city":"Cidade ga\u00facha","parameter_uf":"pr","parameter_city":"cidade-gaucha","area_code":44},{"uf":"pr","city":"Clevel\u00e2ndia","parameter_uf":"pr","parameter_city":"clevelandia","area_code":46},{"uf":"pr","city":"Colombo","parameter_uf":"pr","parameter_city":"colombo","area_code":41},{"uf":"pr","city":"Colorado","parameter_uf":"pr","parameter_city":"colorado","area_code":44},{"uf":"pr","city":"Congonhinhas","parameter_uf":"pr","parameter_city":"congonhinhas","area_code":43},{"uf":"pr","city":"Conselheiro mairinck","parameter_uf":"pr","parameter_city":"conselheiro-mairinck","area_code":43},{"uf":"pr","city":"Contenda","parameter_uf":"pr","parameter_city":"contenda","area_code":41},{"uf":"pr","city":"Corb\u00e9lia","parameter_uf":"pr","parameter_city":"corbelia","area_code":45},{"uf":"pr","city":"Corn\u00e9lio proc\u00f3pio","parameter_uf":"pr","parameter_city":"cornelio-procopio","area_code":43},{"uf":"pr","city":"Coronel vivida","parameter_uf":"pr","parameter_city":"coronel-vivida","area_code":46},{"uf":"pr","city":"Corumbata\u00ed do sul","parameter_uf":"pr","parameter_city":"corumbatai-do-sul","area_code":44},{"uf":"pr","city":"Cruz machado","parameter_uf":"pr","parameter_city":"cruz-machado","area_code":42},{"uf":"pr","city":"Cruzeiro do igua\u00e7u","parameter_uf":"pr","parameter_city":"cruzeiro-do-iguacu","area_code":46},{"uf":"pr","city":"Cruzeiro do oeste","parameter_uf":"pr","parameter_city":"cruzeiro-do-oeste","area_code":44},{"uf":"pr","city":"Cruzeiro do sul","parameter_uf":"pr","parameter_city":"cruzeiro-do-sul","area_code":44},{"uf":"pr","city":"Cruzmaltina","parameter_uf":"pr","parameter_city":"cruzmaltina","area_code":43},{"uf":"pr","city":"Curitiba","parameter_uf":"pr","parameter_city":"curitiba","area_code":41},{"uf":"pr","city":"Curi\u00fava","parameter_uf":"pr","parameter_city":"curiuva","area_code":43},{"uf":"pr","city":"Diamante do norte","parameter_uf":"pr","parameter_city":"diamante-do-norte","area_code":44},{"uf":"pr","city":"Diamante do sul","parameter_uf":"pr","parameter_city":"diamante-do-sul","area_code":45},{"uf":"pr","city":"Diamante d'oeste","parameter_uf":"pr","parameter_city":"diamante-d-oeste","area_code":45},{"uf":"pr","city":"Dois vizinhos","parameter_uf":"pr","parameter_city":"dois-vizinhos","area_code":46},{"uf":"pr","city":"Douradina","parameter_uf":"pr","parameter_city":"douradina","area_code":44},{"uf":"pr","city":"Doutor camargo","parameter_uf":"pr","parameter_city":"doutor-camargo","area_code":44},{"uf":"pr","city":"Doutor ulysses","parameter_uf":"pr","parameter_city":"doutor-ulysses","area_code":41},{"uf":"pr","city":"En\u00e9as marques","parameter_uf":"pr","parameter_city":"eneas-marques","area_code":46},{"uf":"pr","city":"Engenheiro beltr\u00e3o","parameter_uf":"pr","parameter_city":"engenheiro-beltrao","area_code":44},{"uf":"pr","city":"Entre rios do oeste","parameter_uf":"pr","parameter_city":"entre-rios-do-oeste","area_code":45},{"uf":"pr","city":"Esperan\u00e7a nova","parameter_uf":"pr","parameter_city":"esperanca-nova","area_code":44},{"uf":"pr","city":"Espig\u00e3o alto do igua\u00e7u","parameter_uf":"pr","parameter_city":"espigao-alto-do-iguacu","area_code":46},{"uf":"pr","city":"Farol","parameter_uf":"pr","parameter_city":"farol","area_code":44},{"uf":"pr","city":"Faxinal","parameter_uf":"pr","parameter_city":"faxinal","area_code":43},{"uf":"pr","city":"Fazenda rio grande","parameter_uf":"pr","parameter_city":"fazenda-rio-grande","area_code":41},{"uf":"pr","city":"F\u00eanix","parameter_uf":"pr","parameter_city":"fenix","area_code":44},{"uf":"pr","city":"Fernandes pinheiro","parameter_uf":"pr","parameter_city":"fernandes-pinheiro","area_code":42},{"uf":"pr","city":"Figueira","parameter_uf":"pr","parameter_city":"figueira","area_code":43},{"uf":"pr","city":"Flor da serra do sul","parameter_uf":"pr","parameter_city":"flor-da-serra-do-sul","area_code":46},{"uf":"pr","city":"Flora\u00ed","parameter_uf":"pr","parameter_city":"florai","area_code":44},{"uf":"pr","city":"Floresta","parameter_uf":"pr","parameter_city":"floresta","area_code":44},{"uf":"pr","city":"Florest\u00f3polis","parameter_uf":"pr","parameter_city":"florestopolis","area_code":43},{"uf":"pr","city":"Fl\u00f3rida","parameter_uf":"pr","parameter_city":"florida","area_code":44},{"uf":"pr","city":"Formosa do oeste","parameter_uf":"pr","parameter_city":"formosa-do-oeste","area_code":44},{"uf":"pr","city":"Foz do igua\u00e7u","parameter_uf":"pr","parameter_city":"foz-do-iguacu","area_code":45},{"uf":"pr","city":"Foz do jord\u00e3o","parameter_uf":"pr","parameter_city":"foz-do-jordao","area_code":42},{"uf":"pr","city":"Francisco alves","parameter_uf":"pr","parameter_city":"francisco-alves","area_code":44},{"uf":"pr","city":"Francisco beltr\u00e3o","parameter_uf":"pr","parameter_city":"francisco-beltrao","area_code":46},{"uf":"pr","city":"General carneiro","parameter_uf":"pr","parameter_city":"general-carneiro","area_code":42},{"uf":"pr","city":"Godoy moreira","parameter_uf":"pr","parameter_city":"godoy-moreira","area_code":43},{"uf":"pr","city":"Goioer\u00ea","parameter_uf":"pr","parameter_city":"goioere","area_code":44},{"uf":"pr","city":"Goioxim","parameter_uf":"pr","parameter_city":"goioxim","area_code":42},{"uf":"pr","city":"Grandes rios","parameter_uf":"pr","parameter_city":"grandes-rios","area_code":43},{"uf":"pr","city":"Gua\u00edra","parameter_uf":"pr","parameter_city":"guaira","area_code":44},{"uf":"pr","city":"Guaira\u00e7\u00e1","parameter_uf":"pr","parameter_city":"guairaca","area_code":44},{"uf":"pr","city":"Guamiranga","parameter_uf":"pr","parameter_city":"guamiranga","area_code":42},{"uf":"pr","city":"Guapirama","parameter_uf":"pr","parameter_city":"guapirama","area_code":43},{"uf":"pr","city":"Guaporema","parameter_uf":"pr","parameter_city":"guaporema","area_code":44},{"uf":"pr","city":"Guaraci","parameter_uf":"pr","parameter_city":"guaraci","area_code":43},{"uf":"pr","city":"Guarania\u00e7u","parameter_uf":"pr","parameter_city":"guaraniacu","area_code":45},{"uf":"pr","city":"Guarapuava","parameter_uf":"pr","parameter_city":"guarapuava","area_code":42},{"uf":"pr","city":"Guaraque\u00e7aba","parameter_uf":"pr","parameter_city":"guaraquecaba","area_code":41},{"uf":"pr","city":"Guaratuba","parameter_uf":"pr","parameter_city":"guaratuba","area_code":41},{"uf":"pr","city":"Hon\u00f3rio serpa","parameter_uf":"pr","parameter_city":"honorio-serpa","area_code":46},{"uf":"pr","city":"Ibaiti","parameter_uf":"pr","parameter_city":"ibaiti","area_code":43},{"uf":"pr","city":"Ibema","parameter_uf":"pr","parameter_city":"ibema","area_code":45},{"uf":"pr","city":"Ibipor\u00e3","parameter_uf":"pr","parameter_city":"ibipora","area_code":43},{"uf":"pr","city":"Icara\u00edma","parameter_uf":"pr","parameter_city":"icaraima","area_code":44},{"uf":"pr","city":"Iguara\u00e7u","parameter_uf":"pr","parameter_city":"iguaracu","area_code":44},{"uf":"pr","city":"Iguatu","parameter_uf":"pr","parameter_city":"iguatu","area_code":45},{"uf":"pr","city":"Imba\u00fa","parameter_uf":"pr","parameter_city":"imbau","area_code":42},{"uf":"pr","city":"Imbituva","parameter_uf":"pr","parameter_city":"imbituva","area_code":42},{"uf":"pr","city":"In\u00e1cio martins","parameter_uf":"pr","parameter_city":"inacio-martins","area_code":42},{"uf":"pr","city":"Inaj\u00e1","parameter_uf":"pr","parameter_city":"inaja","area_code":44},{"uf":"pr","city":"Indian\u00f3polis","parameter_uf":"pr","parameter_city":"indianopolis","area_code":44},{"uf":"pr","city":"Ipiranga","parameter_uf":"pr","parameter_city":"ipiranga","area_code":42},{"uf":"pr","city":"Ipor\u00e3","parameter_uf":"pr","parameter_city":"ipora","area_code":44},{"uf":"pr","city":"Iracema do oeste","parameter_uf":"pr","parameter_city":"iracema-do-oeste","area_code":44},{"uf":"pr","city":"Irati","parameter_uf":"pr","parameter_city":"irati","area_code":42},{"uf":"pr","city":"Iretama","parameter_uf":"pr","parameter_city":"iretama","area_code":44},{"uf":"pr","city":"Itaguaj\u00e9","parameter_uf":"pr","parameter_city":"itaguaje","area_code":44},{"uf":"pr","city":"Itaipul\u00e2ndia","parameter_uf":"pr","parameter_city":"itaipulandia","area_code":45},{"uf":"pr","city":"Itambarac\u00e1","parameter_uf":"pr","parameter_city":"itambaraca","area_code":43},{"uf":"pr","city":"Itamb\u00e9","parameter_uf":"pr","parameter_city":"itambe","area_code":44},{"uf":"pr","city":"Itapejara d'oeste","parameter_uf":"pr","parameter_city":"itapejara-d-oeste","area_code":46},{"uf":"pr","city":"Itaperu\u00e7u","parameter_uf":"pr","parameter_city":"itaperucu","area_code":41},{"uf":"pr","city":"Ita\u00fana do sul","parameter_uf":"pr","parameter_city":"itauna-do-sul","area_code":44},{"uf":"pr","city":"Iva\u00ed","parameter_uf":"pr","parameter_city":"ivai","area_code":42},{"uf":"pr","city":"Ivaipor\u00e3","parameter_uf":"pr","parameter_city":"ivaipora","area_code":43},{"uf":"pr","city":"Ivat\u00e9","parameter_uf":"pr","parameter_city":"ivate","area_code":44},{"uf":"pr","city":"Ivatuba","parameter_uf":"pr","parameter_city":"ivatuba","area_code":44},{"uf":"pr","city":"Jaboti","parameter_uf":"pr","parameter_city":"jaboti","area_code":43},{"uf":"pr","city":"Jacarezinho","parameter_uf":"pr","parameter_city":"jacarezinho","area_code":43},{"uf":"pr","city":"Jaguapit\u00e3","parameter_uf":"pr","parameter_city":"jaguapita","area_code":43},{"uf":"pr","city":"Jaguaria\u00edva","parameter_uf":"pr","parameter_city":"jaguariaiva","area_code":43},{"uf":"pr","city":"Jandaia do sul","parameter_uf":"pr","parameter_city":"jandaia-do-sul","area_code":43},{"uf":"pr","city":"Jani\u00f3polis","parameter_uf":"pr","parameter_city":"janiopolis","area_code":44},{"uf":"pr","city":"Japira","parameter_uf":"pr","parameter_city":"japira","area_code":43},{"uf":"pr","city":"Japur\u00e1","parameter_uf":"pr","parameter_city":"japura","area_code":44},{"uf":"pr","city":"Jardim alegre","parameter_uf":"pr","parameter_city":"jardim-alegre","area_code":43},{"uf":"pr","city":"Jardim olinda","parameter_uf":"pr","parameter_city":"jardim-olinda","area_code":44},{"uf":"pr","city":"Jataizinho","parameter_uf":"pr","parameter_city":"jataizinho","area_code":43},{"uf":"pr","city":"Jesu\u00edtas","parameter_uf":"pr","parameter_city":"jesuitas","area_code":44},{"uf":"pr","city":"Joaquim t\u00e1vora","parameter_uf":"pr","parameter_city":"joaquim-tavora","area_code":43},{"uf":"pr","city":"Jundia\u00ed do sul","parameter_uf":"pr","parameter_city":"jundiai-do-sul","area_code":43},{"uf":"pr","city":"Juranda","parameter_uf":"pr","parameter_city":"juranda","area_code":44},{"uf":"pr","city":"Jussara","parameter_uf":"pr","parameter_city":"jussara","area_code":44},{"uf":"pr","city":"Kalor\u00e9","parameter_uf":"pr","parameter_city":"kalore","area_code":43},{"uf":"pr","city":"Lapa","parameter_uf":"pr","parameter_city":"lapa","area_code":41},{"uf":"pr","city":"Laranjal","parameter_uf":"pr","parameter_city":"laranjal","area_code":42},{"uf":"pr","city":"Laranjeiras do sul","parameter_uf":"pr","parameter_city":"laranjeiras-do-sul","area_code":42},{"uf":"pr","city":"Le\u00f3polis","parameter_uf":"pr","parameter_city":"leopolis","area_code":43},{"uf":"pr","city":"Lidian\u00f3polis","parameter_uf":"pr","parameter_city":"lidianopolis","area_code":43},{"uf":"pr","city":"Lindoeste","parameter_uf":"pr","parameter_city":"lindoeste","area_code":45},{"uf":"pr","city":"Loanda","parameter_uf":"pr","parameter_city":"loanda","area_code":44},{"uf":"pr","city":"Lobato","parameter_uf":"pr","parameter_city":"lobato","area_code":44},{"uf":"pr","city":"Londrina","parameter_uf":"pr","parameter_city":"londrina","area_code":43},{"uf":"pr","city":"Luiziana","parameter_uf":"pr","parameter_city":"luiziana","area_code":44},{"uf":"pr","city":"Lunardelli","parameter_uf":"pr","parameter_city":"lunardelli","area_code":43},{"uf":"pr","city":"Lupion\u00f3polis","parameter_uf":"pr","parameter_city":"lupionopolis","area_code":43},{"uf":"pr","city":"Mallet","parameter_uf":"pr","parameter_city":"mallet","area_code":42},{"uf":"pr","city":"Mambor\u00ea","parameter_uf":"pr","parameter_city":"mambore","area_code":44},{"uf":"pr","city":"Mandagua\u00e7u","parameter_uf":"pr","parameter_city":"mandaguacu","area_code":44},{"uf":"pr","city":"Mandaguari","parameter_uf":"pr","parameter_city":"mandaguari","area_code":44},{"uf":"pr","city":"Mandirituba","parameter_uf":"pr","parameter_city":"mandirituba","area_code":41},{"uf":"pr","city":"Manfrin\u00f3polis","parameter_uf":"pr","parameter_city":"manfrinopolis","area_code":46},{"uf":"pr","city":"Mangueirinha","parameter_uf":"pr","parameter_city":"mangueirinha","area_code":46},{"uf":"pr","city":"Manoel ribas","parameter_uf":"pr","parameter_city":"manoel-ribas","area_code":43},{"uf":"pr","city":"Maria helena","parameter_uf":"pr","parameter_city":"maria-helena","area_code":44},{"uf":"pr","city":"Marialva","parameter_uf":"pr","parameter_city":"marialva","area_code":44},{"uf":"pr","city":"Maril\u00e2ndia do sul","parameter_uf":"pr","parameter_city":"marilandia-do-sul","area_code":43},{"uf":"pr","city":"Marilena","parameter_uf":"pr","parameter_city":"marilena","area_code":44},{"uf":"pr","city":"Mariluz","parameter_uf":"pr","parameter_city":"mariluz","area_code":44},{"uf":"pr","city":"Maring\u00e1","parameter_uf":"pr","parameter_city":"maringa","area_code":44},{"uf":"pr","city":"Mari\u00f3polis","parameter_uf":"pr","parameter_city":"mariopolis","area_code":46},{"uf":"pr","city":"Marip\u00e1","parameter_uf":"pr","parameter_city":"maripa","area_code":44},{"uf":"pr","city":"Marmeleiro","parameter_uf":"pr","parameter_city":"marmeleiro","area_code":46},{"uf":"pr","city":"Marquinho","parameter_uf":"pr","parameter_city":"marquinho","area_code":42},{"uf":"pr","city":"Marumbi","parameter_uf":"pr","parameter_city":"marumbi","area_code":43},{"uf":"pr","city":"Matel\u00e2ndia","parameter_uf":"pr","parameter_city":"matelandia","area_code":45},{"uf":"pr","city":"Matinhos","parameter_uf":"pr","parameter_city":"matinhos","area_code":41},{"uf":"pr","city":"Mato rico","parameter_uf":"pr","parameter_city":"mato-rico","area_code":42},{"uf":"pr","city":"Mau\u00e1 da serra","parameter_uf":"pr","parameter_city":"maua-da-serra","area_code":43},{"uf":"pr","city":"Medianeira","parameter_uf":"pr","parameter_city":"medianeira","area_code":45},{"uf":"pr","city":"Mercedes","parameter_uf":"pr","parameter_city":"mercedes","area_code":45},{"uf":"pr","city":"Mirador","parameter_uf":"pr","parameter_city":"mirador","area_code":44},{"uf":"pr","city":"Miraselva","parameter_uf":"pr","parameter_city":"miraselva","area_code":43},{"uf":"pr","city":"Missal","parameter_uf":"pr","parameter_city":"missal","area_code":45},{"uf":"pr","city":"Moreira sales","parameter_uf":"pr","parameter_city":"moreira-sales","area_code":44},{"uf":"pr","city":"Morretes","parameter_uf":"pr","parameter_city":"morretes","area_code":41},{"uf":"pr","city":"Munhoz de melo","parameter_uf":"pr","parameter_city":"munhoz-de-melo","area_code":44},{"uf":"pr","city":"Nova alian\u00e7a do iva\u00ed","parameter_uf":"pr","parameter_city":"nova-alianca-do-ivai","area_code":44},{"uf":"pr","city":"Nova aurora","parameter_uf":"pr","parameter_city":"nova-aurora","area_code":45},{"uf":"pr","city":"Nova cantu","parameter_uf":"pr","parameter_city":"nova-cantu","area_code":44},{"uf":"pr","city":"Nova esperan\u00e7a","parameter_uf":"pr","parameter_city":"nova-esperanca","area_code":44},{"uf":"pr","city":"Nova f\u00e1tima","parameter_uf":"pr","parameter_city":"nova-fatima","area_code":43},{"uf":"pr","city":"Nova laranjeiras","parameter_uf":"pr","parameter_city":"nova-laranjeiras","area_code":42},{"uf":"pr","city":"Nova londrina","parameter_uf":"pr","parameter_city":"nova-londrina","area_code":44},{"uf":"pr","city":"Nova ol\u00edmpia","parameter_uf":"pr","parameter_city":"nova-olimpia","area_code":44},{"uf":"pr","city":"Nova prata do igua\u00e7u","parameter_uf":"pr","parameter_city":"nova-prata-do-iguacu","area_code":46},{"uf":"pr","city":"Nova santa b\u00e1rbara","parameter_uf":"pr","parameter_city":"nova-santa-barbara","area_code":43},{"uf":"pr","city":"Nova santa rosa","parameter_uf":"pr","parameter_city":"nova-santa-rosa","area_code":45},{"uf":"pr","city":"Nova tebas","parameter_uf":"pr","parameter_city":"nova-tebas","area_code":42},{"uf":"pr","city":"Novo itacolomi","parameter_uf":"pr","parameter_city":"novo-itacolomi","area_code":43},{"uf":"pr","city":"Ortigueira","parameter_uf":"pr","parameter_city":"ortigueira","area_code":42},{"uf":"pr","city":"Ourizona","parameter_uf":"pr","parameter_city":"ourizona","area_code":44},{"uf":"pr","city":"Ouro verde do oeste","parameter_uf":"pr","parameter_city":"ouro-verde-do-oeste","area_code":45},{"uf":"pr","city":"Pai\u00e7andu","parameter_uf":"pr","parameter_city":"paicandu","area_code":44},{"uf":"pr","city":"Palmas","parameter_uf":"pr","parameter_city":"palmas","area_code":46},{"uf":"pr","city":"Palmeira","parameter_uf":"pr","parameter_city":"palmeira","area_code":42},{"uf":"pr","city":"Palmital","parameter_uf":"pr","parameter_city":"palmital","area_code":42},{"uf":"pr","city":"Palotina","parameter_uf":"pr","parameter_city":"palotina","area_code":44},{"uf":"pr","city":"Para\u00edso do norte","parameter_uf":"pr","parameter_city":"paraiso-do-norte","area_code":44},{"uf":"pr","city":"Paranacity","parameter_uf":"pr","parameter_city":"paranacity","area_code":44},{"uf":"pr","city":"Paranagu\u00e1","parameter_uf":"pr","parameter_city":"paranagua","area_code":41},{"uf":"pr","city":"Paranapoema","parameter_uf":"pr","parameter_city":"paranapoema","area_code":44},{"uf":"pr","city":"Paranava\u00ed","parameter_uf":"pr","parameter_city":"paranavai","area_code":44},{"uf":"pr","city":"Pato bragado","parameter_uf":"pr","parameter_city":"pato-bragado","area_code":45},{"uf":"pr","city":"Pato branco","parameter_uf":"pr","parameter_city":"pato-branco","area_code":46},{"uf":"pr","city":"Paula freitas","parameter_uf":"pr","parameter_city":"paula-freitas","area_code":42},{"uf":"pr","city":"Paulo frontin","parameter_uf":"pr","parameter_city":"paulo-frontin","area_code":42},{"uf":"pr","city":"Peabiru","parameter_uf":"pr","parameter_city":"peabiru","area_code":44},{"uf":"pr","city":"Perobal","parameter_uf":"pr","parameter_city":"perobal","area_code":44},{"uf":"pr","city":"P\u00e9rola","parameter_uf":"pr","parameter_city":"perola","area_code":44},{"uf":"pr","city":"P\u00e9rola d'oeste","parameter_uf":"pr","parameter_city":"perola-d-oeste","area_code":46},{"uf":"pr","city":"Pi\u00ean","parameter_uf":"pr","parameter_city":"pien","area_code":41},{"uf":"pr","city":"Pinhais","parameter_uf":"pr","parameter_city":"pinhais","area_code":41},{"uf":"pr","city":"Pinhal de s\u00e3o bento","parameter_uf":"pr","parameter_city":"pinhal-de-sao-bento","area_code":46},{"uf":"pr","city":"Pinhal\u00e3o","parameter_uf":"pr","parameter_city":"pinhalao","area_code":43},{"uf":"pr","city":"Pinh\u00e3o","parameter_uf":"pr","parameter_city":"pinhao","area_code":42},{"uf":"pr","city":"Pira\u00ed do sul","parameter_uf":"pr","parameter_city":"pirai-do-sul","area_code":42},{"uf":"pr","city":"Piraquara","parameter_uf":"pr","parameter_city":"piraquara","area_code":41},{"uf":"pr","city":"Pitanga","parameter_uf":"pr","parameter_city":"pitanga","area_code":42},{"uf":"pr","city":"Pitangueiras","parameter_uf":"pr","parameter_city":"pitangueiras","area_code":43},{"uf":"pr","city":"Planaltina do paran\u00e1","parameter_uf":"pr","parameter_city":"planaltina-do-parana","area_code":44},{"uf":"pr","city":"Planalto","parameter_uf":"pr","parameter_city":"planalto","area_code":46},{"uf":"pr","city":"Ponta grossa","parameter_uf":"pr","parameter_city":"ponta-grossa","area_code":42},{"uf":"pr","city":"Pontal do paran\u00e1","parameter_uf":"pr","parameter_city":"pontal-do-parana","area_code":41},{"uf":"pr","city":"Porecatu","parameter_uf":"pr","parameter_city":"porecatu","area_code":43},{"uf":"pr","city":"Porto amazonas","parameter_uf":"pr","parameter_city":"porto-amazonas","area_code":42},{"uf":"pr","city":"Porto barreiro","parameter_uf":"pr","parameter_city":"porto-barreiro","area_code":42},{"uf":"pr","city":"Porto rico","parameter_uf":"pr","parameter_city":"porto-rico","area_code":44},{"uf":"pr","city":"Porto vit\u00f3ria","parameter_uf":"pr","parameter_city":"porto-vitoria","area_code":42},{"uf":"pr","city":"Prado ferreira","parameter_uf":"pr","parameter_city":"prado-ferreira","area_code":43},{"uf":"pr","city":"Pranchita","parameter_uf":"pr","parameter_city":"pranchita","area_code":46},{"uf":"pr","city":"Primeiro de maio","parameter_uf":"pr","parameter_city":"primeiro-de-maio","area_code":43},{"uf":"pr","city":"Prudent\u00f3polis","parameter_uf":"pr","parameter_city":"prudentopolis","area_code":42},{"uf":"pr","city":"Quarto centen\u00e1rio","parameter_uf":"pr","parameter_city":"quarto-centenario","area_code":44},{"uf":"pr","city":"Quatigu\u00e1","parameter_uf":"pr","parameter_city":"quatigua","area_code":43},{"uf":"pr","city":"Quatro barras","parameter_uf":"pr","parameter_city":"quatro-barras","area_code":41},{"uf":"pr","city":"Quatro pontes","parameter_uf":"pr","parameter_city":"quatro-pontes","area_code":45},{"uf":"pr","city":"Quedas do igua\u00e7u","parameter_uf":"pr","parameter_city":"quedas-do-iguacu","area_code":46},{"uf":"pr","city":"Quer\u00eancia do norte","parameter_uf":"pr","parameter_city":"querencia-do-norte","area_code":44},{"uf":"pr","city":"Quinta do sol","parameter_uf":"pr","parameter_city":"quinta-do-sol","area_code":44},{"uf":"pr","city":"Quitandinha","parameter_uf":"pr","parameter_city":"quitandinha","area_code":41},{"uf":"pr","city":"Ramil\u00e2ndia","parameter_uf":"pr","parameter_city":"ramilandia","area_code":45},{"uf":"pr","city":"Rancho alegre","parameter_uf":"pr","parameter_city":"rancho-alegre","area_code":43},{"uf":"pr","city":"Rancho alegre d'oeste","parameter_uf":"pr","parameter_city":"rancho-alegre-d-oeste","area_code":44},{"uf":"pr","city":"Realeza","parameter_uf":"pr","parameter_city":"realeza","area_code":46},{"uf":"pr","city":"Rebou\u00e7as","parameter_uf":"pr","parameter_city":"reboucas","area_code":42},{"uf":"pr","city":"Renascen\u00e7a","parameter_uf":"pr","parameter_city":"renascenca","area_code":46},{"uf":"pr","city":"Reserva","parameter_uf":"pr","parameter_city":"reserva","area_code":42},{"uf":"pr","city":"Reserva do igua\u00e7u","parameter_uf":"pr","parameter_city":"reserva-do-iguacu","area_code":42},{"uf":"pr","city":"Ribeir\u00e3o claro","parameter_uf":"pr","parameter_city":"ribeirao-claro","area_code":43},{"uf":"pr","city":"Ribeir\u00e3o do pinhal","parameter_uf":"pr","parameter_city":"ribeirao-do-pinhal","area_code":43},{"uf":"pr","city":"Rio azul","parameter_uf":"pr","parameter_city":"rio-azul","area_code":42},{"uf":"pr","city":"Rio bom","parameter_uf":"pr","parameter_city":"rio-bom","area_code":43},{"uf":"pr","city":"Rio bonito do igua\u00e7u","parameter_uf":"pr","parameter_city":"rio-bonito-do-iguacu","area_code":42},{"uf":"pr","city":"Rio branco do iva\u00ed","parameter_uf":"pr","parameter_city":"rio-branco-do-ivai","area_code":43},{"uf":"pr","city":"Rio branco do sul","parameter_uf":"pr","parameter_city":"rio-branco-do-sul","area_code":41},{"uf":"pr","city":"Rio negro","parameter_uf":"pr","parameter_city":"rio-negro","area_code":41},{"uf":"pr","city":"Rol\u00e2ndia","parameter_uf":"pr","parameter_city":"rolandia","area_code":43},{"uf":"pr","city":"Roncador","parameter_uf":"pr","parameter_city":"roncador","area_code":44},{"uf":"pr","city":"Rondon","parameter_uf":"pr","parameter_city":"rondon","area_code":44},{"uf":"pr","city":"Ros\u00e1rio do iva\u00ed","parameter_uf":"pr","parameter_city":"rosario-do-ivai","area_code":43},{"uf":"pr","city":"Sab\u00e1udia","parameter_uf":"pr","parameter_city":"sabaudia","area_code":44},{"uf":"pr","city":"Salgado filho","parameter_uf":"pr","parameter_city":"salgado-filho","area_code":46},{"uf":"pr","city":"Salto do itarar\u00e9","parameter_uf":"pr","parameter_city":"salto-do-itarare","area_code":43},{"uf":"pr","city":"Salto do lontra","parameter_uf":"pr","parameter_city":"salto-do-lontra","area_code":46},{"uf":"pr","city":"Santa am\u00e9lia","parameter_uf":"pr","parameter_city":"santa-amelia","area_code":43},{"uf":"pr","city":"Santa cec\u00edlia do pav\u00e3o","parameter_uf":"pr","parameter_city":"santa-cecilia-do-pavao","area_code":43},{"uf":"pr","city":"Santa f\u00e9","parameter_uf":"pr","parameter_city":"santa-fe","area_code":44},{"uf":"pr","city":"Santa helena","parameter_uf":"pr","parameter_city":"santa-helena","area_code":45},{"uf":"pr","city":"Santa in\u00eas","parameter_uf":"pr","parameter_city":"santa-ines","area_code":44},{"uf":"pr","city":"Santa isabel do iva\u00ed","parameter_uf":"pr","parameter_city":"santa-isabel-do-ivai","area_code":44},{"uf":"pr","city":"Santa izabel do oeste","parameter_uf":"pr","parameter_city":"santa-izabel-do-oeste","area_code":46},{"uf":"pr","city":"Santa l\u00facia","parameter_uf":"pr","parameter_city":"santa-lucia","area_code":45},{"uf":"pr","city":"Santa maria do oeste","parameter_uf":"pr","parameter_city":"santa-maria-do-oeste","area_code":42},{"uf":"pr","city":"Santa mariana","parameter_uf":"pr","parameter_city":"santa-mariana","area_code":43},{"uf":"pr","city":"Santa m\u00f4nica","parameter_uf":"pr","parameter_city":"santa-monica","area_code":44},{"uf":"pr","city":"Santa tereza do oeste","parameter_uf":"pr","parameter_city":"santa-tereza-do-oeste","area_code":45},{"uf":"pr","city":"Santana do itarar\u00e9","parameter_uf":"pr","parameter_city":"santana-do-itarare","area_code":43},{"uf":"pr","city":"Santo in\u00e1cio","parameter_uf":"pr","parameter_city":"santo-inacio","area_code":44},{"uf":"pr","city":"S\u00e3o carlos do iva\u00ed","parameter_uf":"pr","parameter_city":"sao-carlos-do-ivai","area_code":44},{"uf":"pr","city":"S\u00e3o jer\u00f4nimo da serra","parameter_uf":"pr","parameter_city":"sao-jeronimo-da-serra","area_code":43},{"uf":"pr","city":"S\u00e3o jo\u00e3o","parameter_uf":"pr","parameter_city":"sao-joao","area_code":46},{"uf":"pr","city":"S\u00e3o jo\u00e3o do caiu\u00e1","parameter_uf":"pr","parameter_city":"sao-joao-do-caiua","area_code":44},{"uf":"pr","city":"S\u00e3o jo\u00e3o do iva\u00ed","parameter_uf":"pr","parameter_city":"sao-joao-do-ivai","area_code":43},{"uf":"pr","city":"S\u00e3o jo\u00e3o do triunfo","parameter_uf":"pr","parameter_city":"sao-joao-do-triunfo","area_code":42},{"uf":"pr","city":"S\u00e3o jorge do iva\u00ed","parameter_uf":"pr","parameter_city":"sao-jorge-do-ivai","area_code":44},{"uf":"pr","city":"S\u00e3o jorge d'oeste","parameter_uf":"pr","parameter_city":"sao-jorge-d-oeste","area_code":46},{"uf":"pr","city":"S\u00e3o jos\u00e9 da boa vista","parameter_uf":"pr","parameter_city":"sao-jose-da-boa-vista","area_code":43},{"uf":"pr","city":"S\u00e3o jos\u00e9 das palmeiras","parameter_uf":"pr","parameter_city":"sao-jose-das-palmeiras","area_code":45},{"uf":"pr","city":"S\u00e3o jos\u00e9 dos pinhais","parameter_uf":"pr","parameter_city":"sao-jose-dos-pinhais","area_code":41},{"uf":"pr","city":"S\u00e3o manoel do paran\u00e1","parameter_uf":"pr","parameter_city":"sao-manoel-do-parana","area_code":44},{"uf":"pr","city":"S\u00e3o mateus do sul","parameter_uf":"pr","parameter_city":"sao-mateus-do-sul","area_code":42},{"uf":"pr","city":"S\u00e3o miguel do igua\u00e7u","parameter_uf":"pr","parameter_city":"sao-miguel-do-iguacu","area_code":45},{"uf":"pr","city":"S\u00e3o pedro do igua\u00e7u","parameter_uf":"pr","parameter_city":"sao-pedro-do-iguacu","area_code":45},{"uf":"pr","city":"S\u00e3o pedro do iva\u00ed","parameter_uf":"pr","parameter_city":"sao-pedro-do-ivai","area_code":43},{"uf":"pr","city":"S\u00e3o pedro do paran\u00e1","parameter_uf":"pr","parameter_city":"sao-pedro-do-parana","area_code":44},{"uf":"pr","city":"S\u00e3o tom\u00e9","parameter_uf":"pr","parameter_city":"sao-tome","area_code":44},{"uf":"pr","city":"Sapopema","parameter_uf":"pr","parameter_city":"sapopema","area_code":43},{"uf":"pr","city":"Sarandi","parameter_uf":"pr","parameter_city":"sarandi","area_code":44},{"uf":"pr","city":"Saudade do igua\u00e7u","parameter_uf":"pr","parameter_city":"saudade-do-iguacu","area_code":46},{"uf":"pr","city":"Seng\u00e9s","parameter_uf":"pr","parameter_city":"senges","area_code":43},{"uf":"pr","city":"Sertaneja","parameter_uf":"pr","parameter_city":"sertaneja","area_code":43},{"uf":"pr","city":"Sertan\u00f3polis","parameter_uf":"pr","parameter_city":"sertanopolis","area_code":43},{"uf":"pr","city":"Siqueira campos","parameter_uf":"pr","parameter_city":"siqueira-campos","area_code":43},{"uf":"pr","city":"Sulina","parameter_uf":"pr","parameter_city":"sulina","area_code":46},{"uf":"pr","city":"Tamarana","parameter_uf":"pr","parameter_city":"tamarana","area_code":43},{"uf":"pr","city":"Tamboara","parameter_uf":"pr","parameter_city":"tamboara","area_code":44},{"uf":"pr","city":"Tapejara","parameter_uf":"pr","parameter_city":"tapejara","area_code":44},{"uf":"pr","city":"Tapira","parameter_uf":"pr","parameter_city":"tapira","area_code":44},{"uf":"pr","city":"Teixeira soares","parameter_uf":"pr","parameter_city":"teixeira-soares","area_code":42},{"uf":"pr","city":"Tel\u00eamaco borba","parameter_uf":"pr","parameter_city":"telemaco-borba","area_code":42},{"uf":"pr","city":"Terra boa","parameter_uf":"pr","parameter_city":"terra-boa","area_code":44},{"uf":"pr","city":"Terra rica","parameter_uf":"pr","parameter_city":"terra-rica","area_code":44},{"uf":"pr","city":"Terra roxa","parameter_uf":"pr","parameter_city":"terra-roxa","area_code":44},{"uf":"pr","city":"Tibagi","parameter_uf":"pr","parameter_city":"tibagi","area_code":42},{"uf":"pr","city":"Tijucas do sul","parameter_uf":"pr","parameter_city":"tijucas-do-sul","area_code":41},{"uf":"pr","city":"Toledo","parameter_uf":"pr","parameter_city":"toledo","area_code":45},{"uf":"pr","city":"Tomazina","parameter_uf":"pr","parameter_city":"tomazina","area_code":43},{"uf":"pr","city":"Tr\u00eas barras do paran\u00e1","parameter_uf":"pr","parameter_city":"tres-barras-do-parana","area_code":45},{"uf":"pr","city":"Tunas do paran\u00e1","parameter_uf":"pr","parameter_city":"tunas-do-parana","area_code":41},{"uf":"pr","city":"Tuneiras do oeste","parameter_uf":"pr","parameter_city":"tuneiras-do-oeste","area_code":44},{"uf":"pr","city":"Tup\u00e3ssi","parameter_uf":"pr","parameter_city":"tupassi","area_code":44},{"uf":"pr","city":"Turvo","parameter_uf":"pr","parameter_city":"turvo","area_code":42},{"uf":"pr","city":"Ubirat\u00e3","parameter_uf":"pr","parameter_city":"ubirata","area_code":44},{"uf":"pr","city":"Umuarama","parameter_uf":"pr","parameter_city":"umuarama","area_code":44},{"uf":"pr","city":"Uni\u00e3o da vit\u00f3ria","parameter_uf":"pr","parameter_city":"uniao-da-vitoria","area_code":42},{"uf":"pr","city":"Uniflor","parameter_uf":"pr","parameter_city":"uniflor","area_code":44},{"uf":"pr","city":"Ura\u00ed","parameter_uf":"pr","parameter_city":"urai","area_code":43},{"uf":"pr","city":"Ventania","parameter_uf":"pr","parameter_city":"ventania","area_code":42},{"uf":"pr","city":"Vera cruz do oeste","parameter_uf":"pr","parameter_city":"vera-cruz-do-oeste","area_code":45},{"uf":"pr","city":"Ver\u00ea","parameter_uf":"pr","parameter_city":"vere","area_code":46},{"uf":"pr","city":"Vila alta","parameter_uf":"pr","parameter_city":"vila-alta","area_code":44},{"uf":"pr","city":"Virmond","parameter_uf":"pr","parameter_city":"virmond","area_code":42},{"uf":"pr","city":"Vitorino","parameter_uf":"pr","parameter_city":"vitorino","area_code":46},{"uf":"pr","city":"Wenceslau braz","parameter_uf":"pr","parameter_city":"wenceslau-braz","area_code":43},{"uf":"pr","city":"Xambr\u00ea","parameter_uf":"pr","parameter_city":"xambre","area_code":44}]