[{"uf":"rj","city":"Angra dos reis","parameter_uf":"rj","parameter_city":"angra-dos-reis","area_code":24},{"uf":"rj","city":"Aperib\u00e9","parameter_uf":"rj","parameter_city":"aperibe","area_code":22},{"uf":"rj","city":"Araruama","parameter_uf":"rj","parameter_city":"araruama","area_code":22},{"uf":"rj","city":"Areal","parameter_uf":"rj","parameter_city":"areal","area_code":24},{"uf":"rj","city":"Arma\u00e7\u00e3o de b\u00fazios","parameter_uf":"rj","parameter_city":"armacao-de-buzios","area_code":22},{"uf":"rj","city":"Arraial do cabo","parameter_uf":"rj","parameter_city":"arraial-do-cabo","area_code":22},{"uf":"rj","city":"Barra do pira\u00ed","parameter_uf":"rj","parameter_city":"barra-do-pirai","area_code":24},{"uf":"rj","city":"Barra mansa","parameter_uf":"rj","parameter_city":"barra-mansa","area_code":24},{"uf":"rj","city":"Belford roxo","parameter_uf":"rj","parameter_city":"belford-roxo","area_code":21},{"uf":"rj","city":"Bom jardim","parameter_uf":"rj","parameter_city":"bom-jardim","area_code":22},{"uf":"rj","city":"Cabo frio","parameter_uf":"rj","parameter_city":"cabo-frio","area_code":22},{"uf":"rj","city":"Cachoeiras de macacu","parameter_uf":"rj","parameter_city":"cachoeiras-de-macacu","area_code":21},{"uf":"rj","city":"Cambuci","parameter_uf":"rj","parameter_city":"cambuci","area_code":22},{"uf":"rj","city":"Campos dos goytacazes","parameter_uf":"rj","parameter_city":"campos-dos-goytacazes","area_code":22},{"uf":"rj","city":"Cantagalo","parameter_uf":"rj","parameter_city":"cantagalo","area_code":22},{"uf":"rj","city":"Carapebus","parameter_uf":"rj","parameter_city":"carapebus","area_code":22},{"uf":"rj","city":"Cardoso moreira","parameter_uf":"rj","parameter_city":"cardoso-moreira","area_code":22},{"uf":"rj","city":"Carmo","parameter_uf":"rj","parameter_city":"carmo","area_code":22},{"uf":"rj","city":"Casimiro de abreu","parameter_uf":"rj","parameter_city":"casimiro-de-abreu","area_code":22},{"uf":"rj","city":"Comendador levy","parameter_uf":"rj","parameter_city":"comendador-levy","area_code":24},{"uf":"rj","city":"Concei\u00e7\u00e3o de macabu","parameter_uf":"rj","parameter_city":"conceicao-de-macabu","area_code":22},{"uf":"rj","city":"Cordeiro","parameter_uf":"rj","parameter_city":"cordeiro","area_code":22},{"uf":"rj","city":"Duas barras","parameter_uf":"rj","parameter_city":"duas-barras","area_code":22},{"uf":"rj","city":"Duque de caxias","parameter_uf":"rj","parameter_city":"duque-de-caxias","area_code":21},{"uf":"rj","city":"Engenheiro paulo de","parameter_uf":"rj","parameter_city":"engenheiro-paulo-de","area_code":24},{"uf":"rj","city":"Guapimirim","parameter_uf":"rj","parameter_city":"guapimirim","area_code":21},{"uf":"rj","city":"Iguaba grande","parameter_uf":"rj","parameter_city":"iguaba-grande","area_code":22},{"uf":"rj","city":"Itabora\u00ed","parameter_uf":"rj","parameter_city":"itaborai","area_code":21},{"uf":"rj","city":"Itagua\u00ed","parameter_uf":"rj","parameter_city":"itaguai","area_code":21},{"uf":"rj","city":"Italva","parameter_uf":"rj","parameter_city":"italva","area_code":22},{"uf":"rj","city":"Itaocara","parameter_uf":"rj","parameter_city":"itaocara","area_code":22},{"uf":"rj","city":"Itaperuna","parameter_uf":"rj","parameter_city":"itaperuna","area_code":22},{"uf":"rj","city":"Itatiaia","parameter_uf":"rj","parameter_city":"itatiaia","area_code":24},{"uf":"rj","city":"Japeri","parameter_uf":"rj","parameter_city":"japeri","area_code":21},{"uf":"rj","city":"Laje do muria\u00e9","parameter_uf":"rj","parameter_city":"laje-do-muriae","area_code":22},{"uf":"rj","city":"Maca\u00e9","parameter_uf":"rj","parameter_city":"macae","area_code":22},{"uf":"rj","city":"Macuco","parameter_uf":"rj","parameter_city":"macuco","area_code":22},{"uf":"rj","city":"Mag\u00e9","parameter_uf":"rj","parameter_city":"mage","area_code":21},{"uf":"rj","city":"Mangaratiba","parameter_uf":"rj","parameter_city":"mangaratiba","area_code":21},{"uf":"rj","city":"Maric\u00e1","parameter_uf":"rj","parameter_city":"marica","area_code":21},{"uf":"rj","city":"Mendes","parameter_uf":"rj","parameter_city":"mendes","area_code":24},{"uf":"rj","city":"Mesquita","parameter_uf":"rj","parameter_city":"mesquita","area_code":21},{"uf":"rj","city":"Miguel pereira","parameter_uf":"rj","parameter_city":"miguel-pereira","area_code":24},{"uf":"rj","city":"Miracema","parameter_uf":"rj","parameter_city":"miracema","area_code":22},{"uf":"rj","city":"Natividade","parameter_uf":"rj","parameter_city":"natividade","area_code":22},{"uf":"rj","city":"Nil\u00f3polis","parameter_uf":"rj","parameter_city":"nilopolis","area_code":21},{"uf":"rj","city":"Niter\u00f3i","parameter_uf":"rj","parameter_city":"niteroi","area_code":21},{"uf":"rj","city":"Nova friburgo","parameter_uf":"rj","parameter_city":"nova-friburgo","area_code":22},{"uf":"rj","city":"Nova igua\u00e7u","parameter_uf":"rj","parameter_city":"nova-iguacu","area_code":21},{"uf":"rj","city":"Paracambi","parameter_uf":"rj","parameter_city":"paracambi","area_code":21},{"uf":"rj","city":"Para\u00edba do sul","parameter_uf":"rj","parameter_city":"paraiba-do-sul","area_code":24},{"uf":"rj","city":"Parati","parameter_uf":"rj","parameter_city":"parati","area_code":24},{"uf":"rj","city":"Paty do alferes","parameter_uf":"rj","parameter_city":"paty-do-alferes","area_code":24},{"uf":"rj","city":"Petr\u00f3polis","parameter_uf":"rj","parameter_city":"petropolis","area_code":24},{"uf":"rj","city":"Pinheiral","parameter_uf":"rj","parameter_city":"pinheiral","area_code":24},{"uf":"rj","city":"Pira\u00ed","parameter_uf":"rj","parameter_city":"pirai","area_code":24},{"uf":"rj","city":"Porci\u00fancula","parameter_uf":"rj","parameter_city":"porciuncula","area_code":22},{"uf":"rj","city":"Porto real","parameter_uf":"rj","parameter_city":"porto-real","area_code":24},{"uf":"rj","city":"Quatis","parameter_uf":"rj","parameter_city":"quatis","area_code":24},{"uf":"rj","city":"Queimados","parameter_uf":"rj","parameter_city":"queimados","area_code":21},{"uf":"rj","city":"Quissam\u00e3","parameter_uf":"rj","parameter_city":"quissama","area_code":22},{"uf":"rj","city":"Resende","parameter_uf":"rj","parameter_city":"resende","area_code":24},{"uf":"rj","city":"Rio bonito","parameter_uf":"rj","parameter_city":"rio-bonito","area_code":21},{"uf":"rj","city":"Rio claro","parameter_uf":"rj","parameter_city":"rio-claro","area_code":24},{"uf":"rj","city":"Rio das flores","parameter_uf":"rj","parameter_city":"rio-das-flores","area_code":24},{"uf":"rj","city":"Rio das ostras","parameter_uf":"rj","parameter_city":"rio-das-ostras","area_code":22},{"uf":"rj","city":"Rio de janeiro","parameter_uf":"rj","parameter_city":"rio-de-janeiro","area_code":21},{"uf":"rj","city":"Santa maria madalena","parameter_uf":"rj","parameter_city":"santa-maria-madalena","area_code":22},{"uf":"rj","city":"S\u00e3o fid\u00e9lis","parameter_uf":"rj","parameter_city":"sao-fidelis","area_code":22},{"uf":"rj","city":"S\u00e3o gon\u00e7alo","parameter_uf":"rj","parameter_city":"sao-goncalo","area_code":21},{"uf":"rj","city":"S\u00e3o jo\u00e3o da barra","parameter_uf":"rj","parameter_city":"sao-joao-da-barra","area_code":22},{"uf":"rj","city":"S\u00e3o jo\u00e3o de meriti","parameter_uf":"rj","parameter_city":"sao-joao-de-meriti","area_code":21},{"uf":"rj","city":"S\u00e3o jos\u00e9 de ub\u00e1","parameter_uf":"rj","parameter_city":"sao-jose-de-uba","area_code":22},{"uf":"rj","city":"S\u00e3o pedro da aldeia","parameter_uf":"rj","parameter_city":"sao-pedro-da-aldeia","area_code":22},{"uf":"rj","city":"S\u00e3o sebasti\u00e3o do alto","parameter_uf":"rj","parameter_city":"sao-sebastiao-do-alto","area_code":22},{"uf":"rj","city":"Sapucaia","parameter_uf":"rj","parameter_city":"sapucaia","area_code":24},{"uf":"rj","city":"Saquarema","parameter_uf":"rj","parameter_city":"saquarema","area_code":22},{"uf":"rj","city":"Serop\u00e9dica","parameter_uf":"rj","parameter_city":"seropedica","area_code":21},{"uf":"rj","city":"Silva jardim","parameter_uf":"rj","parameter_city":"silva-jardim","area_code":22},{"uf":"rj","city":"Sumidouro","parameter_uf":"rj","parameter_city":"sumidouro","area_code":22},{"uf":"rj","city":"Tangu\u00e1","parameter_uf":"rj","parameter_city":"tangua","area_code":21},{"uf":"rj","city":"Teres\u00f3polis","parameter_uf":"rj","parameter_city":"teresopolis","area_code":21},{"uf":"rj","city":"Trajano de morais","parameter_uf":"rj","parameter_city":"trajano-de-morais","area_code":22},{"uf":"rj","city":"Tr\u00eas rios","parameter_uf":"rj","parameter_city":"tres-rios","area_code":24},{"uf":"rj","city":"Valen\u00e7a","parameter_uf":"rj","parameter_city":"valenca","area_code":24},{"uf":"rj","city":"Varre-sai","parameter_uf":"rj","parameter_city":"varre-sai","area_code":22},{"uf":"rj","city":"Vassouras","parameter_uf":"rj","parameter_city":"vassouras","area_code":24},{"uf":"rj","city":"Volta redonda","parameter_uf":"rj","parameter_city":"volta-redonda","area_code":24}]