[{"uf":"ro","city":"Alta floresta d'oeste","parameter_uf":"ro","parameter_city":"alta-floresta-d-oeste","area_code":69},{"uf":"ro","city":"Alto alegre do parecis","parameter_uf":"ro","parameter_city":"alto-alegre-do-parecis","area_code":69},{"uf":"ro","city":"Alto para\u00edso","parameter_uf":"ro","parameter_city":"alto-paraiso","area_code":69},{"uf":"ro","city":"Alvorada d'oeste","parameter_uf":"ro","parameter_city":"alvorada-d-oeste","area_code":69},{"uf":"ro","city":"Ariquemes","parameter_uf":"ro","parameter_city":"ariquemes","area_code":69},{"uf":"ro","city":"Buritis","parameter_uf":"ro","parameter_city":"buritis","area_code":69},{"uf":"ro","city":"Cabixi","parameter_uf":"ro","parameter_city":"cabixi","area_code":69},{"uf":"ro","city":"Cacaul\u00e2ndia","parameter_uf":"ro","parameter_city":"cacaulandia","area_code":69},{"uf":"ro","city":"Cacoal","parameter_uf":"ro","parameter_city":"cacoal","area_code":69},{"uf":"ro","city":"Candeias do jamari","parameter_uf":"ro","parameter_city":"candeias-do-jamari","area_code":69},{"uf":"ro","city":"Castanheiras","parameter_uf":"ro","parameter_city":"castanheiras","area_code":69},{"uf":"ro","city":"Cerejeiras","parameter_uf":"ro","parameter_city":"cerejeiras","area_code":69},{"uf":"ro","city":"Chupinguaia","parameter_uf":"ro","parameter_city":"chupinguaia","area_code":69},{"uf":"ro","city":"Colorado do oeste","parameter_uf":"ro","parameter_city":"colorado-do-oeste","area_code":69},{"uf":"ro","city":"Corumbiara","parameter_uf":"ro","parameter_city":"corumbiara","area_code":69},{"uf":"ro","city":"Costa marques","parameter_uf":"ro","parameter_city":"costa-marques","area_code":69},{"uf":"ro","city":"Cujubim","parameter_uf":"ro","parameter_city":"cujubim","area_code":69},{"uf":"ro","city":"Espig\u00e3o d'oeste","parameter_uf":"ro","parameter_city":"espigao-d-oeste","area_code":69},{"uf":"ro","city":"Governador jorge","parameter_uf":"ro","parameter_city":"governador-jorge","area_code":69},{"uf":"ro","city":"Guajar\u00e1-mirim","parameter_uf":"ro","parameter_city":"guajara-mirim","area_code":69},{"uf":"ro","city":"Itapu\u00e3 do oeste","parameter_uf":"ro","parameter_city":"itapua-do-oeste","area_code":69},{"uf":"ro","city":"Jaru","parameter_uf":"ro","parameter_city":"jaru","area_code":69},{"uf":"ro","city":"Ji-paran\u00e1","parameter_uf":"ro","parameter_city":"ji-parana","area_code":69},{"uf":"ro","city":"Machadinho d'oeste","parameter_uf":"ro","parameter_city":"machadinho-d-oeste","area_code":69},{"uf":"ro","city":"Ministro andreazza","parameter_uf":"ro","parameter_city":"ministro-andreazza","area_code":69},{"uf":"ro","city":"Mirante da serra","parameter_uf":"ro","parameter_city":"mirante-da-serra","area_code":69},{"uf":"ro","city":"Monte negro","parameter_uf":"ro","parameter_city":"monte-negro","area_code":69},{"uf":"ro","city":"Nova brasil\u00e2ndia","parameter_uf":"ro","parameter_city":"nova-brasilandia","area_code":69},{"uf":"ro","city":"Nova mamor\u00e9","parameter_uf":"ro","parameter_city":"nova-mamore","area_code":69},{"uf":"ro","city":"Nova uni\u00e3o","parameter_uf":"ro","parameter_city":"nova-uniao","area_code":69},{"uf":"ro","city":"Ouro preto do oeste","parameter_uf":"ro","parameter_city":"ouro-preto-do-oeste","area_code":69},{"uf":"ro","city":"Parecis","parameter_uf":"ro","parameter_city":"parecis","area_code":69},{"uf":"ro","city":"Pimenta bueno","parameter_uf":"ro","parameter_city":"pimenta-bueno","area_code":69},{"uf":"ro","city":"Pimenteiras do oeste","parameter_uf":"ro","parameter_city":"pimenteiras-do-oeste","area_code":69},{"uf":"ro","city":"Porto velho","parameter_uf":"ro","parameter_city":"porto-velho","area_code":69},{"uf":"ro","city":"Presidente m\u00e9dici","parameter_uf":"ro","parameter_city":"presidente-medici","area_code":69},{"uf":"ro","city":"Primavera de rond\u00f4nia","parameter_uf":"ro","parameter_city":"primavera-de-rondonia","area_code":69},{"uf":"ro","city":"Rio crespo","parameter_uf":"ro","parameter_city":"rio-crespo","area_code":69},{"uf":"ro","city":"Rolim de moura","parameter_uf":"ro","parameter_city":"rolim-de-moura","area_code":69},{"uf":"ro","city":"Santa luzia d'oeste","parameter_uf":"ro","parameter_city":"santa-luzia-d-oeste","area_code":69},{"uf":"ro","city":"S\u00e3o felipe d'oeste","parameter_uf":"ro","parameter_city":"sao-felipe-d-oeste","area_code":69},{"uf":"ro","city":"S\u00e3o miguel do guapor\u00e9","parameter_uf":"ro","parameter_city":"sao-miguel-do-guapore","area_code":69},{"uf":"ro","city":"Seringueiras","parameter_uf":"ro","parameter_city":"seringueiras","area_code":69},{"uf":"ro","city":"Teixeir\u00f3polis","parameter_uf":"ro","parameter_city":"teixeiropolis","area_code":69},{"uf":"ro","city":"Theobroma","parameter_uf":"ro","parameter_city":"theobroma","area_code":69},{"uf":"ro","city":"Urup\u00e1","parameter_uf":"ro","parameter_city":"urupa","area_code":69},{"uf":"ro","city":"Vale do anari","parameter_uf":"ro","parameter_city":"vale-do-anari","area_code":69},{"uf":"ro","city":"Vale do para\u00edso","parameter_uf":"ro","parameter_city":"vale-do-paraiso","area_code":69},{"uf":"ro","city":"Vilhena","parameter_uf":"ro","parameter_city":"vilhena","area_code":69}]