[{"uf":"rs","city":"Acegua","parameter_uf":"rs","parameter_city":"acegua","area_code":53},{"uf":"rs","city":"\u00c1gua santa","parameter_uf":"rs","parameter_city":"agua-santa","area_code":54},{"uf":"rs","city":"Agudo","parameter_uf":"rs","parameter_city":"agudo","area_code":55},{"uf":"rs","city":"Ajuricaba","parameter_uf":"rs","parameter_city":"ajuricaba","area_code":55},{"uf":"rs","city":"Alecrim","parameter_uf":"rs","parameter_city":"alecrim","area_code":55},{"uf":"rs","city":"Alegrete","parameter_uf":"rs","parameter_city":"alegrete","area_code":55},{"uf":"rs","city":"Alegria","parameter_uf":"rs","parameter_city":"alegria","area_code":55},{"uf":"rs","city":"Almirante tamandare","parameter_uf":"rs","parameter_city":"almirante-tamandare","area_code":54},{"uf":"rs","city":"Alpestre","parameter_uf":"rs","parameter_city":"alpestre","area_code":55},{"uf":"rs","city":"Alto alegre","parameter_uf":"rs","parameter_city":"alto-alegre","area_code":54},{"uf":"rs","city":"Alto feliz","parameter_uf":"rs","parameter_city":"alto-feliz","area_code":51},{"uf":"rs","city":"Alvorada","parameter_uf":"rs","parameter_city":"alvorada","area_code":51},{"uf":"rs","city":"Amaral ferrador","parameter_uf":"rs","parameter_city":"amaral-ferrador","area_code":51},{"uf":"rs","city":"Ametista do sul","parameter_uf":"rs","parameter_city":"ametista-do-sul","area_code":55},{"uf":"rs","city":"Andr\u00e9 da rocha","parameter_uf":"rs","parameter_city":"andre-da-rocha","area_code":54},{"uf":"rs","city":"Anta gorda","parameter_uf":"rs","parameter_city":"anta-gorda","area_code":51},{"uf":"rs","city":"Ant\u00f4nio prado","parameter_uf":"rs","parameter_city":"antonio-prado","area_code":54},{"uf":"rs","city":"Arambar\u00e9","parameter_uf":"rs","parameter_city":"arambare","area_code":51},{"uf":"rs","city":"Araric\u00e1","parameter_uf":"rs","parameter_city":"ararica","area_code":51},{"uf":"rs","city":"Aratiba","parameter_uf":"rs","parameter_city":"aratiba","area_code":54},{"uf":"rs","city":"Arroio do meio","parameter_uf":"rs","parameter_city":"arroio-do-meio","area_code":51},{"uf":"rs","city":"Arroio do padre","parameter_uf":"rs","parameter_city":"arroio-do-padre","area_code":53},{"uf":"rs","city":"Arroio do sal","parameter_uf":"rs","parameter_city":"arroio-do-sal","area_code":51},{"uf":"rs","city":"Arroio do tigre","parameter_uf":"rs","parameter_city":"arroio-do-tigre","area_code":51},{"uf":"rs","city":"Arroio dos ratos","parameter_uf":"rs","parameter_city":"arroio-dos-ratos","area_code":51},{"uf":"rs","city":"Arroio grande","parameter_uf":"rs","parameter_city":"arroio-grande","area_code":53},{"uf":"rs","city":"Arvorezinha","parameter_uf":"rs","parameter_city":"arvorezinha","area_code":51},{"uf":"rs","city":"Augusto pestana","parameter_uf":"rs","parameter_city":"augusto-pestana","area_code":55},{"uf":"rs","city":"\u00c1urea","parameter_uf":"rs","parameter_city":"aurea","area_code":54},{"uf":"rs","city":"Bag\u00e9","parameter_uf":"rs","parameter_city":"bage","area_code":53},{"uf":"rs","city":"Balne\u00e1rio pinhal","parameter_uf":"rs","parameter_city":"balneario-pinhal","area_code":51},{"uf":"rs","city":"Bar\u00e3o","parameter_uf":"rs","parameter_city":"barao","area_code":51},{"uf":"rs","city":"Bar\u00e3o de cotegipe","parameter_uf":"rs","parameter_city":"barao-de-cotegipe","area_code":54},{"uf":"rs","city":"Bar\u00e3o do triunfo","parameter_uf":"rs","parameter_city":"barao-do-triunfo","area_code":51},{"uf":"rs","city":"Barra do guarita","parameter_uf":"rs","parameter_city":"barra-do-guarita","area_code":55},{"uf":"rs","city":"Barra do quara\u00ed","parameter_uf":"rs","parameter_city":"barra-do-quarai","area_code":55},{"uf":"rs","city":"Barra do ribeiro","parameter_uf":"rs","parameter_city":"barra-do-ribeiro","area_code":51},{"uf":"rs","city":"Barra do rio azul","parameter_uf":"rs","parameter_city":"barra-do-rio-azul","area_code":54},{"uf":"rs","city":"Barra funda","parameter_uf":"rs","parameter_city":"barra-funda","area_code":54},{"uf":"rs","city":"Barrac\u00e3o","parameter_uf":"rs","parameter_city":"barracao","area_code":54},{"uf":"rs","city":"Barros cassal","parameter_uf":"rs","parameter_city":"barros-cassal","area_code":54},{"uf":"rs","city":"Benjamin constant do","parameter_uf":"rs","parameter_city":"benjamin-constant-do","area_code":54},{"uf":"rs","city":"Bento gon\u00e7alves","parameter_uf":"rs","parameter_city":"bento-goncalves","area_code":54},{"uf":"rs","city":"Boa vista das miss\u00f5es","parameter_uf":"rs","parameter_city":"boa-vista-das-missoes","area_code":55},{"uf":"rs","city":"Boa vista do buric\u00e1","parameter_uf":"rs","parameter_city":"boa-vista-do-burica","area_code":55},{"uf":"rs","city":"Boa vista do cadeado","parameter_uf":"rs","parameter_city":"boa-vista-do-cadeado","area_code":55},{"uf":"rs","city":"Boa vista do incra","parameter_uf":"rs","parameter_city":"boa-vista-do-incra","area_code":55},{"uf":"rs","city":"Boa vista do sul","parameter_uf":"rs","parameter_city":"boa-vista-do-sul","area_code":54},{"uf":"rs","city":"Bom jesus","parameter_uf":"rs","parameter_city":"bom-jesus","area_code":54},{"uf":"rs","city":"Bom princ\u00edpio","parameter_uf":"rs","parameter_city":"bom-principio","area_code":51},{"uf":"rs","city":"Bom progresso","parameter_uf":"rs","parameter_city":"bom-progresso","area_code":55},{"uf":"rs","city":"Bom retiro do sul","parameter_uf":"rs","parameter_city":"bom-retiro-do-sul","area_code":51},{"uf":"rs","city":"Boqueir\u00e3o do le\u00e3o","parameter_uf":"rs","parameter_city":"boqueirao-do-leao","area_code":51},{"uf":"rs","city":"Bossoroca","parameter_uf":"rs","parameter_city":"bossoroca","area_code":55},{"uf":"rs","city":"Bozano","parameter_uf":"rs","parameter_city":"bozano","area_code":55},{"uf":"rs","city":"Braga","parameter_uf":"rs","parameter_city":"braga","area_code":55},{"uf":"rs","city":"Brochier","parameter_uf":"rs","parameter_city":"brochier","area_code":51},{"uf":"rs","city":"Buti\u00e1","parameter_uf":"rs","parameter_city":"butia","area_code":51},{"uf":"rs","city":"Ca\u00e7apava do sul","parameter_uf":"rs","parameter_city":"cacapava-do-sul","area_code":55},{"uf":"rs","city":"Cacequi","parameter_uf":"rs","parameter_city":"cacequi","area_code":55},{"uf":"rs","city":"Cachoeira do sul","parameter_uf":"rs","parameter_city":"cachoeira-do-sul","area_code":51},{"uf":"rs","city":"Cachoeirinha","parameter_uf":"rs","parameter_city":"cachoeirinha","area_code":51},{"uf":"rs","city":"Cacique doble","parameter_uf":"rs","parameter_city":"cacique-doble","area_code":54},{"uf":"rs","city":"Caibat\u00e9","parameter_uf":"rs","parameter_city":"caibate","area_code":55},{"uf":"rs","city":"Cai\u00e7ara","parameter_uf":"rs","parameter_city":"caicara","area_code":55},{"uf":"rs","city":"Camaqu\u00e3","parameter_uf":"rs","parameter_city":"camaqua","area_code":51},{"uf":"rs","city":"Camargo","parameter_uf":"rs","parameter_city":"camargo","area_code":54},{"uf":"rs","city":"Cambar\u00e1 do sul","parameter_uf":"rs","parameter_city":"cambara-do-sul","area_code":54},{"uf":"rs","city":"Campestre da serra","parameter_uf":"rs","parameter_city":"campestre-da-serra","area_code":54},{"uf":"rs","city":"Campina das miss\u00f5es","parameter_uf":"rs","parameter_city":"campina-das-missoes","area_code":55},{"uf":"rs","city":"Campinas do sul","parameter_uf":"rs","parameter_city":"campinas-do-sul","area_code":54},{"uf":"rs","city":"Campo bom","parameter_uf":"rs","parameter_city":"campo-bom","area_code":51},{"uf":"rs","city":"Campo novo","parameter_uf":"rs","parameter_city":"campo-novo","area_code":55},{"uf":"rs","city":"Campos borges","parameter_uf":"rs","parameter_city":"campos-borges","area_code":54},{"uf":"rs","city":"Candel\u00e1ria","parameter_uf":"rs","parameter_city":"candelaria","area_code":51},{"uf":"rs","city":"C\u00e2ndido god\u00f3i","parameter_uf":"rs","parameter_city":"candido-godoi","area_code":55},{"uf":"rs","city":"Candiota","parameter_uf":"rs","parameter_city":"candiota","area_code":53},{"uf":"rs","city":"Canela","parameter_uf":"rs","parameter_city":"canela","area_code":54},{"uf":"rs","city":"Cangu\u00e7u","parameter_uf":"rs","parameter_city":"cangucu","area_code":53},{"uf":"rs","city":"Canoas","parameter_uf":"rs","parameter_city":"canoas","area_code":51},{"uf":"rs","city":"Canudos do vale","parameter_uf":"rs","parameter_city":"canudos-do-vale","area_code":51},{"uf":"rs","city":"Capao bonito do sul","parameter_uf":"rs","parameter_city":"capao-bonito-do-sul","area_code":54},{"uf":"rs","city":"Cap\u00e3o da canoa","parameter_uf":"rs","parameter_city":"capao-da-canoa","area_code":51},{"uf":"rs","city":"Capao do cipo","parameter_uf":"rs","parameter_city":"capao-do-cipo","area_code":55},{"uf":"rs","city":"Cap\u00e3o do le\u00e3o","parameter_uf":"rs","parameter_city":"capao-do-leao","area_code":53},{"uf":"rs","city":"Capela de santana","parameter_uf":"rs","parameter_city":"capela-de-santana","area_code":51},{"uf":"rs","city":"Capit\u00e3o","parameter_uf":"rs","parameter_city":"capitao","area_code":51},{"uf":"rs","city":"Capivari do sul","parameter_uf":"rs","parameter_city":"capivari-do-sul","area_code":51},{"uf":"rs","city":"Cara\u00e1","parameter_uf":"rs","parameter_city":"caraa","area_code":51},{"uf":"rs","city":"Carazinho","parameter_uf":"rs","parameter_city":"carazinho","area_code":54},{"uf":"rs","city":"Carlos barbosa","parameter_uf":"rs","parameter_city":"carlos-barbosa","area_code":54},{"uf":"rs","city":"Carlos gomes","parameter_uf":"rs","parameter_city":"carlos-gomes","area_code":54},{"uf":"rs","city":"Casca","parameter_uf":"rs","parameter_city":"casca","area_code":54},{"uf":"rs","city":"Caseiros","parameter_uf":"rs","parameter_city":"caseiros","area_code":54},{"uf":"rs","city":"Catu\u00edpe","parameter_uf":"rs","parameter_city":"catuipe","area_code":55},{"uf":"rs","city":"Caxias do sul","parameter_uf":"rs","parameter_city":"caxias-do-sul","area_code":54},{"uf":"rs","city":"Centen\u00e1rio","parameter_uf":"rs","parameter_city":"centenario","area_code":54},{"uf":"rs","city":"Cerrito","parameter_uf":"rs","parameter_city":"cerrito","area_code":53},{"uf":"rs","city":"Cerro branco","parameter_uf":"rs","parameter_city":"cerro-branco","area_code":51},{"uf":"rs","city":"Cerro grande","parameter_uf":"rs","parameter_city":"cerro-grande","area_code":55},{"uf":"rs","city":"Cerro grande do sul","parameter_uf":"rs","parameter_city":"cerro-grande-do-sul","area_code":51},{"uf":"rs","city":"Cerro largo","parameter_uf":"rs","parameter_city":"cerro-largo","area_code":55},{"uf":"rs","city":"Chapada","parameter_uf":"rs","parameter_city":"chapada","area_code":54},{"uf":"rs","city":"Charqueadas","parameter_uf":"rs","parameter_city":"charqueadas","area_code":51},{"uf":"rs","city":"Charrua","parameter_uf":"rs","parameter_city":"charrua","area_code":54},{"uf":"rs","city":"Chiapeta","parameter_uf":"rs","parameter_city":"chiapeta","area_code":55},{"uf":"rs","city":"Chu\u00ed","parameter_uf":"rs","parameter_city":"chui","area_code":53},{"uf":"rs","city":"Chuvisca","parameter_uf":"rs","parameter_city":"chuvisca","area_code":51},{"uf":"rs","city":"Cidreira","parameter_uf":"rs","parameter_city":"cidreira","area_code":51},{"uf":"rs","city":"Cir\u00edaco","parameter_uf":"rs","parameter_city":"ciriaco","area_code":54},{"uf":"rs","city":"Colinas","parameter_uf":"rs","parameter_city":"colinas","area_code":51},{"uf":"rs","city":"Colorado","parameter_uf":"rs","parameter_city":"colorado","area_code":54},{"uf":"rs","city":"Condor","parameter_uf":"rs","parameter_city":"condor","area_code":55},{"uf":"rs","city":"Constantina","parameter_uf":"rs","parameter_city":"constantina","area_code":54},{"uf":"rs","city":"Coqueiro baixo","parameter_uf":"rs","parameter_city":"coqueiro-baixo","area_code":51},{"uf":"rs","city":"Coqueiros do sul","parameter_uf":"rs","parameter_city":"coqueiros-do-sul","area_code":54},{"uf":"rs","city":"Coronel barros","parameter_uf":"rs","parameter_city":"coronel-barros","area_code":55},{"uf":"rs","city":"Coronel bicaco","parameter_uf":"rs","parameter_city":"coronel-bicaco","area_code":55},{"uf":"rs","city":"Coronel pilar","parameter_uf":"rs","parameter_city":"coronel-pilar","area_code":54},{"uf":"rs","city":"Cotipor\u00e3","parameter_uf":"rs","parameter_city":"cotipora","area_code":54},{"uf":"rs","city":"Coxilha","parameter_uf":"rs","parameter_city":"coxilha","area_code":54},{"uf":"rs","city":"Crissiumal","parameter_uf":"rs","parameter_city":"crissiumal","area_code":55},{"uf":"rs","city":"Cristal","parameter_uf":"rs","parameter_city":"cristal","area_code":51},{"uf":"rs","city":"Cristal do sul","parameter_uf":"rs","parameter_city":"cristal-do-sul","area_code":55},{"uf":"rs","city":"Cruz alta","parameter_uf":"rs","parameter_city":"cruz-alta","area_code":55},{"uf":"rs","city":"Cruzaltense","parameter_uf":"rs","parameter_city":"cruzaltense","area_code":54},{"uf":"rs","city":"Cruzeiro do sul","parameter_uf":"rs","parameter_city":"cruzeiro-do-sul","area_code":51},{"uf":"rs","city":"David canabarro","parameter_uf":"rs","parameter_city":"david-canabarro","area_code":54},{"uf":"rs","city":"Derrubadas","parameter_uf":"rs","parameter_city":"derrubadas","area_code":55},{"uf":"rs","city":"Dezesseis de novembro","parameter_uf":"rs","parameter_city":"dezesseis-de-novembro","area_code":55},{"uf":"rs","city":"Dilermando de aguiar","parameter_uf":"rs","parameter_city":"dilermando-de-aguiar","area_code":55},{"uf":"rs","city":"Dois irm\u00e3os","parameter_uf":"rs","parameter_city":"dois-irmaos","area_code":51},{"uf":"rs","city":"Dois irm\u00e3os das miss\u00f5es","parameter_uf":"rs","parameter_city":"dois-irmaos-das-missoes","area_code":55},{"uf":"rs","city":"Dois lajeados","parameter_uf":"rs","parameter_city":"dois-lajeados","area_code":54},{"uf":"rs","city":"Dom feliciano","parameter_uf":"rs","parameter_city":"dom-feliciano","area_code":51},{"uf":"rs","city":"Dom pedrito","parameter_uf":"rs","parameter_city":"dom-pedrito","area_code":53},{"uf":"rs","city":"Dona francisca","parameter_uf":"rs","parameter_city":"dona-francisca","area_code":55},{"uf":"rs","city":"Doutor ricardo","parameter_uf":"rs","parameter_city":"doutor-ricardo","area_code":51},{"uf":"rs","city":"Eldorado do sul","parameter_uf":"rs","parameter_city":"eldorado-do-sul","area_code":51},{"uf":"rs","city":"Encantado","parameter_uf":"rs","parameter_city":"encantado","area_code":51},{"uf":"rs","city":"Encruzilhada do sul","parameter_uf":"rs","parameter_city":"encruzilhada-do-sul","area_code":51},{"uf":"rs","city":"Engenho velho","parameter_uf":"rs","parameter_city":"engenho-velho","area_code":54},{"uf":"rs","city":"Entre rios do sul","parameter_uf":"rs","parameter_city":"entre-rios-do-sul","area_code":54},{"uf":"rs","city":"Entre-iju\u00eds","parameter_uf":"rs","parameter_city":"entre-ijuis","area_code":55},{"uf":"rs","city":"Erebango","parameter_uf":"rs","parameter_city":"erebango","area_code":54},{"uf":"rs","city":"Erechim","parameter_uf":"rs","parameter_city":"erechim","area_code":54},{"uf":"rs","city":"Ernestina","parameter_uf":"rs","parameter_city":"ernestina","area_code":54},{"uf":"rs","city":"Erval grande","parameter_uf":"rs","parameter_city":"erval-grande","area_code":54},{"uf":"rs","city":"Erval seco","parameter_uf":"rs","parameter_city":"erval-seco","area_code":55},{"uf":"rs","city":"Esmeralda","parameter_uf":"rs","parameter_city":"esmeralda","area_code":54},{"uf":"rs","city":"Esperan\u00e7a do sul","parameter_uf":"rs","parameter_city":"esperanca-do-sul","area_code":55},{"uf":"rs","city":"Espumoso","parameter_uf":"rs","parameter_city":"espumoso","area_code":54},{"uf":"rs","city":"Esta\u00e7\u00e3o","parameter_uf":"rs","parameter_city":"estacao","area_code":54},{"uf":"rs","city":"Est\u00e2ncia velha","parameter_uf":"rs","parameter_city":"estancia-velha","area_code":51},{"uf":"rs","city":"Esteio","parameter_uf":"rs","parameter_city":"esteio","area_code":51},{"uf":"rs","city":"Estrela","parameter_uf":"rs","parameter_city":"estrela","area_code":51},{"uf":"rs","city":"Estrela velha","parameter_uf":"rs","parameter_city":"estrela-velha","area_code":51},{"uf":"rs","city":"Eug\u00eanio de castro","parameter_uf":"rs","parameter_city":"eugenio-de-castro","area_code":55},{"uf":"rs","city":"Fagundes varela","parameter_uf":"rs","parameter_city":"fagundes-varela","area_code":54},{"uf":"rs","city":"Farroupilha","parameter_uf":"rs","parameter_city":"farroupilha","area_code":54},{"uf":"rs","city":"Faxinal do soturno","parameter_uf":"rs","parameter_city":"faxinal-do-soturno","area_code":55},{"uf":"rs","city":"Faxinalzinho","parameter_uf":"rs","parameter_city":"faxinalzinho","area_code":54},{"uf":"rs","city":"Fazenda vilanova","parameter_uf":"rs","parameter_city":"fazenda-vilanova","area_code":51},{"uf":"rs","city":"Feliz","parameter_uf":"rs","parameter_city":"feliz","area_code":51},{"uf":"rs","city":"Flores da cunha","parameter_uf":"rs","parameter_city":"flores-da-cunha","area_code":54},{"uf":"rs","city":"Floriano peixoto","parameter_uf":"rs","parameter_city":"floriano-peixoto","area_code":54},{"uf":"rs","city":"Fontoura xavier","parameter_uf":"rs","parameter_city":"fontoura-xavier","area_code":54},{"uf":"rs","city":"Formigueiro","parameter_uf":"rs","parameter_city":"formigueiro","area_code":55},{"uf":"rs","city":"Forquetinha","parameter_uf":"rs","parameter_city":"forquetinha","area_code":51},{"uf":"rs","city":"Fortaleza dos valos","parameter_uf":"rs","parameter_city":"fortaleza-dos-valos","area_code":55},{"uf":"rs","city":"Frederico westphalen","parameter_uf":"rs","parameter_city":"frederico-westphalen","area_code":55},{"uf":"rs","city":"Garibaldi","parameter_uf":"rs","parameter_city":"garibaldi","area_code":54},{"uf":"rs","city":"Garruchos","parameter_uf":"rs","parameter_city":"garruchos","area_code":55},{"uf":"rs","city":"Gaurama","parameter_uf":"rs","parameter_city":"gaurama","area_code":54},{"uf":"rs","city":"General c\u00e2mara","parameter_uf":"rs","parameter_city":"general-camara","area_code":51},{"uf":"rs","city":"Gentil","parameter_uf":"rs","parameter_city":"gentil","area_code":54},{"uf":"rs","city":"Get\u00falio vargas","parameter_uf":"rs","parameter_city":"getulio-vargas","area_code":54},{"uf":"rs","city":"Giru\u00e1","parameter_uf":"rs","parameter_city":"girua","area_code":55},{"uf":"rs","city":"Glorinha","parameter_uf":"rs","parameter_city":"glorinha","area_code":51},{"uf":"rs","city":"Gramado","parameter_uf":"rs","parameter_city":"gramado","area_code":54},{"uf":"rs","city":"Gramado xavier","parameter_uf":"rs","parameter_city":"gramado-xavier","area_code":51},{"uf":"rs","city":"Gravata\u00ed","parameter_uf":"rs","parameter_city":"gravatai","area_code":51},{"uf":"rs","city":"Guabiju","parameter_uf":"rs","parameter_city":"guabiju","area_code":54},{"uf":"rs","city":"Gua\u00edba","parameter_uf":"rs","parameter_city":"guaiba","area_code":51},{"uf":"rs","city":"Guapor\u00e9","parameter_uf":"rs","parameter_city":"guapore","area_code":54},{"uf":"rs","city":"Guarani das miss\u00f5es","parameter_uf":"rs","parameter_city":"guarani-das-missoes","area_code":55},{"uf":"rs","city":"Harmonia","parameter_uf":"rs","parameter_city":"harmonia","area_code":51},{"uf":"rs","city":"Herval","parameter_uf":"rs","parameter_city":"herval","area_code":53},{"uf":"rs","city":"Herveiras","parameter_uf":"rs","parameter_city":"herveiras","area_code":51},{"uf":"rs","city":"Horizontina","parameter_uf":"rs","parameter_city":"horizontina","area_code":55},{"uf":"rs","city":"Hulha negra","parameter_uf":"rs","parameter_city":"hulha-negra","area_code":53},{"uf":"rs","city":"Humait\u00e1","parameter_uf":"rs","parameter_city":"humaita","area_code":55},{"uf":"rs","city":"Ibarama","parameter_uf":"rs","parameter_city":"ibarama","area_code":51},{"uf":"rs","city":"Ibia\u00e7\u00e1","parameter_uf":"rs","parameter_city":"ibiaca","area_code":54},{"uf":"rs","city":"Ibiraiaras","parameter_uf":"rs","parameter_city":"ibiraiaras","area_code":54},{"uf":"rs","city":"Ibirapuit\u00e3","parameter_uf":"rs","parameter_city":"ibirapuita","area_code":54},{"uf":"rs","city":"Ibirub\u00e1","parameter_uf":"rs","parameter_city":"ibiruba","area_code":54},{"uf":"rs","city":"Igrejinha","parameter_uf":"rs","parameter_city":"igrejinha","area_code":51},{"uf":"rs","city":"Iju\u00ed","parameter_uf":"rs","parameter_city":"ijui","area_code":55},{"uf":"rs","city":"Il\u00f3polis","parameter_uf":"rs","parameter_city":"ilopolis","area_code":51},{"uf":"rs","city":"Imb\u00e9","parameter_uf":"rs","parameter_city":"imbe","area_code":51},{"uf":"rs","city":"Imigrante","parameter_uf":"rs","parameter_city":"imigrante","area_code":51},{"uf":"rs","city":"Independ\u00eancia","parameter_uf":"rs","parameter_city":"independencia","area_code":55},{"uf":"rs","city":"Inhacor\u00e1","parameter_uf":"rs","parameter_city":"inhacora","area_code":55},{"uf":"rs","city":"Ip\u00ea","parameter_uf":"rs","parameter_city":"ipe","area_code":54},{"uf":"rs","city":"Ipiranga do sul","parameter_uf":"rs","parameter_city":"ipiranga-do-sul","area_code":54},{"uf":"rs","city":"Ira\u00ed","parameter_uf":"rs","parameter_city":"irai","area_code":55},{"uf":"rs","city":"Itaara","parameter_uf":"rs","parameter_city":"itaara","area_code":55},{"uf":"rs","city":"Itacurubi","parameter_uf":"rs","parameter_city":"itacurubi","area_code":55},{"uf":"rs","city":"Itapuca","parameter_uf":"rs","parameter_city":"itapuca","area_code":51},{"uf":"rs","city":"Itaqui","parameter_uf":"rs","parameter_city":"itaqui","area_code":55},{"uf":"rs","city":"Itati","parameter_uf":"rs","parameter_city":"itati","area_code":51},{"uf":"rs","city":"Itatiba do sul","parameter_uf":"rs","parameter_city":"itatiba-do-sul","area_code":54},{"uf":"rs","city":"Ivor\u00e1","parameter_uf":"rs","parameter_city":"ivora","area_code":55},{"uf":"rs","city":"Ivoti","parameter_uf":"rs","parameter_city":"ivoti","area_code":51},{"uf":"rs","city":"Jaboticaba","parameter_uf":"rs","parameter_city":"jaboticaba","area_code":55},{"uf":"rs","city":"Jacuizinho","parameter_uf":"rs","parameter_city":"jacuizinho","area_code":55},{"uf":"rs","city":"Jacutinga","parameter_uf":"rs","parameter_city":"jacutinga","area_code":54},{"uf":"rs","city":"Jaguar\u00e3o","parameter_uf":"rs","parameter_city":"jaguarao","area_code":53},{"uf":"rs","city":"Jaguari","parameter_uf":"rs","parameter_city":"jaguari","area_code":55},{"uf":"rs","city":"Jaquirana","parameter_uf":"rs","parameter_city":"jaquirana","area_code":54},{"uf":"rs","city":"Jari","parameter_uf":"rs","parameter_city":"jari","area_code":55},{"uf":"rs","city":"J\u00f3ia","parameter_uf":"rs","parameter_city":"joia","area_code":55},{"uf":"rs","city":"J\u00falio de castilhos","parameter_uf":"rs","parameter_city":"julio-de-castilhos","area_code":55},{"uf":"rs","city":"Lagoa bonita do sul","parameter_uf":"rs","parameter_city":"lagoa-bonita-do-sul","area_code":51},{"uf":"rs","city":"Lagoa dos tr\u00eas cantos","parameter_uf":"rs","parameter_city":"lagoa-dos-tres-cantos","area_code":54},{"uf":"rs","city":"Lagoa vermelha","parameter_uf":"rs","parameter_city":"lagoa-vermelha","area_code":54},{"uf":"rs","city":"Lago\u00e3o","parameter_uf":"rs","parameter_city":"lagoao","area_code":51},{"uf":"rs","city":"Lajeado","parameter_uf":"rs","parameter_city":"lajeado","area_code":51},{"uf":"rs","city":"Lajeado do bugre","parameter_uf":"rs","parameter_city":"lajeado-do-bugre","area_code":55},{"uf":"rs","city":"Lavras do sul","parameter_uf":"rs","parameter_city":"lavras-do-sul","area_code":55},{"uf":"rs","city":"Liberato salzano","parameter_uf":"rs","parameter_city":"liberato-salzano","area_code":55},{"uf":"rs","city":"Lindolfo collor","parameter_uf":"rs","parameter_city":"lindolfo-collor","area_code":51},{"uf":"rs","city":"Linha nova","parameter_uf":"rs","parameter_city":"linha-nova","area_code":51},{"uf":"rs","city":"Ma\u00e7ambara","parameter_uf":"rs","parameter_city":"macambara","area_code":55},{"uf":"rs","city":"Machadinho","parameter_uf":"rs","parameter_city":"machadinho","area_code":54},{"uf":"rs","city":"Mampituba","parameter_uf":"rs","parameter_city":"mampituba","area_code":51},{"uf":"rs","city":"Manoel viana","parameter_uf":"rs","parameter_city":"manoel-viana","area_code":55},{"uf":"rs","city":"Maquin\u00e9","parameter_uf":"rs","parameter_city":"maquine","area_code":51},{"uf":"rs","city":"Marat\u00e1","parameter_uf":"rs","parameter_city":"marata","area_code":51},{"uf":"rs","city":"Marau","parameter_uf":"rs","parameter_city":"marau","area_code":54},{"uf":"rs","city":"Marcelino ramos","parameter_uf":"rs","parameter_city":"marcelino-ramos","area_code":54},{"uf":"rs","city":"Mariana pimentel","parameter_uf":"rs","parameter_city":"mariana-pimentel","area_code":51},{"uf":"rs","city":"Mariano moro","parameter_uf":"rs","parameter_city":"mariano-moro","area_code":54},{"uf":"rs","city":"Marques de souza","parameter_uf":"rs","parameter_city":"marques-de-souza","area_code":51},{"uf":"rs","city":"Mata","parameter_uf":"rs","parameter_city":"mata","area_code":55},{"uf":"rs","city":"Mato castelhano","parameter_uf":"rs","parameter_city":"mato-castelhano","area_code":54},{"uf":"rs","city":"Mato leit\u00e3o","parameter_uf":"rs","parameter_city":"mato-leitao","area_code":51},{"uf":"rs","city":"Mato queimado","parameter_uf":"rs","parameter_city":"mato-queimado","area_code":55},{"uf":"rs","city":"Minas do le\u00e3o","parameter_uf":"rs","parameter_city":"minas-do-leao","area_code":51},{"uf":"rs","city":"Miragua\u00ed","parameter_uf":"rs","parameter_city":"miraguai","area_code":55},{"uf":"rs","city":"Montauri","parameter_uf":"rs","parameter_city":"montauri","area_code":54},{"uf":"rs","city":"Monte belo do sul","parameter_uf":"rs","parameter_city":"monte-belo-do-sul","area_code":54},{"uf":"rs","city":"Montenegro","parameter_uf":"rs","parameter_city":"montenegro","area_code":51},{"uf":"rs","city":"Morma\u00e7o","parameter_uf":"rs","parameter_city":"mormaco","area_code":54},{"uf":"rs","city":"Morrinhos do sul","parameter_uf":"rs","parameter_city":"morrinhos-do-sul","area_code":51},{"uf":"rs","city":"Morro redondo","parameter_uf":"rs","parameter_city":"morro-redondo","area_code":53},{"uf":"rs","city":"Morro reuter","parameter_uf":"rs","parameter_city":"morro-reuter","area_code":51},{"uf":"rs","city":"Mostardas","parameter_uf":"rs","parameter_city":"mostardas","area_code":51},{"uf":"rs","city":"Mu\u00e7um","parameter_uf":"rs","parameter_city":"mucum","area_code":51},{"uf":"rs","city":"Muitos cap\u00f5es","parameter_uf":"rs","parameter_city":"muitos-capoes","area_code":54},{"uf":"rs","city":"Muliterno","parameter_uf":"rs","parameter_city":"muliterno","area_code":54},{"uf":"rs","city":"N\u00e3o-me-toque","parameter_uf":"rs","parameter_city":"nao-me-toque","area_code":54},{"uf":"rs","city":"Nicolau vergueiro","parameter_uf":"rs","parameter_city":"nicolau-vergueiro","area_code":54},{"uf":"rs","city":"Nonoai","parameter_uf":"rs","parameter_city":"nonoai","area_code":54},{"uf":"rs","city":"Nova alvorada","parameter_uf":"rs","parameter_city":"nova-alvorada","area_code":54},{"uf":"rs","city":"Nova ara\u00e7\u00e1","parameter_uf":"rs","parameter_city":"nova-araca","area_code":54},{"uf":"rs","city":"Nova bassano","parameter_uf":"rs","parameter_city":"nova-bassano","area_code":54},{"uf":"rs","city":"Nova boa vista","parameter_uf":"rs","parameter_city":"nova-boa-vista","area_code":54},{"uf":"rs","city":"Nova br\u00e9scia","parameter_uf":"rs","parameter_city":"nova-brescia","area_code":51},{"uf":"rs","city":"Nova candel\u00e1ria","parameter_uf":"rs","parameter_city":"nova-candelaria","area_code":55},{"uf":"rs","city":"Nova esperan\u00e7a do sul","parameter_uf":"rs","parameter_city":"nova-esperanca-do-sul","area_code":55},{"uf":"rs","city":"Nova hartz","parameter_uf":"rs","parameter_city":"nova-hartz","area_code":51},{"uf":"rs","city":"Nova p\u00e1dua","parameter_uf":"rs","parameter_city":"nova-padua","area_code":54},{"uf":"rs","city":"Nova palma","parameter_uf":"rs","parameter_city":"nova-palma","area_code":55},{"uf":"rs","city":"Nova petr\u00f3polis","parameter_uf":"rs","parameter_city":"nova-petropolis","area_code":54},{"uf":"rs","city":"Nova prata","parameter_uf":"rs","parameter_city":"nova-prata","area_code":54},{"uf":"rs","city":"Nova ramada","parameter_uf":"rs","parameter_city":"nova-ramada","area_code":55},{"uf":"rs","city":"Nova roma do sul","parameter_uf":"rs","parameter_city":"nova-roma-do-sul","area_code":54},{"uf":"rs","city":"Nova santa rita","parameter_uf":"rs","parameter_city":"nova-santa-rita","area_code":51},{"uf":"rs","city":"Novo barreiro","parameter_uf":"rs","parameter_city":"novo-barreiro","area_code":55},{"uf":"rs","city":"Novo cabrais","parameter_uf":"rs","parameter_city":"novo-cabrais","area_code":51},{"uf":"rs","city":"Novo hamburgo","parameter_uf":"rs","parameter_city":"novo-hamburgo","area_code":51},{"uf":"rs","city":"Novo machado","parameter_uf":"rs","parameter_city":"novo-machado","area_code":55},{"uf":"rs","city":"Novo tiradentes","parameter_uf":"rs","parameter_city":"novo-tiradentes","area_code":55},{"uf":"rs","city":"Novo xingu","parameter_uf":"rs","parameter_city":"novo-xingu","area_code":54},{"uf":"rs","city":"Os\u00f3rio","parameter_uf":"rs","parameter_city":"osorio","area_code":51},{"uf":"rs","city":"Paim filho","parameter_uf":"rs","parameter_city":"paim-filho","area_code":54},{"uf":"rs","city":"Palmares do sul","parameter_uf":"rs","parameter_city":"palmares-do-sul","area_code":51},{"uf":"rs","city":"Palmeira das miss\u00f5es","parameter_uf":"rs","parameter_city":"palmeira-das-missoes","area_code":55},{"uf":"rs","city":"Palmitinho","parameter_uf":"rs","parameter_city":"palmitinho","area_code":55},{"uf":"rs","city":"Panambi","parameter_uf":"rs","parameter_city":"panambi","area_code":55},{"uf":"rs","city":"P\u00e2ntano grande","parameter_uf":"rs","parameter_city":"pantano-grande","area_code":51},{"uf":"rs","city":"Para\u00ed","parameter_uf":"rs","parameter_city":"parai","area_code":54},{"uf":"rs","city":"Para\u00edso do sul","parameter_uf":"rs","parameter_city":"paraiso-do-sul","area_code":55},{"uf":"rs","city":"Pareci novo","parameter_uf":"rs","parameter_city":"pareci-novo","area_code":51},{"uf":"rs","city":"Parob\u00e9","parameter_uf":"rs","parameter_city":"parobe","area_code":51},{"uf":"rs","city":"Passa sete","parameter_uf":"rs","parameter_city":"passa-sete","area_code":51},{"uf":"rs","city":"Passo do sobrado","parameter_uf":"rs","parameter_city":"passo-do-sobrado","area_code":51},{"uf":"rs","city":"Passo fundo","parameter_uf":"rs","parameter_city":"passo-fundo","area_code":54},{"uf":"rs","city":"Paulo bento","parameter_uf":"rs","parameter_city":"paulo-bento","area_code":54},{"uf":"rs","city":"Paverama","parameter_uf":"rs","parameter_city":"paverama","area_code":51},{"uf":"rs","city":"Pedras altas","parameter_uf":"rs","parameter_city":"pedras-altas","area_code":53},{"uf":"rs","city":"Pedro os\u00f3rio","parameter_uf":"rs","parameter_city":"pedro-osorio","area_code":53},{"uf":"rs","city":"Peju\u00e7ara","parameter_uf":"rs","parameter_city":"pejucara","area_code":55},{"uf":"rs","city":"Pelotas","parameter_uf":"rs","parameter_city":"pelotas","area_code":53},{"uf":"rs","city":"Picada caf\u00e9","parameter_uf":"rs","parameter_city":"picada-cafe","area_code":54},{"uf":"rs","city":"Pinhal","parameter_uf":"rs","parameter_city":"pinhal","area_code":55},{"uf":"rs","city":"Pinhal da serra","parameter_uf":"rs","parameter_city":"pinhal-da-serra","area_code":54},{"uf":"rs","city":"Pinhal grande","parameter_uf":"rs","parameter_city":"pinhal-grande","area_code":55},{"uf":"rs","city":"Pinheirinho do vale","parameter_uf":"rs","parameter_city":"pinheirinho-do-vale","area_code":55},{"uf":"rs","city":"Pinheiro machado","parameter_uf":"rs","parameter_city":"pinheiro-machado","area_code":53},{"uf":"rs","city":"Pinto bandeira","parameter_uf":"rs","parameter_city":"pinto-bandeira","area_code":54},{"uf":"rs","city":"Pirap\u00f3","parameter_uf":"rs","parameter_city":"pirapo","area_code":55},{"uf":"rs","city":"Piratini","parameter_uf":"rs","parameter_city":"piratini","area_code":53},{"uf":"rs","city":"Planalto","parameter_uf":"rs","parameter_city":"planalto","area_code":55},{"uf":"rs","city":"Po\u00e7o das antas","parameter_uf":"rs","parameter_city":"poco-das-antas","area_code":51},{"uf":"rs","city":"Pont\u00e3o","parameter_uf":"rs","parameter_city":"pontao","area_code":54},{"uf":"rs","city":"Ponte preta","parameter_uf":"rs","parameter_city":"ponte-preta","area_code":54},{"uf":"rs","city":"Port\u00e3o","parameter_uf":"rs","parameter_city":"portao","area_code":51},{"uf":"rs","city":"Porto alegre","parameter_uf":"rs","parameter_city":"porto-alegre","area_code":51},{"uf":"rs","city":"Porto lucena","parameter_uf":"rs","parameter_city":"porto-lucena","area_code":55},{"uf":"rs","city":"Porto mau\u00e1","parameter_uf":"rs","parameter_city":"porto-maua","area_code":55},{"uf":"rs","city":"Porto vera cruz","parameter_uf":"rs","parameter_city":"porto-vera-cruz","area_code":55},{"uf":"rs","city":"Porto xavier","parameter_uf":"rs","parameter_city":"porto-xavier","area_code":55},{"uf":"rs","city":"Pouso novo","parameter_uf":"rs","parameter_city":"pouso-novo","area_code":51},{"uf":"rs","city":"Presidente lucena","parameter_uf":"rs","parameter_city":"presidente-lucena","area_code":51},{"uf":"rs","city":"Progresso","parameter_uf":"rs","parameter_city":"progresso","area_code":51},{"uf":"rs","city":"Prot\u00e1sio alves","parameter_uf":"rs","parameter_city":"protasio-alves","area_code":54},{"uf":"rs","city":"Putinga","parameter_uf":"rs","parameter_city":"putinga","area_code":51},{"uf":"rs","city":"Quara\u00ed","parameter_uf":"rs","parameter_city":"quarai","area_code":55},{"uf":"rs","city":"Quatro irmaos","parameter_uf":"rs","parameter_city":"quatro-irmaos","area_code":54},{"uf":"rs","city":"Quevedos","parameter_uf":"rs","parameter_city":"quevedos","area_code":55},{"uf":"rs","city":"Quinze de novembro","parameter_uf":"rs","parameter_city":"quinze-de-novembro","area_code":54},{"uf":"rs","city":"Redentora","parameter_uf":"rs","parameter_city":"redentora","area_code":55},{"uf":"rs","city":"Relvado","parameter_uf":"rs","parameter_city":"relvado","area_code":51},{"uf":"rs","city":"Restinga seca","parameter_uf":"rs","parameter_city":"restinga-seca","area_code":55},{"uf":"rs","city":"Rio dos indios","parameter_uf":"rs","parameter_city":"rio-dos-indios","area_code":54},{"uf":"rs","city":"Rio grande","parameter_uf":"rs","parameter_city":"rio-grande","area_code":53},{"uf":"rs","city":"Rio pardo","parameter_uf":"rs","parameter_city":"rio-pardo","area_code":51},{"uf":"rs","city":"Riozinho","parameter_uf":"rs","parameter_city":"riozinho","area_code":51},{"uf":"rs","city":"Roca sales","parameter_uf":"rs","parameter_city":"roca-sales","area_code":51},{"uf":"rs","city":"Rodeio bonito","parameter_uf":"rs","parameter_city":"rodeio-bonito","area_code":55},{"uf":"rs","city":"Rolador","parameter_uf":"rs","parameter_city":"rolador","area_code":55},{"uf":"rs","city":"Rolante","parameter_uf":"rs","parameter_city":"rolante","area_code":51},{"uf":"rs","city":"Ronda alta","parameter_uf":"rs","parameter_city":"ronda-alta","area_code":54},{"uf":"rs","city":"Rondinha","parameter_uf":"rs","parameter_city":"rondinha","area_code":54},{"uf":"rs","city":"Roque gonzales","parameter_uf":"rs","parameter_city":"roque-gonzales","area_code":55},{"uf":"rs","city":"Ros\u00e1rio do sul","parameter_uf":"rs","parameter_city":"rosario-do-sul","area_code":55},{"uf":"rs","city":"Sagrada fam\u00edlia","parameter_uf":"rs","parameter_city":"sagrada-familia","area_code":55},{"uf":"rs","city":"Saldanha marinho","parameter_uf":"rs","parameter_city":"saldanha-marinho","area_code":55},{"uf":"rs","city":"Salto do jacu\u00ed","parameter_uf":"rs","parameter_city":"salto-do-jacui","area_code":55},{"uf":"rs","city":"Salvador das miss\u00f5es","parameter_uf":"rs","parameter_city":"salvador-das-missoes","area_code":55},{"uf":"rs","city":"Salvador do sul","parameter_uf":"rs","parameter_city":"salvador-do-sul","area_code":51},{"uf":"rs","city":"Sananduva","parameter_uf":"rs","parameter_city":"sananduva","area_code":54},{"uf":"rs","city":"Santa b\u00e1rbara do sul","parameter_uf":"rs","parameter_city":"santa-barbara-do-sul","area_code":55},{"uf":"rs","city":"Santa cecilia do sul","parameter_uf":"rs","parameter_city":"santa-cecilia-do-sul","area_code":54},{"uf":"rs","city":"Santa clara do sul","parameter_uf":"rs","parameter_city":"santa-clara-do-sul","area_code":51},{"uf":"rs","city":"Santa cruz do sul","parameter_uf":"rs","parameter_city":"santa-cruz-do-sul","area_code":51},{"uf":"rs","city":"Santa maria","parameter_uf":"rs","parameter_city":"santa-maria","area_code":55},{"uf":"rs","city":"Santa maria do herval","parameter_uf":"rs","parameter_city":"santa-maria-do-herval","area_code":51},{"uf":"rs","city":"Santa rosa","parameter_uf":"rs","parameter_city":"santa-rosa","area_code":55},{"uf":"rs","city":"Santa tereza","parameter_uf":"rs","parameter_city":"santa-tereza","area_code":54},{"uf":"rs","city":"Santana da boa vista","parameter_uf":"rs","parameter_city":"santana-da-boa-vista","area_code":53},{"uf":"rs","city":"Santiago","parameter_uf":"rs","parameter_city":"santiago","area_code":55},{"uf":"rs","city":"Santo \u00e2ngelo","parameter_uf":"rs","parameter_city":"santo-angelo","area_code":55},{"uf":"rs","city":"Santo augusto","parameter_uf":"rs","parameter_city":"santo-augusto","area_code":55},{"uf":"rs","city":"Santo cristo","parameter_uf":"rs","parameter_city":"santo-cristo","area_code":55},{"uf":"rs","city":"Santo expedito do sul","parameter_uf":"rs","parameter_city":"santo-expedito-do-sul","area_code":54},{"uf":"rs","city":"S\u00e3o borja","parameter_uf":"rs","parameter_city":"sao-borja","area_code":55},{"uf":"rs","city":"S\u00e3o domingos do sul","parameter_uf":"rs","parameter_city":"sao-domingos-do-sul","area_code":54},{"uf":"rs","city":"S\u00e3o francisco de assis","parameter_uf":"rs","parameter_city":"sao-francisco-de-assis","area_code":55},{"uf":"rs","city":"S\u00e3o francisco de paula","parameter_uf":"rs","parameter_city":"sao-francisco-de-paula","area_code":54},{"uf":"rs","city":"S\u00e3o gabriel","parameter_uf":"rs","parameter_city":"sao-gabriel","area_code":55},{"uf":"rs","city":"S\u00e3o jer\u00f4nimo","parameter_uf":"rs","parameter_city":"sao-jeronimo","area_code":51},{"uf":"rs","city":"S\u00e3o jo\u00e3o da urtiga","parameter_uf":"rs","parameter_city":"sao-joao-da-urtiga","area_code":54},{"uf":"rs","city":"S\u00e3o jo\u00e3o do pol\u00easine","parameter_uf":"rs","parameter_city":"sao-joao-do-polesine","area_code":55},{"uf":"rs","city":"S\u00e3o jorge","parameter_uf":"rs","parameter_city":"sao-jorge","area_code":54},{"uf":"rs","city":"S\u00e3o jos\u00e9 das miss\u00f5es","parameter_uf":"rs","parameter_city":"sao-jose-das-missoes","area_code":55},{"uf":"rs","city":"S\u00e3o jos\u00e9 do herval","parameter_uf":"rs","parameter_city":"sao-jose-do-herval","area_code":54},{"uf":"rs","city":"S\u00e3o jos\u00e9 do hort\u00eancio","parameter_uf":"rs","parameter_city":"sao-jose-do-hortencio","area_code":51},{"uf":"rs","city":"S\u00e3o jos\u00e9 do inhacor\u00e1","parameter_uf":"rs","parameter_city":"sao-jose-do-inhacora","area_code":55},{"uf":"rs","city":"S\u00e3o jos\u00e9 do norte","parameter_uf":"rs","parameter_city":"sao-jose-do-norte","area_code":53},{"uf":"rs","city":"S\u00e3o jos\u00e9 do ouro","parameter_uf":"rs","parameter_city":"sao-jose-do-ouro","area_code":54},{"uf":"rs","city":"Sao jose do sul","parameter_uf":"rs","parameter_city":"sao-jose-do-sul","area_code":51},{"uf":"rs","city":"S\u00e3o jos\u00e9 dos ausentes","parameter_uf":"rs","parameter_city":"sao-jose-dos-ausentes","area_code":54},{"uf":"rs","city":"S\u00e3o leopoldo","parameter_uf":"rs","parameter_city":"sao-leopoldo","area_code":51},{"uf":"rs","city":"S\u00e3o louren\u00e7o do sul","parameter_uf":"rs","parameter_city":"sao-lourenco-do-sul","area_code":53},{"uf":"rs","city":"S\u00e3o luiz gonzaga","parameter_uf":"rs","parameter_city":"sao-luiz-gonzaga","area_code":55},{"uf":"rs","city":"S\u00e3o marcos","parameter_uf":"rs","parameter_city":"sao-marcos","area_code":54},{"uf":"rs","city":"S\u00e3o martinho","parameter_uf":"rs","parameter_city":"sao-martinho","area_code":55},{"uf":"rs","city":"S\u00e3o martinho da serra","parameter_uf":"rs","parameter_city":"sao-martinho-da-serra","area_code":55},{"uf":"rs","city":"S\u00e3o miguel das miss\u00f5es","parameter_uf":"rs","parameter_city":"sao-miguel-das-missoes","area_code":55},{"uf":"rs","city":"S\u00e3o nicolau","parameter_uf":"rs","parameter_city":"sao-nicolau","area_code":55},{"uf":"rs","city":"S\u00e3o paulo das miss\u00f5es","parameter_uf":"rs","parameter_city":"sao-paulo-das-missoes","area_code":55},{"uf":"rs","city":"S\u00e3o pedro da serra","parameter_uf":"rs","parameter_city":"sao-pedro-da-serra","area_code":51},{"uf":"rs","city":"Sao pedro das miss\u00f5es","parameter_uf":"rs","parameter_city":"sao-pedro-das-missoes","area_code":55},{"uf":"rs","city":"S\u00e3o pedro do buti\u00e1","parameter_uf":"rs","parameter_city":"sao-pedro-do-butia","area_code":55},{"uf":"rs","city":"S\u00e3o pedro do sul","parameter_uf":"rs","parameter_city":"sao-pedro-do-sul","area_code":55},{"uf":"rs","city":"S\u00e3o sebasti\u00e3o do ca\u00ed","parameter_uf":"rs","parameter_city":"sao-sebastiao-do-cai","area_code":51},{"uf":"rs","city":"S\u00e3o sep\u00e9","parameter_uf":"rs","parameter_city":"sao-sepe","area_code":55},{"uf":"rs","city":"S\u00e3o valentim","parameter_uf":"rs","parameter_city":"sao-valentim","area_code":54},{"uf":"rs","city":"S\u00e3o valentim do sul","parameter_uf":"rs","parameter_city":"sao-valentim-do-sul","area_code":54},{"uf":"rs","city":"S\u00e3o val\u00e9rio do sul","parameter_uf":"rs","parameter_city":"sao-valerio-do-sul","area_code":55},{"uf":"rs","city":"S\u00e3o vendelino","parameter_uf":"rs","parameter_city":"sao-vendelino","area_code":51},{"uf":"rs","city":"S\u00e3o vicente do sul","parameter_uf":"rs","parameter_city":"sao-vicente-do-sul","area_code":55},{"uf":"rs","city":"Sapiranga","parameter_uf":"rs","parameter_city":"sapiranga","area_code":51},{"uf":"rs","city":"Sapucaia do sul","parameter_uf":"rs","parameter_city":"sapucaia-do-sul","area_code":51},{"uf":"rs","city":"Sarandi","parameter_uf":"rs","parameter_city":"sarandi","area_code":54},{"uf":"rs","city":"Seberi","parameter_uf":"rs","parameter_city":"seberi","area_code":55},{"uf":"rs","city":"Sede nova","parameter_uf":"rs","parameter_city":"sede-nova","area_code":55},{"uf":"rs","city":"Segredo","parameter_uf":"rs","parameter_city":"segredo","area_code":51},{"uf":"rs","city":"Selbach","parameter_uf":"rs","parameter_city":"selbach","area_code":54},{"uf":"rs","city":"Senador salgado filho","parameter_uf":"rs","parameter_city":"senador-salgado-filho","area_code":55},{"uf":"rs","city":"Sentinela do sul","parameter_uf":"rs","parameter_city":"sentinela-do-sul","area_code":51},{"uf":"rs","city":"Serafina corr\u00eaa","parameter_uf":"rs","parameter_city":"serafina-correa","area_code":54},{"uf":"rs","city":"S\u00e9rio","parameter_uf":"rs","parameter_city":"serio","area_code":51},{"uf":"rs","city":"Sert\u00e3o","parameter_uf":"rs","parameter_city":"sertao","area_code":54},{"uf":"rs","city":"Sert\u00e3o santana","parameter_uf":"rs","parameter_city":"sertao-santana","area_code":51},{"uf":"rs","city":"Sete de setembro","parameter_uf":"rs","parameter_city":"sete-de-setembro","area_code":55},{"uf":"rs","city":"Severiano de almeida","parameter_uf":"rs","parameter_city":"severiano-de-almeida","area_code":54},{"uf":"rs","city":"Silveira martins","parameter_uf":"rs","parameter_city":"silveira-martins","area_code":55},{"uf":"rs","city":"Sinimbu","parameter_uf":"rs","parameter_city":"sinimbu","area_code":51},{"uf":"rs","city":"Sobradinho","parameter_uf":"rs","parameter_city":"sobradinho","area_code":51},{"uf":"rs","city":"Soledade","parameter_uf":"rs","parameter_city":"soledade","area_code":54},{"uf":"rs","city":"Taba\u00ed","parameter_uf":"rs","parameter_city":"tabai","area_code":51},{"uf":"rs","city":"Tapejara","parameter_uf":"rs","parameter_city":"tapejara","area_code":54},{"uf":"rs","city":"Tapera","parameter_uf":"rs","parameter_city":"tapera","area_code":54},{"uf":"rs","city":"Tapes","parameter_uf":"rs","parameter_city":"tapes","area_code":51},{"uf":"rs","city":"Taquara","parameter_uf":"rs","parameter_city":"taquara","area_code":51},{"uf":"rs","city":"Taquari","parameter_uf":"rs","parameter_city":"taquari","area_code":51},{"uf":"rs","city":"Taquaru\u00e7u do sul","parameter_uf":"rs","parameter_city":"taquarucu-do-sul","area_code":55},{"uf":"rs","city":"Tavares","parameter_uf":"rs","parameter_city":"tavares","area_code":51},{"uf":"rs","city":"Tenente portela","parameter_uf":"rs","parameter_city":"tenente-portela","area_code":55},{"uf":"rs","city":"Terra de areia","parameter_uf":"rs","parameter_city":"terra-de-areia","area_code":51},{"uf":"rs","city":"Teut\u00f4nia","parameter_uf":"rs","parameter_city":"teutonia","area_code":51},{"uf":"rs","city":"Tio hugo","parameter_uf":"rs","parameter_city":"tio-hugo","area_code":54},{"uf":"rs","city":"Tiradentes do sul","parameter_uf":"rs","parameter_city":"tiradentes-do-sul","area_code":55},{"uf":"rs","city":"Toropi","parameter_uf":"rs","parameter_city":"toropi","area_code":55},{"uf":"rs","city":"Torres","parameter_uf":"rs","parameter_city":"torres","area_code":51},{"uf":"rs","city":"Tramanda\u00ed","parameter_uf":"rs","parameter_city":"tramandai","area_code":51},{"uf":"rs","city":"Travesseiro","parameter_uf":"rs","parameter_city":"travesseiro","area_code":51},{"uf":"rs","city":"Tr\u00eas arroios","parameter_uf":"rs","parameter_city":"tres-arroios","area_code":54},{"uf":"rs","city":"Tr\u00eas cachoeiras","parameter_uf":"rs","parameter_city":"tres-cachoeiras","area_code":51},{"uf":"rs","city":"Tr\u00eas coroas","parameter_uf":"rs","parameter_city":"tres-coroas","area_code":51},{"uf":"rs","city":"Tr\u00eas de maio","parameter_uf":"rs","parameter_city":"tres-de-maio","area_code":55},{"uf":"rs","city":"Tr\u00eas forquilhas","parameter_uf":"rs","parameter_city":"tres-forquilhas","area_code":51},{"uf":"rs","city":"Tr\u00eas palmeiras","parameter_uf":"rs","parameter_city":"tres-palmeiras","area_code":54},{"uf":"rs","city":"Tr\u00eas passos","parameter_uf":"rs","parameter_city":"tres-passos","area_code":55},{"uf":"rs","city":"Trindade do sul","parameter_uf":"rs","parameter_city":"trindade-do-sul","area_code":54},{"uf":"rs","city":"Triunfo","parameter_uf":"rs","parameter_city":"triunfo","area_code":51},{"uf":"rs","city":"Tucunduva","parameter_uf":"rs","parameter_city":"tucunduva","area_code":55},{"uf":"rs","city":"Tunas","parameter_uf":"rs","parameter_city":"tunas","area_code":51},{"uf":"rs","city":"Tupanci do sul","parameter_uf":"rs","parameter_city":"tupanci-do-sul","area_code":54},{"uf":"rs","city":"Tupanciret\u00e3","parameter_uf":"rs","parameter_city":"tupancireta","area_code":55},{"uf":"rs","city":"Tupandi","parameter_uf":"rs","parameter_city":"tupandi","area_code":51},{"uf":"rs","city":"Tuparendi","parameter_uf":"rs","parameter_city":"tuparendi","area_code":55},{"uf":"rs","city":"Turu\u00e7u","parameter_uf":"rs","parameter_city":"turucu","area_code":53},{"uf":"rs","city":"Ubiretama","parameter_uf":"rs","parameter_city":"ubiretama","area_code":55},{"uf":"rs","city":"Uni\u00e3o da serra","parameter_uf":"rs","parameter_city":"uniao-da-serra","area_code":54},{"uf":"rs","city":"Unistalda","parameter_uf":"rs","parameter_city":"unistalda","area_code":55},{"uf":"rs","city":"Uruguaiana","parameter_uf":"rs","parameter_city":"uruguaiana","area_code":55},{"uf":"rs","city":"Vacaria","parameter_uf":"rs","parameter_city":"vacaria","area_code":54},{"uf":"rs","city":"Vale do sol","parameter_uf":"rs","parameter_city":"vale-do-sol","area_code":51},{"uf":"rs","city":"Vale real","parameter_uf":"rs","parameter_city":"vale-real","area_code":51},{"uf":"rs","city":"Vale verde","parameter_uf":"rs","parameter_city":"vale-verde","area_code":51},{"uf":"rs","city":"Vanini","parameter_uf":"rs","parameter_city":"vanini","area_code":54},{"uf":"rs","city":"Ven\u00e2ncio aires","parameter_uf":"rs","parameter_city":"venancio-aires","area_code":51},{"uf":"rs","city":"Vera cruz","parameter_uf":"rs","parameter_city":"vera-cruz","area_code":51},{"uf":"rs","city":"Veran\u00f3polis","parameter_uf":"rs","parameter_city":"veranopolis","area_code":54},{"uf":"rs","city":"Vespasiano correa","parameter_uf":"rs","parameter_city":"vespasiano-correa","area_code":51},{"uf":"rs","city":"Viadutos","parameter_uf":"rs","parameter_city":"viadutos","area_code":54},{"uf":"rs","city":"Viam\u00e3o","parameter_uf":"rs","parameter_city":"viamao","area_code":51},{"uf":"rs","city":"Vicente dutra","parameter_uf":"rs","parameter_city":"vicente-dutra","area_code":55},{"uf":"rs","city":"Victor graeff","parameter_uf":"rs","parameter_city":"victor-graeff","area_code":54},{"uf":"rs","city":"Vila flores","parameter_uf":"rs","parameter_city":"vila-flores","area_code":54},{"uf":"rs","city":"Vila l\u00e2ngaro","parameter_uf":"rs","parameter_city":"vila-langaro","area_code":54},{"uf":"rs","city":"Vila maria","parameter_uf":"rs","parameter_city":"vila-maria","area_code":54},{"uf":"rs","city":"Vila nova do sul","parameter_uf":"rs","parameter_city":"vila-nova-do-sul","area_code":55},{"uf":"rs","city":"Vista alegre","parameter_uf":"rs","parameter_city":"vista-alegre","area_code":55},{"uf":"rs","city":"Vista alegre do prata","parameter_uf":"rs","parameter_city":"vista-alegre-do-prata","area_code":54},{"uf":"rs","city":"Vista ga\u00facha","parameter_uf":"rs","parameter_city":"vista-gaucha","area_code":55},{"uf":"rs","city":"Vit\u00f3ria das miss\u00f5es","parameter_uf":"rs","parameter_city":"vitoria-das-missoes","area_code":55},{"uf":"rs","city":"Westfalia","parameter_uf":"rs","parameter_city":"westfalia","area_code":51},{"uf":"rs","city":"Xangri-l\u00e1","parameter_uf":"rs","parameter_city":"xangri-la","area_code":51}]