[{"uf":"se","city":"Aquidab\u00e3","parameter_uf":"se","parameter_city":"aquidaba","area_code":79},{"uf":"se","city":"Aracaju","parameter_uf":"se","parameter_city":"aracaju","area_code":79},{"uf":"se","city":"Arau\u00e1","parameter_uf":"se","parameter_city":"araua","area_code":79},{"uf":"se","city":"Areia branca","parameter_uf":"se","parameter_city":"areia-branca","area_code":79},{"uf":"se","city":"Barra dos coqueiros","parameter_uf":"se","parameter_city":"barra-dos-coqueiros","area_code":79},{"uf":"se","city":"Boquim","parameter_uf":"se","parameter_city":"boquim","area_code":79},{"uf":"se","city":"Brejo grande","parameter_uf":"se","parameter_city":"brejo-grande","area_code":79},{"uf":"se","city":"Campo do brito","parameter_uf":"se","parameter_city":"campo-do-brito","area_code":79},{"uf":"se","city":"Canhoba","parameter_uf":"se","parameter_city":"canhoba","area_code":79},{"uf":"se","city":"Canind\u00e9 de s\u00e3o","parameter_uf":"se","parameter_city":"caninde-de-sao","area_code":79},{"uf":"se","city":"Capela","parameter_uf":"se","parameter_city":"capela","area_code":79},{"uf":"se","city":"Carira","parameter_uf":"se","parameter_city":"carira","area_code":79},{"uf":"se","city":"Carm\u00f3polis","parameter_uf":"se","parameter_city":"carmopolis","area_code":79},{"uf":"se","city":"Cedro de s\u00e3o jo\u00e3o","parameter_uf":"se","parameter_city":"cedro-de-sao-joao","area_code":79},{"uf":"se","city":"Cristin\u00e1polis","parameter_uf":"se","parameter_city":"cristinapolis","area_code":79},{"uf":"se","city":"Cumbe","parameter_uf":"se","parameter_city":"cumbe","area_code":79},{"uf":"se","city":"Divina pastora","parameter_uf":"se","parameter_city":"divina-pastora","area_code":79},{"uf":"se","city":"Est\u00e2ncia","parameter_uf":"se","parameter_city":"estancia","area_code":79},{"uf":"se","city":"Feira nova","parameter_uf":"se","parameter_city":"feira-nova","area_code":79},{"uf":"se","city":"Frei paulo","parameter_uf":"se","parameter_city":"frei-paulo","area_code":79},{"uf":"se","city":"Gararu","parameter_uf":"se","parameter_city":"gararu","area_code":79},{"uf":"se","city":"General maynard","parameter_uf":"se","parameter_city":"general-maynard","area_code":79},{"uf":"se","city":"Gracho cardoso","parameter_uf":"se","parameter_city":"gracho-cardoso","area_code":79},{"uf":"se","city":"Ilha das flores","parameter_uf":"se","parameter_city":"ilha-das-flores","area_code":79},{"uf":"se","city":"Indiaroba","parameter_uf":"se","parameter_city":"indiaroba","area_code":79},{"uf":"se","city":"Itabaiana","parameter_uf":"se","parameter_city":"itabaiana","area_code":79},{"uf":"se","city":"Itabaianinha","parameter_uf":"se","parameter_city":"itabaianinha","area_code":79},{"uf":"se","city":"Itabi","parameter_uf":"se","parameter_city":"itabi","area_code":79},{"uf":"se","city":"Itaporanga d'ajuda","parameter_uf":"se","parameter_city":"itaporanga-d-ajuda","area_code":79},{"uf":"se","city":"Japaratuba","parameter_uf":"se","parameter_city":"japaratuba","area_code":79},{"uf":"se","city":"Japoat\u00e3","parameter_uf":"se","parameter_city":"japoata","area_code":79},{"uf":"se","city":"Lagarto","parameter_uf":"se","parameter_city":"lagarto","area_code":79},{"uf":"se","city":"Laranjeiras","parameter_uf":"se","parameter_city":"laranjeiras","area_code":79},{"uf":"se","city":"Macambira","parameter_uf":"se","parameter_city":"macambira","area_code":79},{"uf":"se","city":"Malhada dos bois","parameter_uf":"se","parameter_city":"malhada-dos-bois","area_code":79},{"uf":"se","city":"Malhador","parameter_uf":"se","parameter_city":"malhador","area_code":79},{"uf":"se","city":"Maruim","parameter_uf":"se","parameter_city":"maruim","area_code":79},{"uf":"se","city":"Moita bonita","parameter_uf":"se","parameter_city":"moita-bonita","area_code":79},{"uf":"se","city":"Muribeca","parameter_uf":"se","parameter_city":"muribeca","area_code":79},{"uf":"se","city":"Ne\u00f3polis","parameter_uf":"se","parameter_city":"neopolis","area_code":79},{"uf":"se","city":"Pacatuba","parameter_uf":"se","parameter_city":"pacatuba","area_code":79},{"uf":"se","city":"Pedra mole","parameter_uf":"se","parameter_city":"pedra-mole","area_code":79},{"uf":"se","city":"Pedrinhas","parameter_uf":"se","parameter_city":"pedrinhas","area_code":79},{"uf":"se","city":"Pinh\u00e3o","parameter_uf":"se","parameter_city":"pinhao","area_code":79},{"uf":"se","city":"Pirambu","parameter_uf":"se","parameter_city":"pirambu","area_code":79},{"uf":"se","city":"Po\u00e7o redondo","parameter_uf":"se","parameter_city":"poco-redondo","area_code":79},{"uf":"se","city":"Po\u00e7o verde","parameter_uf":"se","parameter_city":"poco-verde","area_code":79},{"uf":"se","city":"Porto da folha","parameter_uf":"se","parameter_city":"porto-da-folha","area_code":79},{"uf":"se","city":"Propri\u00e1","parameter_uf":"se","parameter_city":"propria","area_code":79},{"uf":"se","city":"Riach\u00e3o do dantas","parameter_uf":"se","parameter_city":"riachao-do-dantas","area_code":79},{"uf":"se","city":"Riachuelo","parameter_uf":"se","parameter_city":"riachuelo","area_code":79},{"uf":"se","city":"Ribeir\u00f3polis","parameter_uf":"se","parameter_city":"ribeiropolis","area_code":79},{"uf":"se","city":"Ros\u00e1rio do catete","parameter_uf":"se","parameter_city":"rosario-do-catete","area_code":79},{"uf":"se","city":"Salgado","parameter_uf":"se","parameter_city":"salgado","area_code":79},{"uf":"se","city":"Santa luzia do itanhy","parameter_uf":"se","parameter_city":"santa-luzia-do-itanhy","area_code":79},{"uf":"se","city":"Santa rosa de lima","parameter_uf":"se","parameter_city":"santa-rosa-de-lima","area_code":79},{"uf":"se","city":"S\u00e3o crist\u00f3v\u00e3o","parameter_uf":"se","parameter_city":"sao-cristovao","area_code":79},{"uf":"se","city":"S\u00e3o domingos","parameter_uf":"se","parameter_city":"sao-domingos","area_code":79},{"uf":"se","city":"S\u00e3o francisco","parameter_uf":"se","parameter_city":"sao-francisco","area_code":79},{"uf":"se","city":"S\u00e3o miguel do aleixo","parameter_uf":"se","parameter_city":"sao-miguel-do-aleixo","area_code":79},{"uf":"se","city":"Sim\u00e3o dias","parameter_uf":"se","parameter_city":"simao-dias","area_code":79},{"uf":"se","city":"Siriri","parameter_uf":"se","parameter_city":"siriri","area_code":79},{"uf":"se","city":"Telha","parameter_uf":"se","parameter_city":"telha","area_code":79},{"uf":"se","city":"Tobias barreto","parameter_uf":"se","parameter_city":"tobias-barreto","area_code":79},{"uf":"se","city":"Tomar do geru","parameter_uf":"se","parameter_city":"tomar-do-geru","area_code":79}]